{"type": "FeatureCollection", "features": [{"type": "Feature", "properties": {"unitId": "usace-whitney", "name": "Lake Whitney State Park", "kind": "state_park", "labelLon": -97.36161, "labelLat": 31.92548}, "geometry": {"type": "Polygon", "coordinates": [[[-97.37566, 31.9196], [-97.37551, 31.92001], [-97.37523, 31.9203], [-97.37495, 31.92052], [-97.3747, 31.92066], [-97.37451, 31.92105], [-97.37435, 31.92123], [-97.37415, 31.92133], [-97.37376, 31.92151], [-97.3738, 31.92196], [-97.37362, 31.92224], [-97.37331, 31.9225], [-97.37322, 31.92275], [-97.37308, 31.92299], [-97.37306, 31.9232], [-97.37315, 31.92352], [-97.37314, 31.92363], [-97.37264, 31.92358], [-97.37243, 31.92365], [-97.37264, 31.92398], [-97.37245, 31.92439], [-97.37202, 31.92515], [-97.37184, 31.92524], [-97.37185, 31.92538], [-97.37153, 31.92557], [-97.37105, 31.92628], [-97.37086, 31.92636], [-97.37078, 31.92672], [-97.37057, 31.92718], [-97.37016, 31.92765], [-97.36982, 31.92781], [-97.36976, 31.92797], [-97.36959, 31.92834], [-97.36935, 31.92848], [-97.36906, 31.92854], [-97.36893, 31.92853], [-97.36817, 31.92813], [-97.36841, 31.92841], [-97.36887, 31.92874], [-97.36894, 31.92887], [-97.36895, 31.92943], [-97.36905, 31.92986], [-97.36898, 31.92995], [-97.36891, 31.93016], [-97.3663, 31.934], [-97.36222, 31.9336], [-97.35841, 31.93548], [-97.34876, 31.92145], [-97.3488, 31.92139], [-97.34881, 31.92111], [-97.34866, 31.92043], [-97.34866, 31.92027], [-97.34859, 31.91981], [-97.34876, 31.91942], [-97.34884, 31.91855], [-97.34907, 31.91795], [-97.34908, 31.91779], [-97.34903, 31.91764], [-97.349, 31.91724], [-97.34892, 31.91707], [-97.34882, 31.91668], [-97.3488, 31.91667], [-97.34837, 31.91622], [-97.34808, 31.91607], [-97.34778, 31.91582], [-97.34801, 31.91565], [-97.3494, 31.91556], [-97.3506, 31.91575], [-97.35091, 31.91623], [-97.35129, 31.9175], [-97.35149, 31.91769], [-97.35192, 31.91758], [-97.35199, 31.91691], [-97.35213, 31.91676], [-97.35223, 31.91637], [-97.35259, 31.91587], [-97.35265, 31.9156], [-97.35276, 31.91553], [-97.35304, 31.91559], [-97.35325, 31.91556], [-97.35365, 31.91529], [-97.35423, 31.91547], [-97.35576, 31.91615], [-97.3558, 31.91631], [-97.35586, 31.91658], [-97.35593, 31.91664], [-97.35602, 31.91657], [-97.35615, 31.91642], [-97.35642, 31.91639], [-97.35707, 31.91675], [-97.35782, 31.91706], [-97.35819, 31.91714], [-97.35907, 31.9175], [-97.35919, 31.91768], [-97.35934, 31.91771], [-97.35963, 31.91767], [-97.36049, 31.91803], [-97.36052, 31.91822], [-97.36046, 31.91832], [-97.36025, 31.91826], [-97.35967, 31.91811], [-97.35988, 31.91848], [-97.36016, 31.9187], [-97.36017, 31.91886], [-97.35993, 31.91921], [-97.35974, 31.91923], [-97.35978, 31.91943], [-97.35961, 31.91968], [-97.35891, 31.91969], [-97.35947, 31.91997], [-97.35954, 31.92011], [-97.35949, 31.92062], [-97.35956, 31.92074], [-97.3597, 31.92052], [-97.36003, 31.9199], [-97.36058, 31.91932], [-97.36109, 31.91943], [-97.36127, 31.91986], [-97.36129, 31.9202], [-97.36175, 31.921], [-97.36182, 31.92134], [-97.3619, 31.92141], [-97.36195, 31.92136], [-97.36194, 31.92062], [-97.36184, 31.92024], [-97.36191, 31.91996], [-97.36184, 31.9196], [-97.36187, 31.91915], [-97.3619, 31.91877], [-97.36202, 31.91846], [-97.36218, 31.91841], [-97.36256, 31.91842], [-97.36285, 31.91851], [-97.36317, 31.91877], [-97.36323, 31.91879], [-97.36341, 31.9187], [-97.36341, 31.9185], [-97.36366, 31.91845], [-97.36469, 31.91853], [-97.36476, 31.91859], [-97.36476, 31.91952], [-97.36489, 31.91983], [-97.36494, 31.92037], [-97.3651, 31.91996], [-97.36511, 31.91968], [-97.36524, 31.91926], [-97.36537, 31.9191], [-97.36549, 31.91885], [-97.36587, 31.91848], [-97.36601, 31.91841], [-97.36617, 31.91842], [-97.36642, 31.91851], [-97.36662, 31.91848], [-97.36675, 31.91852], [-97.36687, 31.91852], [-97.36692, 31.91858], [-97.36702, 31.91929], [-97.36721, 31.91955], [-97.36725, 31.92018], [-97.36718, 31.92043], [-97.36722, 31.92043], [-97.36737, 31.92026], [-97.3675, 31.91988], [-97.36758, 31.91978], [-97.36759, 31.91963], [-97.36756, 31.91878], [-97.36769, 31.91853], [-97.36785, 31.91846], [-97.36819, 31.91849], [-97.36879, 31.91848], [-97.36913, 31.91846], [-97.37039, 31.91847], [-97.3707, 31.91877], [-97.37097, 31.9188], [-97.37105, 31.91876], [-97.37115, 31.91862], [-97.37179, 31.91837], [-97.37222, 31.91828], [-97.37321, 31.91817], [-97.3736, 31.91824], [-97.37388, 31.91841], [-97.37429, 31.91848], [-97.37453, 31.91837], [-97.37477, 31.91834], [-97.37497, 31.91843], [-97.37515, 31.91864], [-97.37535, 31.9187], [-97.37556, 31.91888], [-97.37568, 31.9193], [-97.37566, 31.9196]]]}}, {"type": "Feature", "properties": {"unitId": "usace-wright-patman", "name": "Atlanta State Park", "kind": "state_park", "labelLon": -94.24435, "labelLat": 33.22971}, "geometry": {"type": "Polygon", "coordinates": [[[-94.26925, 33.22628], [-94.26949, 33.23218], [-94.26946, 33.2322], [-94.2693, 33.23198], [-94.2689, 33.23205], [-94.26886, 33.23194], [-94.26885, 33.23182], [-94.26851, 33.23183], [-94.26819, 33.232], [-94.26806, 33.23193], [-94.26763, 33.23212], [-94.26751, 33.2319], [-94.26732, 33.23172], [-94.26721, 33.23159], [-94.26745, 33.23151], [-94.26757, 33.23128], [-94.26787, 33.2309], [-94.26812, 33.23078], [-94.26836, 33.23071], [-94.26845, 33.23035], [-94.26856, 33.23015], [-94.26866, 33.22993], [-94.26854, 33.22976], [-94.26842, 33.22965], [-94.26824, 33.22957], [-94.26811, 33.22942], [-94.26802, 33.22922], [-94.26806, 33.22889], [-94.26813, 33.22871], [-94.26805, 33.22852], [-94.26792, 33.22835], [-94.26778, 33.22813], [-94.26768, 33.22799], [-94.26778, 33.2278], [-94.26784, 33.2276], [-94.26777, 33.22738], [-94.26772, 33.22722], [-94.2674, 33.22738], [-94.26723, 33.22755], [-94.26684, 33.22763], [-94.26676, 33.22755], [-94.26669, 33.22746], [-94.26675, 33.22732], [-94.26668, 33.22721], [-94.26627, 33.22753], [-94.26612, 33.22744], [-94.26603, 33.22757], [-94.26616, 33.22778], [-94.2662, 33.22802], [-94.26613, 33.22825], [-94.26604, 33.22844], [-94.26598, 33.22853], [-94.26619, 33.22867], [-94.26645, 33.2288], [-94.2664, 33.22896], [-94.26653, 33.22913], [-94.26656, 33.22935], [-94.26648, 33.22951], [-94.26654, 33.22963], [-94.2667, 33.22984], [-94.26687, 33.23018], [-94.2669, 33.23038], [-94.26698, 33.23057], [-94.267, 33.23077], [-94.26676, 33.23085], [-94.26652, 33.23088], [-94.26623, 33.23099], [-94.26609, 33.23106], [-94.26589, 33.23122], [-94.26577, 33.23134], [-94.26574, 33.23163], [-94.26603, 33.23208], [-94.266, 33.23223], [-94.26605, 33.23248], [-94.26612, 33.23281], [-94.26689, 33.23318], [-94.26727, 33.23353], [-94.26749, 33.23366], [-94.26774, 33.23352], [-94.26804, 33.23359], [-94.26812, 33.23395], [-94.26795, 33.23428], [-94.26743, 33.23452], [-94.267, 33.23466], [-94.2668, 33.23481], [-94.26651, 33.23477], [-94.26643, 33.23492], [-94.26605, 33.23498], [-94.2657, 33.23471], [-94.26541, 33.23481], [-94.26518, 33.23473], [-94.26495, 33.23468], [-94.26445, 33.23486], [-94.26444, 33.2346], [-94.26383, 33.23461], [-94.26363, 33.23478], [-94.26322, 33.23487], [-94.26294, 33.23479], [-94.26342, 33.23452], [-94.2636, 33.23429], [-94.26346, 33.23421], [-94.26328, 33.23418], [-94.26261, 33.2344], [-94.26256, 33.23427], [-94.26252, 33.23414], [-94.26226, 33.23425], [-94.26214, 33.23416], [-94.26219, 33.23404], [-94.26189, 33.23403], [-94.26107, 33.23438], [-94.26059, 33.23462], [-94.2599, 33.23464], [-94.25953, 33.23363], [-94.25937, 33.23353], [-94.25937, 33.23324], [-94.25914, 33.23283], [-94.25916, 33.23263], [-94.25897, 33.23256], [-94.2589, 33.23235], [-94.25873, 33.23228], [-94.2586, 33.23235], [-94.25853, 33.23244], [-94.25839, 33.23266], [-94.25823, 33.23257], [-94.25812, 33.23247], [-94.25794, 33.23247], [-94.2577, 33.2326], [-94.25733, 33.23244], [-94.25705, 33.2324], [-94.25697, 33.23224], [-94.25714, 33.23185], [-94.25734, 33.23156], [-94.25698, 33.23177], [-94.25672, 33.23196], [-94.25654, 33.23182], [-94.25635, 33.23177], [-94.25628, 33.23224], [-94.2565, 33.23261], [-94.25691, 33.2328], [-94.25696, 33.23303], [-94.25714, 33.23327], [-94.25734, 33.23367], [-94.25731, 33.23393], [-94.2574, 33.23416], [-94.25727, 33.23424], [-94.25735, 33.23446], [-94.25727, 33.23463], [-94.25703, 33.23491], [-94.25688, 33.23516], [-94.25695, 33.23549], [-94.25682, 33.23597], [-94.25659, 33.23651], [-94.25642, 33.23673], [-94.2563, 33.237], [-94.25633, 33.23725], [-94.25646, 33.23759], [-94.25658, 33.23802], [-94.25674, 33.23834], [-94.25678, 33.23862], [-94.25672, 33.23887], [-94.25661, 33.23908], [-94.25638, 33.23924], [-94.25609, 33.2393], [-94.2557, 33.23915], [-94.2556, 33.23923], [-94.25553, 33.23931], [-94.25543, 33.23925], [-94.2552, 33.23921], [-94.25481, 33.23923], [-94.2544, 33.23918], [-94.25422, 33.23909], [-94.25392, 33.23889], [-94.2541, 33.23857], [-94.25384, 33.23846], [-94.25364, 33.23841], [-94.25331, 33.23857], [-94.25312, 33.23862], [-94.25292, 33.23869], [-94.2528, 33.23889], [-94.25307, 33.2392], [-94.25295, 33.23941], [-94.25243, 33.24013], [-94.25231, 33.24027], [-94.25194, 33.24079], [-94.25174, 33.241], [-94.25156, 33.24106], [-94.25123, 33.24115], [-94.25075, 33.24109], [-94.25047, 33.24111], [-94.25028, 33.24088], [-94.25015, 33.2404], [-94.2497, 33.24021], [-94.24948, 33.23998], [-94.24923, 33.23976], [-94.24902, 33.23951], [-94.2486, 33.23913], [-94.2484, 33.23888], [-94.24817, 33.23874], [-94.24787, 33.23879], [-94.24752, 33.23885], [-94.24717, 33.23871], [-94.24584, 33.23865], [-94.24564, 33.23844], [-94.24517, 33.23824], [-94.24461, 33.23822], [-94.2444, 33.23801], [-94.24413, 33.23772], [-94.24387, 33.23746], [-94.24322, 33.23761], [-94.24277, 33.23765], [-94.24247, 33.23756], [-94.24226, 33.23747], [-94.24215, 33.2374], [-94.24187, 33.23733], [-94.24124, 33.23741], [-94.24093, 33.2377], [-94.24034, 33.2379], [-94.23998, 33.23813], [-94.23954, 33.23825], [-94.23942, 33.23846], [-94.23883, 33.23855], [-94.23819, 33.23847], [-94.2378, 33.23837], [-94.23725, 33.23842], [-94.23766, 33.23806], [-94.23794, 33.23794], [-94.23808, 33.2376], [-94.23841, 33.23757], [-94.23858, 33.23738], [-94.23816, 33.237], [-94.2382, 33.23676], [-94.23838, 33.23654], [-94.2386, 33.23636], [-94.23836, 33.23621], [-94.23785, 33.23616], [-94.23755, 33.23667], [-94.23711, 33.2369], [-94.23715, 33.23721], [-94.2365, 33.23714], [-94.23623, 33.23713], [-94.23588, 33.23707], [-94.2357, 33.23701], [-94.23533, 33.23711], [-94.23526, 33.23694], [-94.23493, 33.23716], [-94.23464, 33.23715], [-94.23427, 33.23711], [-94.23342, 33.23724], [-94.23307, 33.237], [-94.23297, 33.23672], [-94.2328, 33.23628], [-94.23265, 33.23621], [-94.23255, 33.23603], [-94.2324, 33.23597], [-94.23222, 33.2358], [-94.23204, 33.2357], [-94.23173, 33.2357], [-94.23167, 33.23556], [-94.23147, 33.23564], [-94.23119, 33.23558], [-94.23142, 33.23536], [-94.23151, 33.23511], [-94.23172, 33.23529], [-94.23209, 33.23493], [-94.23226, 33.23473], [-94.23189, 33.23431], [-94.23184, 33.23396], [-94.23169, 33.23406], [-94.23159, 33.23394], [-94.23172, 33.23367], [-94.23244, 33.23364], [-94.23261, 33.23346], [-94.23282, 33.23319], [-94.23285, 33.23287], [-94.23297, 33.23266], [-94.23288, 33.23261], [-94.23291, 33.23235], [-94.23256, 33.23211], [-94.23211, 33.23231], [-94.23198, 33.2321], [-94.23198, 33.23159], [-94.23158, 33.23133], [-94.23136, 33.23108], [-94.22952, 33.23084], [-94.22934, 33.2312], [-94.22878, 33.23133], [-94.22864, 33.231], [-94.22878, 33.23065], [-94.2287, 33.23019], [-94.22816, 33.22978], [-94.22799, 33.2299], [-94.22781, 33.23024], [-94.22795, 33.23047], [-94.22792, 33.23079], [-94.22782, 33.23116], [-94.22807, 33.23145], [-94.22823, 33.23172], [-94.22815, 33.23193], [-94.22804, 33.23211], [-94.22788, 33.23247], [-94.22813, 33.23261], [-94.22828, 33.23274], [-94.22819, 33.233], [-94.22833, 33.23342], [-94.2288, 33.23374], [-94.22909, 33.23396], [-94.22926, 33.23444], [-94.22915, 33.23463], [-94.22897, 33.23484], [-94.22873, 33.23502], [-94.22862, 33.23518], [-94.22823, 33.23552], [-94.22784, 33.23578], [-94.22745, 33.23622], [-94.22717, 33.23648], [-94.22716, 33.23678], [-94.22741, 33.23688], [-94.22761, 33.23709], [-94.22778, 33.23729], [-94.22789, 33.23765], [-94.22809, 33.2378], [-94.22821, 33.23837], [-94.2284, 33.23856], [-94.22867, 33.23875], [-94.22902, 33.23892], [-94.22947, 33.23921], [-94.22961, 33.23945], [-94.22971, 33.23986], [-94.23021, 33.23964], [-94.23039, 33.23978], [-94.23048, 33.24021], [-94.2303, 33.24056], [-94.2305, 33.24066], [-94.23044, 33.24104], [-94.23059, 33.24081], [-94.23085, 33.24082], [-94.23059, 33.24137], [-94.23028, 33.24153], [-94.22994, 33.2417], [-94.22951, 33.2418], [-94.22897, 33.24211], [-94.22777, 33.24217], [-94.22761, 33.24228], [-94.22731, 33.2424], [-94.22685, 33.24224], [-94.22654, 33.24203], [-94.22697, 33.24174], [-94.22751, 33.24161], [-94.22777, 33.24148], [-94.22823, 33.24143], [-94.22813, 33.24182], [-94.22828, 33.24179], [-94.22886, 33.24147], [-94.22905, 33.24113], [-94.22882, 33.24109], [-94.22874, 33.24087], [-94.22829, 33.24074], [-94.22801, 33.2408], [-94.22782, 33.24063], [-94.2263, 33.24052], [-94.22609, 33.24034], [-94.22617, 33.23996], [-94.22639, 33.23993], [-94.22692, 33.23996], [-94.22748, 33.24001], [-94.22725, 33.23979], [-94.22674, 33.23972], [-94.22633, 33.23983], [-94.2262, 33.23965], [-94.2259, 33.23953], [-94.22576, 33.23926], [-94.22558, 33.239], [-94.22526, 33.23902], [-94.22522, 33.23867], [-94.22556, 33.23861], [-94.22582, 33.23873], [-94.22628, 33.23869], [-94.22658, 33.23897], [-94.22673, 33.2392], [-94.22663, 33.23936], [-94.22671, 33.2395], [-94.22712, 33.23938], [-94.22737, 33.2392], [-94.22759, 33.23925], [-94.2279, 33.23943], [-94.22817, 33.2397], [-94.22842, 33.23985], [-94.2285, 33.23958], [-94.22842, 33.23934], [-94.2278, 33.23908], [-94.2278, 33.23883], [-94.22718, 33.23832], [-94.22687, 33.23826], [-94.22652, 33.23837], [-94.22596, 33.23859], [-94.22565, 33.23808], [-94.22547, 33.23801], [-94.22534, 33.23782], [-94.22504, 33.23775], [-94.22485, 33.23764], [-94.22421, 33.23749], [-94.2241, 33.23706], [-94.2238, 33.23707], [-94.22375, 33.23675], [-94.22338, 33.23716], [-94.22319, 33.23784], [-94.22258, 33.23759], [-94.22259, 33.2382], [-94.22156, 33.2375], [-94.22139, 33.23134], [-94.22209, 33.23135], [-94.22212, 33.22672], [-94.22867, 33.22675], [-94.22867, 33.22528], [-94.22865, 33.22528], [-94.22865, 33.22527], [-94.22571, 33.22525], [-94.22574, 33.22013], [-94.22861, 33.22015], [-94.22867, 33.21701], [-94.23063, 33.21701], [-94.23054, 33.22013], [-94.23056, 33.22013], [-94.23056, 33.22014], [-94.24079, 33.22025], [-94.24064, 33.22915], [-94.241, 33.22914], [-94.24143, 33.22903], [-94.24271, 33.22906], [-94.24317, 33.22921], [-94.24379, 33.2293], [-94.24471, 33.22913], [-94.24498, 33.22914], [-94.24564, 33.22926], [-94.24679, 33.22928], [-94.24833, 33.22918], [-94.24941, 33.22878], [-94.24945, 33.22878], [-94.24955, 33.22461], [-94.25843, 33.22473], [-94.25832, 33.22892], [-94.25834, 33.22892], [-94.25834, 33.22893], [-94.26097, 33.22901], [-94.26098, 33.22649], [-94.26925, 33.22628]]]}}, {"type": "Feature", "properties": {"unitId": "usace-somerville", "name": "Lake Somerville State Park - Nails Creek Unit", "kind": "state_park", "labelLon": -96.71866, "labelLat": 30.27427}, "geometry": {"type": "Polygon", "coordinates": [[[-96.73993, 30.25776], [-96.73973, 30.25626], [-96.74175, 30.25812], [-96.74167, 30.25843], [-96.7404, 30.26069], [-96.74027, 30.26075], [-96.74008, 30.26109], [-96.74004, 30.26117], [-96.74197, 30.26281], [-96.73976, 30.26428], [-96.73817, 30.26853], [-96.73719, 30.26912], [-96.73652, 30.26938], [-96.73272, 30.26584], [-96.73161, 30.26571], [-96.73144, 30.26559], [-96.73129, 30.2656], [-96.73121, 30.26566], [-96.7312, 30.26566], [-96.7312, 30.26567], [-96.73116, 30.26569], [-96.73117, 30.26575], [-96.7307, 30.2672], [-96.7327, 30.26884], [-96.73552, 30.27137], [-96.73487, 30.2721], [-96.73318, 30.27035], [-96.73289, 30.27052], [-96.72948, 30.27176], [-96.72877, 30.27297], [-96.72788, 30.2735], [-96.72618, 30.27207], [-96.72811, 30.27408], [-96.72807, 30.27416], [-96.72864, 30.27466], [-96.72845, 30.27465], [-96.72676, 30.27446], [-96.72621, 30.27733], [-96.7228, 30.27785], [-96.72166, 30.27698], [-96.72022, 30.2758], [-96.72018, 30.27584], [-96.72018, 30.27584], [-96.71999, 30.27598], [-96.71965, 30.27602], [-96.71954, 30.27602], [-96.71938, 30.27609], [-96.71925, 30.27624], [-96.71906, 30.27636], [-96.71885, 30.27643], [-96.71869, 30.27652], [-96.7186, 30.2766], [-96.71855, 30.27675], [-96.71856, 30.27684], [-96.71862, 30.27688], [-96.71881, 30.27692], [-96.71897, 30.27703], [-96.71901, 30.27711], [-96.71902, 30.27715], [-96.71884, 30.27735], [-96.71884, 30.27736], [-96.71872, 30.27735], [-96.71848, 30.2773], [-96.7182, 30.27728], [-96.71792, 30.27729], [-96.71757, 30.27737], [-96.7174, 30.27738], [-96.71727, 30.27733], [-96.71693, 30.27717], [-96.71686, 30.27718], [-96.71665, 30.27724], [-96.71652, 30.27737], [-96.71642, 30.27738], [-96.71628, 30.27733], [-96.71597, 30.27721], [-96.71579, 30.2772], [-96.71548, 30.27729], [-96.71527, 30.27744], [-96.71513, 30.27755], [-96.71507, 30.27758], [-96.715, 30.27757], [-96.7149, 30.27754], [-96.71477, 30.27746], [-96.71464, 30.27743], [-96.71459, 30.27744], [-96.71432, 30.27769], [-96.71405, 30.27781], [-96.71358, 30.27792], [-96.71348, 30.27803], [-96.71341, 30.27809], [-96.7134, 30.27813], [-96.71282, 30.27865], [-96.71277, 30.27863], [-96.71265, 30.27864], [-96.71247, 30.27869], [-96.71241, 30.27876], [-96.71242, 30.27891], [-96.71244, 30.27897], [-96.71164, 30.27968], [-96.71147, 30.27972], [-96.71139, 30.27982], [-96.71127, 30.27992], [-96.7111, 30.28008], [-96.7109, 30.28013], [-96.71046, 30.28024], [-96.70987, 30.28064], [-96.70971, 30.28075], [-96.70881, 30.28107], [-96.70855, 30.28128], [-96.70845, 30.2815], [-96.70841, 30.28194], [-96.7083, 30.28227], [-96.70822, 30.28245], [-96.70813, 30.28276], [-96.70805, 30.28284], [-96.70799, 30.28287], [-96.70781, 30.28295], [-96.70721, 30.28309], [-96.70718, 30.2831], [-96.70689, 30.28315], [-96.70659, 30.28316], [-96.70625, 30.28313], [-96.70597, 30.28333], [-96.70596, 30.28339], [-96.70481, 30.28366], [-96.70459, 30.28359], [-96.70421, 30.28364], [-96.70406, 30.28372], [-96.70399, 30.28377], [-96.70561, 30.28504], [-96.70709, 30.28626], [-96.70369, 30.29099], [-96.70356, 30.29116], [-96.70357, 30.29116], [-96.70346, 30.29131], [-96.70467, 30.29203], [-96.70373, 30.29213], [-96.70269, 30.29218], [-96.70171, 30.292], [-96.70068, 30.2917], [-96.69968, 30.29118], [-96.69745, 30.28932], [-96.69082, 30.28391], [-96.69184, 30.28235], [-96.6942, 30.28196], [-96.69501, 30.28249], [-96.69611, 30.28164], [-96.69614, 30.28164], [-96.69997, 30.281], [-96.70236, 30.2786], [-96.70465, 30.27741], [-96.70615, 30.27572], [-96.70649, 30.27533], [-96.7063, 30.27464], [-96.70649, 30.27445], [-96.7067, 30.27439], [-96.70694, 30.2751], [-96.70757, 30.27485], [-96.71076, 30.27368], [-96.71293, 30.27288], [-96.71423, 30.27076], [-96.71679, 30.26786], [-96.71702, 30.26797], [-96.71949, 30.26924], [-96.71985, 30.26845], [-96.72106, 30.26785], [-96.72107, 30.26782], [-96.72112, 30.26787], [-96.7222, 30.26585], [-96.72226, 30.2652], [-96.72163, 30.26466], [-96.72177, 30.26388], [-96.72484, 30.26355], [-96.7254, 30.26316], [-96.72608, 30.26307], [-96.72617, 30.26317], [-96.72641, 30.26302], [-96.73178, 30.26228], [-96.73241, 30.2627], [-96.73401, 30.26197], [-96.73965, 30.26119], [-96.73978, 30.26119], [-96.73979, 30.26117], [-96.73989, 30.26116], [-96.73988, 30.26102], [-96.74006, 30.26074], [-96.73986, 30.26051], [-96.73972, 30.25789], [-96.73993, 30.25776]]]}}, {"type": "Feature", "properties": {"unitId": "usace-somerville", "name": "Lake Somerville State Park - Birch Creek Unit", "kind": "state_park", "labelLon": -96.62675, "labelLat": 30.31002}, "geometry": {"type": "Polygon", "coordinates": [[[-96.63502, 30.3096], [-96.62104, 30.31826], [-96.62083, 30.31839], [-96.61909, 30.31952], [-96.61812, 30.32015], [-96.61797, 30.32016], [-96.61759, 30.32032], [-96.61688, 30.3203], [-96.61634, 30.32023], [-96.61589, 30.31991], [-96.61542, 30.32012], [-96.61533, 30.32009], [-96.61533, 30.31986], [-96.61546, 30.3196], [-96.61555, 30.31936], [-96.61559, 30.31897], [-96.61538, 30.31871], [-96.6151, 30.31909], [-96.61481, 30.31951], [-96.6146, 30.31963], [-96.61448, 30.32005], [-96.61437, 30.32026], [-96.61414, 30.32044], [-96.6138, 30.32058], [-96.61347, 30.32049], [-96.61303, 30.32028], [-96.61258, 30.31998], [-96.61212, 30.31968], [-96.6116, 30.31941], [-96.61117, 30.31919], [-96.61091, 30.31897], [-96.61064, 30.31881], [-96.6104, 30.31854], [-96.61045, 30.31808], [-96.61064, 30.31785], [-96.61083, 30.31765], [-96.61115, 30.31741], [-96.61129, 30.31719], [-96.61144, 30.31703], [-96.61174, 30.31692], [-96.61252, 30.31679], [-96.61304, 30.31658], [-96.61332, 30.31638], [-96.61355, 30.3161], [-96.61364, 30.31557], [-96.61373, 30.31517], [-96.61419, 30.315], [-96.61445, 30.31495], [-96.61512, 30.31495], [-96.61545, 30.31502], [-96.61561, 30.31519], [-96.61579, 30.31543], [-96.61582, 30.3156], [-96.61575, 30.31585], [-96.61579, 30.31607], [-96.61592, 30.31598], [-96.61595, 30.31567], [-96.616, 30.31557], [-96.61614, 30.31567], [-96.6163, 30.31581], [-96.61637, 30.31574], [-96.61621, 30.31554], [-96.61612, 30.31541], [-96.61617, 30.31527], [-96.61598, 30.31502], [-96.61588, 30.31501], [-96.61579, 30.31499], [-96.61561, 30.31497], [-96.61577, 30.31477], [-96.61606, 30.31466], [-96.61634, 30.31454], [-96.61649, 30.31417], [-96.61695, 30.31384], [-96.61734, 30.31355], [-96.61777, 30.31314], [-96.61824, 30.31279], [-96.61883, 30.31237], [-96.61912, 30.31198], [-96.61931, 30.31159], [-96.61939, 30.31145], [-96.61949, 30.31102], [-96.61944, 30.31077], [-96.61934, 30.31037], [-96.61924, 30.31016], [-96.6191, 30.30988], [-96.619, 30.30972], [-96.61877, 30.30945], [-96.61876, 30.30944], [-96.6187, 30.30931], [-96.61868, 30.30918], [-96.61858, 30.30904], [-96.61842, 30.309], [-96.61819, 30.30881], [-96.61793, 30.3086], [-96.61739, 30.3082], [-96.61686, 30.30776], [-96.61671, 30.30757], [-96.61669, 30.3074], [-96.61681, 30.30728], [-96.61707, 30.30719], [-96.6175, 30.30711], [-96.61811, 30.30712], [-96.6184, 30.30727], [-96.61874, 30.3075], [-96.61892, 30.30781], [-96.61892, 30.30809], [-96.61881, 30.30846], [-96.61883, 30.30866], [-96.61899, 30.30869], [-96.61914, 30.30857], [-96.61934, 30.30831], [-96.61939, 30.30779], [-96.61945, 30.3075], [-96.61951, 30.30685], [-96.6197, 30.30657], [-96.62019, 30.30627], [-96.62076, 30.30608], [-96.62099, 30.30587], [-96.62167, 30.3055], [-96.62213, 30.3052], [-96.62275, 30.305], [-96.62292, 30.30502], [-96.62311, 30.30508], [-96.62321, 30.30573], [-96.62333, 30.30643], [-96.62322, 30.30696], [-96.62323, 30.3071], [-96.62331, 30.30729], [-96.62359, 30.30767], [-96.62372, 30.3079], [-96.62349, 30.30882], [-96.6231, 30.30938], [-96.62317, 30.30958], [-96.6233, 30.30968], [-96.62346, 30.3097], [-96.62353, 30.30967], [-96.62359, 30.30966], [-96.6239, 30.30947], [-96.6243, 30.30931], [-96.62467, 30.30918], [-96.62524, 30.30899], [-96.62558, 30.30884], [-96.62619, 30.30863], [-96.6266, 30.30844], [-96.62664, 30.30842], [-96.62703, 30.30819], [-96.62739, 30.30799], [-96.62849, 30.30765], [-96.62915, 30.30748], [-96.62944, 30.30751], [-96.6296, 30.30765], [-96.63026, 30.30818], [-96.63029, 30.30836], [-96.63065, 30.30882], [-96.63086, 30.30915], [-96.63106, 30.3094], [-96.63093, 30.30888], [-96.6307, 30.30852], [-96.63062, 30.30832], [-96.63054, 30.30825], [-96.63046, 30.30818], [-96.63056, 30.30788], [-96.63044, 30.30746], [-96.63043, 30.30721], [-96.63057, 30.30694], [-96.63086, 30.30681], [-96.63136, 30.30666], [-96.63172, 30.30663], [-96.6322, 30.30662], [-96.63253, 30.30662], [-96.63286, 30.30653], [-96.63389, 30.30617], [-96.63447, 30.30591], [-96.63477, 30.30572], [-96.63509, 30.30548], [-96.63544, 30.3051], [-96.63553, 30.30499], [-96.63575, 30.30465], [-96.63624, 30.30422], [-96.63684, 30.30378], [-96.63736, 30.3033], [-96.63776, 30.30277], [-96.63799, 30.30233], [-96.63841, 30.3017], [-96.63943, 30.30098], [-96.63979, 30.30059], [-96.64022, 30.30031], [-96.64067, 30.30011], [-96.64084, 30.30009], [-96.64089, 30.30018], [-96.64089, 30.30074], [-96.641, 30.30099], [-96.64099, 30.30111], [-96.64088, 30.30125], [-96.64092, 30.30145], [-96.6409, 30.3016], [-96.64076, 30.30187], [-96.64102, 30.30187], [-96.64128, 30.30159], [-96.64145, 30.30122], [-96.64134, 30.30095], [-96.64135, 30.3008], [-96.64181, 30.30034], [-96.64236, 30.29985], [-96.64275, 30.29973], [-96.64285, 30.29983], [-96.64292, 30.29994], [-96.64314, 30.30016], [-96.64338, 30.30058], [-96.64359, 30.30123], [-96.64371, 30.30149], [-96.64385, 30.30176], [-96.64399, 30.30196], [-96.64417, 30.30216], [-96.6444, 30.30245], [-96.64447, 30.30276], [-96.64472, 30.30293], [-96.64509, 30.30293], [-96.64545, 30.30309], [-96.64571, 30.30322], [-96.64598, 30.3035], [-96.64651, 30.30382], [-96.6467, 30.304], [-96.64549, 30.30476], [-96.64434, 30.30549], [-96.63549, 30.31035], [-96.63502, 30.3096]]]}}]}