{"type": "FeatureCollection", "features": [{"type": "Feature", "properties": {"unitId": "usace-whitney", "name": "Access B1", "kind": "entry"}, "geometry": {"type": "Point", "coordinates": [-97.49445, 32.11559]}}, {"type": "Feature", "properties": {"unitId": "usace-whitney", "name": "Access B2", "kind": "entry"}, "geometry": {"type": "Point", "coordinates": [-97.4937, 32.09102]}}, {"type": "Feature", "properties": {"unitId": "usace-whitney", "name": "Access B3", "kind": "entry"}, "geometry": {"type": "Point", "coordinates": [-97.49716, 32.07749]}}, {"type": "Feature", "properties": {"unitId": "usace-whitney", "name": "Access B4", "kind": "entry"}, "geometry": {"type": "Point", "coordinates": [-97.50524, 32.05692]}}, {"type": "Feature", "properties": {"unitId": "usace-whitney", "name": "Access B5", "kind": "entry"}, "geometry": {"type": "Point", "coordinates": [-97.45898, 31.99594]}}, {"type": "Feature", "properties": {"unitId": "usace-whitney", "name": "Access B6", "kind": "entry"}, "geometry": {"type": "Point", "coordinates": [-97.41166, 31.97915]}}, {"type": "Feature", "properties": {"unitId": "usace-whitney", "name": "Access B7", "kind": "entry"}, "geometry": {"type": "Point", "coordinates": [-97.43541, 31.96564]}}, {"type": "Feature", "properties": {"unitId": "usace-whitney", "name": "Access B8", "kind": "entry"}, "geometry": {"type": "Point", "coordinates": [-97.43999, 31.91458]}}, {"type": "Feature", "properties": {"unitId": "usace-whitney", "name": "Access B9", "kind": "entry"}, "geometry": {"type": "Point", "coordinates": [-97.41424, 31.87285]}}, {"type": "Feature", "properties": {"unitId": "usace-whitney", "name": "Cedar Creek", "kind": "park"}, "geometry": {"type": "Point", "coordinates": [-97.37322, 31.99018]}}, {"type": "Feature", "properties": {"unitId": "usace-whitney", "name": "Cedron Creek", "kind": "park"}, "geometry": {"type": "Point", "coordinates": [-97.48581, 31.94327]}}, {"type": "Feature", "properties": {"unitId": "usace-whitney", "name": "Kimball Bend", "kind": "park"}, "geometry": {"type": "Point", "coordinates": [-97.4956, 32.12303]}}, {"type": "Feature", "properties": {"unitId": "usace-whitney", "name": "Lofers Bend East", "kind": "park"}, "geometry": {"type": "Point", "coordinates": [-97.35558, 31.88434]}}, {"type": "Feature", "properties": {"unitId": "usace-whitney", "name": "Lofers Bend West", "kind": "park"}, "geometry": {"type": "Point", "coordinates": [-97.36312, 31.87953]}}, {"type": "Feature", "properties": {"unitId": "usace-whitney", "name": "Lofers Day Use", "kind": "park"}, "geometry": {"type": "Point", "coordinates": [-97.35942, 31.88678]}}, {"type": "Feature", "properties": {"unitId": "usace-whitney", "name": "McCown Valley", "kind": "park"}, "geometry": {"type": "Point", "coordinates": [-97.40063, 31.94427]}}, {"type": "Feature", "properties": {"unitId": "usace-whitney", "name": "Plowman Creek", "kind": "park"}, "geometry": {"type": "Point", "coordinates": [-97.49713, 32.06829]}}, {"type": "Feature", "properties": {"unitId": "usace-whitney", "name": "Walling Bend", "kind": "park"}, "geometry": {"type": "Point", "coordinates": [-97.40115, 31.89425]}}, {"type": "Feature", "properties": {"unitId": "usace-whitney", "name": "Ham Creek Access", "kind": "boat_ramp"}, "geometry": {"type": "Point", "coordinates": [-97.48753, 32.17222]}}, {"type": "Feature", "properties": {"unitId": "usace-whitney", "name": "Steele Creek Park", "kind": "boat_ramp"}, "geometry": {"type": "Point", "coordinates": [-97.44914, 32.00585]}}, {"type": "Feature", "properties": {"unitId": "usace-bardwell", "name": "High View Park", "kind": "boat_ramp"}, "geometry": {"type": "Point", "coordinates": [-96.66276, 32.26677]}}, {"type": "Feature", "properties": {"unitId": "usace-bardwell", "name": "Mott Park", "kind": "boat_ramp"}, "geometry": {"type": "Point", "coordinates": [-96.66758, 32.25406]}}, {"type": "Feature", "properties": {"unitId": "usace-bardwell", "name": "Waxahachie Creek Park", "kind": "boat_ramp"}, "geometry": {"type": "Point", "coordinates": [-96.68726, 32.29273]}}, {"type": "Feature", "properties": {"unitId": "usace-belton", "name": "Westcliff Park", "kind": "park"}, "geometry": {"type": "Point", "coordinates": [-97.52027, 31.11799]}}, {"type": "Feature", "properties": {"unitId": "usace-belton", "name": "Live Oak Ridge Park", "kind": "park"}, "geometry": {"type": "Point", "coordinates": [-97.47092, 31.11274]}}, {"type": "Feature", "properties": {"unitId": "usace-belton", "name": "Cedar Ridge Park", "kind": "park"}, "geometry": {"type": "Point", "coordinates": [-97.4525, 31.16846]}}, {"type": "Feature", "properties": {"unitId": "usace-belton", "name": "White Flint Park", "kind": "park"}, "geometry": {"type": "Point", "coordinates": [-97.47034, 31.23041]}}, {"type": "Feature", "properties": {"unitId": "usace-georgetown", "name": "Cedar Breaks Park", "kind": "boat_ramp"}, "geometry": {"type": "Point", "coordinates": [-97.73976, 30.67124]}}, {"type": "Feature", "properties": {"unitId": "usace-georgetown", "name": "Jim Hogg Park", "kind": "boat_ramp"}, "geometry": {"type": "Point", "coordinates": [-97.74424, 30.68451]}}, {"type": "Feature", "properties": {"unitId": "usace-georgetown", "name": "Russell Park", "kind": "boat_ramp"}, "geometry": {"type": "Point", "coordinates": [-97.75666, 30.67636]}}, {"type": "Feature", "properties": {"unitId": "usace-proctor", "name": "Copperas East", "kind": "boat_ramp"}, "geometry": {"type": "Point", "coordinates": [-98.49801, 31.96721]}}, {"type": "Feature", "properties": {"unitId": "usace-proctor", "name": "Copperas West", "kind": "boat_ramp"}, "geometry": {"type": "Point", "coordinates": [-98.506, 31.974]}}, {"type": "Feature", "properties": {"unitId": "usace-proctor", "name": "Copperas Day Use", "kind": "boat_ramp"}, "geometry": {"type": "Point", "coordinates": [-98.489, 31.969]}}, {"type": "Feature", "properties": {"unitId": "usace-proctor", "name": "Sowell Creek Campground", "kind": "boat_ramp"}, "geometry": {"type": "Point", "coordinates": [-98.46, 31.992]}}, {"type": "Feature", "properties": {"unitId": "usace-proctor", "name": "Sowell Creek Day Use", "kind": "boat_ramp"}, "geometry": {"type": "Point", "coordinates": [-98.469, 31.973]}}, {"type": "Feature", "properties": {"unitId": "usace-proctor", "name": "Promontory North", "kind": "boat_ramp"}, "geometry": {"type": "Point", "coordinates": [-98.483, 31.988]}}, {"type": "Feature", "properties": {"unitId": "usace-proctor", "name": "Promontory South", "kind": "boat_ramp"}, "geometry": {"type": "Point", "coordinates": [-98.496, 31.978]}}, {"type": "Feature", "properties": {"unitId": "usace-stillhouse-hollow", "name": "Union Grove Park", "kind": "park"}, "geometry": {"type": "Point", "coordinates": [-97.61907, 31.01453]}}, {"type": "Feature", "properties": {"unitId": "usace-stillhouse-hollow", "name": "Dana Peak Park", "kind": "park"}, "geometry": {"type": "Point", "coordinates": [-97.60993, 31.02956]}}, {"type": "Feature", "properties": {"unitId": "usace-wright-patman", "name": "WP-25 Mudd Lake, Bassett Creek", "kind": "entry"}, "geometry": {"type": "Point", "coordinates": [-94.5677, 33.30373]}}, {"type": "Feature", "properties": {"unitId": "usace-wright-patman", "name": "WP-26 Picnic Tables, Bassett Creek", "kind": "entry"}, "geometry": {"type": "Point", "coordinates": [-94.52113, 33.30008]}}, {"type": "Feature", "properties": {"unitId": "usace-wright-patman", "name": "WP-99 Glenn's Mill", "kind": "entry"}, "geometry": {"type": "Point", "coordinates": [-94.52097, 33.30023]}}, {"type": "Feature", "properties": {"unitId": "usace-wright-patman", "name": "WP-30 South Corley", "kind": "entry"}, "geometry": {"type": "Point", "coordinates": [-94.39077, 33.30357]}}, {"type": "Feature", "properties": {"unitId": "usace-wright-patman", "name": "WP-34", "kind": "entry"}, "geometry": {"type": "Point", "coordinates": [-94.35302, 33.28765]}}, {"type": "Feature", "properties": {"unitId": "usace-wright-patman", "name": "WP-32", "kind": "entry"}, "geometry": {"type": "Point", "coordinates": [-94.35533, 33.28122]}}, {"type": "Feature", "properties": {"unitId": "usace-wright-patman", "name": "WP-36 Berry Farm", "kind": "entry"}, "geometry": {"type": "Point", "coordinates": [-94.27935, 33.27133]}}, {"type": "Feature", "properties": {"unitId": "usace-wright-patman", "name": "WP-51 Boy Scout", "kind": "entry"}, "geometry": {"type": "Point", "coordinates": [-94.24143, 33.3036]}}, {"type": "Feature", "properties": {"unitId": "usace-wright-patman", "name": "WP-45 Redwater", "kind": "entry"}, "geometry": {"type": "Point", "coordinates": [-94.25103, 33.34082]}}, {"type": "Feature", "properties": {"unitId": "usace-wright-patman", "name": "WP-52 Clear Springs ATV", "kind": "entry"}, "geometry": {"type": "Point", "coordinates": [-94.24955, 33.33457]}}, {"type": "Feature", "properties": {"unitId": "usace-wright-patman", "name": "WP-11 Flatwoods", "kind": "entry"}, "geometry": {"type": "Point", "coordinates": [-94.32572, 33.22647]}}, {"type": "Feature", "properties": {"unitId": "usace-wright-patman", "name": "WP-14 Overcup", "kind": "entry"}, "geometry": {"type": "Point", "coordinates": [-94.36475, 33.23655]}}, {"type": "Feature", "properties": {"unitId": "usace-wright-patman", "name": "WP-19 Black Point", "kind": "entry"}, "geometry": {"type": "Point", "coordinates": [-94.40787, 33.24385]}}, {"type": "Feature", "properties": {"unitId": "usace-wright-patman", "name": "WP-20 Thomas Lake", "kind": "entry"}, "geometry": {"type": "Point", "coordinates": [-94.46987, 33.26285]}}, {"type": "Feature", "properties": {"unitId": "usace-wright-patman", "name": "WP-42 Big Creek ATV", "kind": "entry"}, "geometry": {"type": "Point", "coordinates": [-94.24093, 33.30937]}}, {"type": "Feature", "properties": {"unitId": "usace-wright-patman", "name": "WP-85 Rice Creek", "kind": "entry"}, "geometry": {"type": "Point", "coordinates": [-94.41323, 33.34687]}}]}