{"type": "FeatureCollection", "features": [{"type": "Feature", "properties": {"id": "usace-aquilla", "name": "Aquilla Lake", "source": "USACE Fort Worth District 2025 hunting map", "padusUnit": "Aquilla Recreation Area", "boundarySource": "corps-hunt-map"}, "geometry": {"type": "MultiPolygon", "coordinates": [[[[-97.23768, 31.91424], [-97.23805, 31.91564], [-97.23598, 31.91651], [-97.23588, 31.91788], [-97.23869, 31.91796], [-97.23869, 31.91843], [-97.23816, 31.91843], [-97.23752, 31.92024], [-97.23487, 31.92202], [-97.23477, 31.92339], [-97.23805, 31.92348], [-97.23959, 31.92216], [-97.24149, 31.92268], [-97.24298, 31.92225], [-97.24536, 31.92697], [-97.24197, 31.92687], [-97.24202, 31.92594], [-97.24303, 31.92595], [-97.24314, 31.92459], [-97.24229, 31.92363], [-97.24139, 31.9236], [-97.24091, 31.9236], [-97.24086, 31.92451], [-97.23985, 31.92449], [-97.23948, 31.92308], [-97.23906, 31.92308], [-97.23747, 31.92486], [-97.23874, 31.92629], [-97.23964, 31.92631], [-97.23927, 31.92492], [-97.24065, 31.92588], [-97.24102, 31.92729], [-97.24001, 31.92727], [-97.2398, 31.92956], [-97.24022, 31.93004], [-97.23969, 31.93048], [-97.23918, 31.93048], [-97.23959, 31.9314], [-97.24097, 31.93143], [-97.24097, 31.93099], [-97.2434, 31.93105], [-97.24393, 31.9306], [-97.24393, 31.93108], [-97.24531, 31.93111], [-97.24526, 31.93205], [-97.24854, 31.93214], [-97.24897, 31.93309], [-97.24748, 31.93306], [-97.2478, 31.9349], [-97.24584, 31.93486], [-97.24431, 31.93618], [-97.24234, 31.93613], [-97.24134, 31.937], [-97.23842, 31.93693], [-97.23842, 31.93737], [-97.23742, 31.93736], [-97.23736, 31.93826], [-97.23683, 31.93826], [-97.23689, 31.93733], [-97.23509, 31.93682], [-97.23546, 31.9382], [-97.23397, 31.93817], [-97.23477, 31.94003], [-97.23615, 31.94006], [-97.23625, 31.93869], [-97.23678, 31.93869], [-97.23673, 31.93963], [-97.23858, 31.93968], [-97.23948, 31.94064], [-97.24039, 31.94066], [-97.24081, 31.94161], [-97.24171, 31.94163], [-97.24203, 31.9435], [-97.24388, 31.94354], [-97.24431, 31.9445], [-97.24182, 31.9449], [-97.24012, 31.94299], [-97.24023, 31.94159], [-97.23933, 31.94158], [-97.23842, 31.94061], [-97.23795, 31.94106], [-97.23837, 31.94199], [-97.23737, 31.94198], [-97.23652, 31.94103], [-97.23678, 31.94333], [-97.23625, 31.94333], [-97.23631, 31.94239], [-97.23588, 31.94239], [-97.23583, 31.9433], [-97.23435, 31.94327], [-97.23503, 31.94143], [-97.23461, 31.94049], [-97.2318, 31.94041], [-97.23117, 31.94176], [-97.23159, 31.9427], [-97.23016, 31.94221], [-97.22979, 31.9408], [-97.23132, 31.94037], [-97.23148, 31.93854], [-97.2335, 31.93813], [-97.23355, 31.93722], [-97.23466, 31.93631], [-97.23487, 31.93403], [-97.23445, 31.93355], [-97.23641, 31.9336], [-97.23673, 31.93547], [-97.23768, 31.93502], [-97.23683, 31.93363], [-97.23784, 31.93364], [-97.23869, 31.93507], [-97.23763, 31.93552], [-97.23758, 31.93642], [-97.23848, 31.93645], [-97.24044, 31.93604], [-97.24049, 31.93513], [-97.2415, 31.93515], [-97.2415, 31.9347], [-97.24298, 31.93473], [-97.24303, 31.93383], [-97.24452, 31.93386], [-97.24377, 31.93154], [-97.24192, 31.93149], [-97.24187, 31.9324], [-97.24086, 31.93238], [-97.24081, 31.93329], [-97.2398, 31.93327], [-97.23985, 31.93234], [-97.23895, 31.93232], [-97.23895, 31.93185], [-97.23805, 31.93183], [-97.23848, 31.93275], [-97.23747, 31.93274], [-97.23752, 31.9318], [-97.23667, 31.93085], [-97.23916, 31.93045], [-97.23917, 31.93045], [-97.23927, 31.92908], [-97.23795, 31.92859], [-97.23583, 31.92574], [-97.23535, 31.92618], [-97.23572, 31.92758], [-97.23471, 31.92756], [-97.23466, 31.92847], [-97.23365, 31.92845], [-97.23286, 31.92657], [-97.23148, 31.92654], [-97.23138, 31.9279], [-97.2336, 31.92888], [-97.2353, 31.93079], [-97.23524, 31.93172], [-97.23471, 31.93172], [-97.23259, 31.92934], [-97.23254, 31.93025], [-97.23424, 31.93168], [-97.23456, 31.93355], [-97.23355, 31.93354], [-97.2336, 31.9326], [-97.23275, 31.93165], [-97.23042, 31.93159], [-97.23048, 31.93065], [-97.22814, 31.93059], [-97.22772, 31.92964], [-97.22539, 31.92957], [-97.22486, 31.93002], [-97.22475, 31.93139], [-97.22364, 31.93229], [-97.22364, 31.92766], [-97.22465, 31.92767], [-97.22676, 31.92545], [-97.22825, 31.92548], [-97.22878, 31.92459], [-97.23212, 31.92514], [-97.23222, 31.92377], [-97.22947, 31.92324], [-97.22777, 31.92133], [-97.22782, 31.9204], [-97.22602, 31.91989], [-97.22602, 31.91941], [-97.22751, 31.91944], [-97.22756, 31.91854], [-97.22809, 31.91854], [-97.22851, 31.91949], [-97.22941, 31.91951], [-97.22936, 31.92044], [-97.23026, 31.92046], [-97.23016, 31.92185], [-97.231, 31.92281], [-97.23238, 31.92284], [-97.23243, 31.92193], [-97.23344, 31.92195], [-97.23349, 31.92104], [-97.23498, 31.92107], [-97.23503, 31.92017], [-97.23604, 31.92018], [-97.23572, 31.91834], [-97.23333, 31.91874], [-97.23333, 31.91826], [-97.23439, 31.91782], [-97.23439, 31.91737], [-97.23349, 31.91736], [-97.23355, 31.91642], [-97.23455, 31.91644], [-97.23376, 31.91458], [-97.23476, 31.91459], [-97.23471, 31.91553], [-97.23609, 31.91556], [-97.23482, 31.91416], [-97.23487, 31.91323], [-97.23667, 31.91465], [-97.23672, 31.91375], [-97.23545, 31.91232], [-97.23694, 31.91235], [-97.23699, 31.91145], [-97.238, 31.91146], [-97.23868, 31.90919], [-97.23969, 31.90921], [-97.2398, 31.90784], [-97.23741, 31.90824], [-97.23524, 31.90584], [-97.23672, 31.90587], [-97.23709, 31.90729], [-97.24186, 31.90696], [-97.2417, 31.90882], [-97.23964, 31.9097], [-97.23958, 31.9106], [-97.23858, 31.91059], [-97.23768, 31.91424]], [[-97.23805, 31.92766], [-97.23901, 31.92767], [-97.23901, 31.92723], [-97.23646, 31.92485], [-97.23641, 31.92575], [-97.23805, 31.92766]], [[-97.23667, 31.91929], [-97.2371, 31.91929], [-97.23672, 31.91838], [-97.23667, 31.91929]], [[-97.23598, 31.92436], [-97.23556, 31.92436], [-97.23598, 31.9248], [-97.23598, 31.92436]], [[-97.23651, 31.92436], [-97.23651, 31.92391], [-97.23609, 31.92436], [-97.23651, 31.92436]], [[-97.22883, 31.92921], [-97.22968, 31.93016], [-97.23106, 31.93019], [-97.23164, 31.92884], [-97.23074, 31.92882], [-97.22941, 31.92738], [-97.22851, 31.92736], [-97.22883, 31.92921]], [[-97.23, 31.92695], [-97.23042, 31.92787], [-97.2309, 31.92697], [-97.23, 31.92695]], [[-97.23371, 31.92336], [-97.23328, 31.92336], [-97.23323, 31.92426], [-97.23365, 31.92426], [-97.23371, 31.92336]], [[-97.23365, 31.92429], [-97.23365, 31.92474], [-97.23408, 31.92429], [-97.23365, 31.92429]], [[-97.23217, 31.92839], [-97.23175, 31.92839], [-97.23217, 31.92884], [-97.23217, 31.92839]], [[-97.22963, 31.92185], [-97.22963, 31.9223], [-97.23005, 31.92185], [-97.22963, 31.92185]], [[-97.22745, 31.92825], [-97.2274, 31.92916], [-97.22836, 31.92872], [-97.22836, 31.92827], [-97.22745, 31.92825]], [[-97.22767, 31.92686], [-97.22809, 31.92686], [-97.22772, 31.92595], [-97.22767, 31.92686]], [[-97.23005, 31.92601], [-97.22915, 31.926], [-97.23, 31.92692], [-97.23005, 31.92601]], [[-97.22809, 31.92689], [-97.22809, 31.92733], [-97.22851, 31.92689], [-97.22809, 31.92689]], [[-97.22597, 31.92864], [-97.22555, 31.92772], [-97.22459, 31.92861], [-97.22597, 31.92864]], [[-97.22703, 31.9273], [-97.22613, 31.92729], [-97.22703, 31.92775], [-97.22703, 31.9273]], [[-97.24044, 31.93191], [-97.24044, 31.93235], [-97.24086, 31.93191], [-97.24044, 31.93191]], [[-97.23567, 31.93636], [-97.23662, 31.93591], [-97.23572, 31.93545], [-97.23567, 31.93636]], [[-97.23652, 31.941], [-97.23652, 31.94055], [-97.23609, 31.941], [-97.23652, 31.941]]], [[[-97.24913, 31.95619], [-97.24908, 31.95713], [-97.25093, 31.95718], [-97.25146, 31.95629], [-97.25247, 31.9563], [-97.25353, 31.95541], [-97.25401, 31.95543], [-97.25395, 31.95636], [-97.25295, 31.95635], [-97.25289, 31.95725], [-97.25189, 31.95724], [-97.25183, 31.95814], [-97.25083, 31.95813], [-97.25072, 31.95949], [-97.24929, 31.959], [-97.24966, 31.96038], [-97.24871, 31.95991], [-97.2486, 31.96127], [-97.2476, 31.96126], [-97.24791, 31.9631], [-97.24691, 31.96309], [-97.24685, 31.96399], [-97.24632, 31.96399], [-97.24627, 31.9649], [-97.24797, 31.96632], [-97.24791, 31.96726], [-97.24696, 31.96678], [-97.24686, 31.96815], [-97.24585, 31.96814], [-97.2458, 31.96904], [-97.24433, 31.96901], [-97.24474, 31.96993], [-97.24373, 31.96992], [-97.24362, 31.97128], [-97.24262, 31.97127], [-97.24256, 31.97171], [-97.24294, 31.97311], [-97.24241, 31.97311], [-97.2423, 31.97448], [-97.24368, 31.97451], [-97.24405, 31.97592], [-97.24262, 31.97543], [-97.24299, 31.97681], [-97.24198, 31.97679], [-97.24156, 31.97632], [-97.24172, 31.97446], [-97.24129, 31.97446], [-97.24161, 31.97122], [-97.2432, 31.97033], [-97.24378, 31.96898], [-97.24431, 31.96898], [-97.24431, 31.96898], [-97.24436, 31.96807], [-97.2459, 31.96764], [-97.24611, 31.96536], [-97.24526, 31.96488], [-97.24532, 31.96394], [-97.24346, 31.9639], [-97.24293, 31.96479], [-97.24193, 31.96477], [-97.24161, 31.9629], [-97.24219, 31.96244], [-97.2423, 31.96107], [-97.23949, 31.961], [-97.23954, 31.96006], [-97.23864, 31.96005], [-97.23864, 31.95957], [-97.23589, 31.95903], [-97.23599, 31.95764], [-97.23414, 31.95759], [-97.2343, 31.95573], [-97.23345, 31.95526], [-97.23366, 31.95294], [-97.23323, 31.95294], [-97.23387, 31.9511], [-97.23302, 31.95062], [-97.23323, 31.9483], [-97.23281, 31.94783], [-97.23429, 31.94786], [-97.23435, 31.94695], [-97.23625, 31.94746], [-97.23583, 31.94654], [-97.23588, 31.94608], [-97.23689, 31.94609], [-97.23647, 31.94517], [-97.23885, 31.94569], [-97.2388, 31.94663], [-97.23922, 31.94663], [-97.23927, 31.94572], [-97.24028, 31.94574], [-97.24065, 31.94715], [-97.23964, 31.94714], [-97.23959, 31.94804], [-97.23859, 31.94803], [-97.23853, 31.94893], [-97.2371, 31.94844], [-97.23705, 31.94935], [-97.23604, 31.94933], [-97.23641, 31.95071], [-97.23493, 31.95068], [-97.23419, 31.95341], [-97.23509, 31.95343], [-97.23509, 31.95391], [-97.23408, 31.95389], [-97.23403, 31.9548], [-97.23493, 31.95481], [-97.23488, 31.95575], [-97.23573, 31.9567], [-97.23663, 31.95671], [-97.23694, 31.95859], [-97.2388, 31.95863], [-97.23838, 31.95771], [-97.23986, 31.95774], [-97.23933, 31.95866], [-97.24023, 31.95868], [-97.2406, 31.96009], [-97.2415, 31.96011], [-97.24113, 31.95873], [-97.24214, 31.95874], [-97.24203, 31.96014], [-97.24394, 31.95972], [-97.24336, 31.9611], [-97.24426, 31.96112], [-97.2442, 31.96206], [-97.24511, 31.96207], [-97.24511, 31.96255], [-97.24601, 31.96256], [-97.24601, 31.96212], [-97.24431, 31.96021], [-97.24532, 31.96023], [-97.24659, 31.96166], [-97.24664, 31.96075], [-97.24537, 31.9598], [-97.24542, 31.95886], [-97.24722, 31.96029], [-97.24648, 31.95797], [-97.24791, 31.95846], [-97.24754, 31.95708], [-97.2486, 31.95619], [-97.24818, 31.95619], [-97.24781, 31.95478], [-97.24643, 31.95475], [-97.24648, 31.95381], [-97.24796, 31.95384], [-97.24712, 31.95292], [-97.24717, 31.95199], [-97.24627, 31.95197], [-97.24627, 31.9515], [-97.24728, 31.95151], [-97.24743, 31.94968], [-97.24563, 31.94918], [-97.24478, 31.94775], [-97.24388, 31.94773], [-97.24516, 31.94913], [-97.2451, 31.95007], [-97.24457, 31.95007], [-97.24373, 31.94864], [-97.24282, 31.94863], [-97.24245, 31.94721], [-97.24346, 31.94723], [-97.24351, 31.94632], [-97.24452, 31.94634], [-97.24463, 31.94497], [-97.24515, 31.94497], [-97.24558, 31.94545], [-97.24542, 31.94731], [-97.24727, 31.94735], [-97.24796, 31.95016], [-97.24881, 31.95111], [-97.25114, 31.95117], [-97.25109, 31.95211], [-97.24902, 31.95298], [-97.24871, 31.95619], [-97.24913, 31.95619]], [[-97.2486, 31.95251], [-97.24775, 31.95156], [-97.24812, 31.95294], [-97.24902, 31.95295], [-97.2486, 31.95251]], [[-97.2432, 31.96204], [-97.24314, 31.96295], [-97.24405, 31.96296], [-97.2441, 31.96206], [-97.2432, 31.96204]], [[-97.23557, 31.94928], [-97.23562, 31.94838], [-97.23472, 31.94881], [-97.23557, 31.94928]], [[-97.23413, 31.94927], [-97.23451, 31.95065], [-97.23493, 31.95065], [-97.23498, 31.94975], [-97.23413, 31.94927]]], [[[-97.24018, 31.95546], [-97.23816, 31.95587], [-97.23816, 31.95539], [-97.23726, 31.95538], [-97.23731, 31.95444], [-97.23599, 31.95395], [-97.23562, 31.95254], [-97.23663, 31.95255], [-97.23631, 31.95071], [-97.23731, 31.95073], [-97.23731, 31.95028], [-97.23874, 31.95077], [-97.23954, 31.95266], [-97.24086, 31.95315], [-97.24076, 31.95455], [-97.24023, 31.95455], [-97.24018, 31.95546]], [[-97.23827, 31.95539], [-97.23869, 31.95539], [-97.23832, 31.95449], [-97.23827, 31.95539]], [[-97.23943, 31.95266], [-97.23853, 31.95265], [-97.23853, 31.95309], [-97.23943, 31.95311], [-97.23943, 31.95266]], [[-97.23986, 31.95314], [-97.23943, 31.95314], [-97.23986, 31.95358], [-97.23986, 31.95314]], [[-97.23837, 31.95355], [-97.23705, 31.95306], [-97.23832, 31.95446], [-97.23837, 31.95355]]], [[[-97.26021, 31.96814], [-97.26015, 31.96904], [-97.25962, 31.96904], [-97.26005, 31.96996], [-97.25936, 31.97179], [-97.26217, 31.97187], [-97.2627, 31.97142], [-97.2627, 31.9719], [-97.2636, 31.97191], [-97.26355, 31.97285], [-97.26053, 31.97369], [-97.26063, 31.9723], [-97.25925, 31.97227], [-97.2582, 31.97316], [-97.25782, 31.97174], [-97.25692, 31.97173], [-97.25692, 31.97125], [-97.25698, 31.97079], [-97.25798, 31.97081], [-97.25804, 31.9699], [-97.25904, 31.96992], [-97.25825, 31.96806], [-97.25925, 31.96807], [-97.25931, 31.96717], [-97.26074, 31.96766], [-97.26063, 31.96398], [-97.25978, 31.9635], [-97.2601, 31.96534], [-97.25909, 31.96533], [-97.25872, 31.96391], [-97.2574, 31.96342], [-97.25708, 31.96155], [-97.2557, 31.96152], [-97.25464, 31.96241], [-97.2547, 31.96147], [-97.25247, 31.96049], [-97.25417, 31.96236], [-97.25417, 31.96284], [-97.25316, 31.96282], [-97.25189, 31.96092], [-97.2504, 31.96181], [-97.25046, 31.96088], [-97.25258, 31.95909], [-97.25401, 31.95959], [-97.25369, 31.95774], [-97.25522, 31.95731], [-97.25459, 31.95916], [-97.25501, 31.95916], [-97.25538, 31.96057], [-97.25777, 31.96017], [-97.25899, 31.96253], [-97.26037, 31.96256], [-97.26142, 31.96167], [-97.26259, 31.96402], [-97.26254, 31.96496], [-97.26153, 31.96494], [-97.26174, 31.96771], [-97.26021, 31.96814]]], [[[-97.24977, 31.9715], [-97.24919, 31.97285], [-97.24723, 31.9728], [-97.24712, 31.97417], [-97.24755, 31.97417], [-97.24786, 31.97604], [-97.24495, 31.97596], [-97.245, 31.97503], [-97.24643, 31.97552], [-97.24649, 31.97461], [-97.24521, 31.97366], [-97.24527, 31.97273], [-97.24622, 31.9732], [-97.2459, 31.97136], [-97.24691, 31.97137], [-97.24696, 31.97047], [-97.24797, 31.97048], [-97.24802, 31.96958], [-97.24903, 31.96959], [-97.24897, 31.97053], [-97.24988, 31.97055], [-97.24993, 31.96964], [-97.24908, 31.96869], [-97.25009, 31.9687], [-97.25062, 31.96781], [-97.25115, 31.96781], [-97.25327, 31.97019], [-97.25258, 31.9725], [-97.25205, 31.9725], [-97.25162, 31.97154], [-97.24977, 31.9715]], [[-97.24924, 31.97147], [-97.24845, 31.97053], [-97.24792, 31.97142], [-97.24876, 31.9719], [-97.24924, 31.97147]], [[-97.25184, 31.9697], [-97.25099, 31.96875], [-97.25009, 31.96873], [-97.25136, 31.97015], [-97.25184, 31.9697]]], [[[-97.2363, 31.89755], [-97.23476, 31.89798], [-97.23465, 31.89935], [-97.23412, 31.89935], [-97.23444, 31.90119], [-97.23391, 31.90119], [-97.23381, 31.90256], [-97.23328, 31.90256], [-97.23285, 31.90669], [-97.23476, 31.90627], [-97.23566, 31.90676], [-97.23651, 31.90772], [-97.23646, 31.90865], [-97.23545, 31.90864], [-97.23582, 31.91002], [-97.23434, 31.90999], [-97.23418, 31.91181], [-97.23312, 31.91226], [-97.23307, 31.91317], [-97.23158, 31.91313], [-97.23153, 31.91404], [-97.23052, 31.91403], [-97.23015, 31.91261], [-97.22925, 31.9126], [-97.2292, 31.9135], [-97.23047, 31.91445], [-97.22941, 31.91582], [-97.22841, 31.91581], [-97.22713, 31.9139], [-97.22623, 31.91389], [-97.2266, 31.91527], [-97.22517, 31.91478], [-97.22554, 31.91616], [-97.22454, 31.91614], [-97.22454, 31.91659], [-97.22539, 31.91706], [-97.22613, 31.91941], [-97.22321, 31.91934], [-97.22279, 31.91886], [-97.22279, 31.91931], [-97.22131, 31.91927], [-97.22131, 31.91972], [-97.21929, 31.92013], [-97.21935, 31.9192], [-97.22041, 31.91831], [-97.2239, 31.91748], [-97.22417, 31.91473], [-97.22374, 31.91426], [-97.22475, 31.91427], [-97.22533, 31.91292], [-97.22682, 31.91295], [-97.22687, 31.91204], [-97.22936, 31.91165], [-97.22957, 31.90982], [-97.22957, 31.90936], [-97.22772, 31.90931], [-97.22761, 31.91068], [-97.2266, 31.91066], [-97.22655, 31.91157], [-97.22554, 31.91155], [-97.2256, 31.91062], [-97.22475, 31.90967], [-97.22242, 31.9096], [-97.22247, 31.90867], [-97.22062, 31.90862], [-97.22062, 31.90815], [-97.21971, 31.90813], [-97.21887, 31.90718], [-97.21887, 31.9067], [-97.2194, 31.9067], [-97.21971, 31.90349], [-97.2203, 31.90305], [-97.2203, 31.90259], [-97.2194, 31.90257], [-97.2194, 31.9021], [-97.21992, 31.9021], [-97.22014, 31.90027], [-97.21971, 31.89981], [-97.22024, 31.89519], [-97.21987, 31.89379], [-97.22331, 31.89342], [-97.22331, 31.89298], [-97.22575, 31.89304], [-97.22575, 31.8926], [-97.22867, 31.89267], [-97.2292, 31.89178], [-97.2302, 31.8918], [-97.23126, 31.89091], [-97.23121, 31.89184], [-97.23211, 31.89186], [-97.23248, 31.89327], [-97.23386, 31.8933], [-97.2337, 31.89516], [-97.2346, 31.89518], [-97.23497, 31.89659], [-97.23635, 31.89662], [-97.23635, 31.89709], [-97.2363, 31.89755]], [[-97.22947, 31.91444], [-97.22777, 31.91301], [-97.22772, 31.91392], [-97.22941, 31.91535], [-97.22947, 31.91444]], [[-97.22883, 31.91212], [-97.22883, 31.91257], [-97.22925, 31.91212], [-97.22883, 31.91212]], [[-97.2284, 31.90793], [-97.22883, 31.90793], [-97.2284, 31.90749], [-97.2284, 31.90793]], [[-97.22846, 31.90655], [-97.22756, 31.90653], [-97.2275, 31.90744], [-97.2284, 31.90746], [-97.22846, 31.90655]], [[-97.2274, 31.90744], [-97.22607, 31.90695], [-97.22602, 31.90785], [-97.22687, 31.90881], [-97.22729, 31.90881], [-97.2274, 31.90744]], [[-97.22824, 31.90423], [-97.22925, 31.90425], [-97.2293, 31.90334], [-97.23036, 31.9029], [-97.23042, 31.90199], [-97.23095, 31.90199], [-97.23137, 31.90294], [-97.23227, 31.90296], [-97.23142, 31.90156], [-97.23291, 31.90159], [-97.23259, 31.89975], [-97.23312, 31.89975], [-97.23317, 31.89884], [-97.23418, 31.89886], [-97.23423, 31.89795], [-97.23169, 31.89557], [-97.23174, 31.89464], [-97.23269, 31.89511], [-97.23322, 31.89422], [-97.23185, 31.89419], [-97.23195, 31.8928], [-97.23105, 31.89278], [-97.23105, 31.8923], [-97.23015, 31.89229], [-97.23052, 31.89367], [-97.22957, 31.89319], [-97.22946, 31.89456], [-97.22845, 31.89455], [-97.2284, 31.89545], [-97.22739, 31.89544], [-97.22745, 31.8945], [-97.22655, 31.89448], [-97.22612, 31.89353], [-97.22469, 31.89396], [-97.22469, 31.89349], [-97.22374, 31.89438], [-97.22278, 31.8939], [-97.2212, 31.89524], [-97.22109, 31.8966], [-97.22247, 31.89663], [-97.22332, 31.89806], [-97.22422, 31.89808], [-97.22411, 31.89947], [-97.22358, 31.89947], [-97.22358, 31.899], [-97.22226, 31.89851], [-97.22231, 31.89757], [-97.22141, 31.89755], [-97.22077, 31.89937], [-97.2212, 31.89937], [-97.22114, 31.9003], [-97.22204, 31.90032], [-97.22194, 31.90171], [-97.22326, 31.90221], [-97.2222, 31.90357], [-97.2231, 31.90359], [-97.22305, 31.90452], [-97.22438, 31.90501], [-97.22432, 31.90595], [-97.22332, 31.90594], [-97.22162, 31.90356], [-97.22072, 31.90354], [-97.22072, 31.90399], [-97.22369, 31.90684], [-97.22364, 31.90778], [-97.22501, 31.90781], [-97.22464, 31.90643], [-97.22713, 31.90603], [-97.22718, 31.90512], [-97.22771, 31.90512], [-97.22904, 31.90609], [-97.22909, 31.90518], [-97.22824, 31.90423]], [[-97.23137, 31.91079], [-97.23264, 31.91223], [-97.23312, 31.91178], [-97.231, 31.9094], [-97.2301, 31.90939], [-97.23047, 31.91077], [-97.23137, 31.91079]], [[-97.23116, 31.90431], [-97.23126, 31.90294], [-97.23031, 31.90383], [-97.23116, 31.90431]], [[-97.23312, 31.89562], [-97.23354, 31.89654], [-97.23402, 31.89564], [-97.23312, 31.89562]], [[-97.23269, 31.89514], [-97.23269, 31.89559], [-97.23312, 31.89514], [-97.23269, 31.89514]], [[-97.23439, 31.89657], [-97.23397, 31.89657], [-97.23439, 31.89702], [-97.23439, 31.89657]], [[-97.23243, 31.91037], [-97.23333, 31.91039], [-97.23248, 31.90947], [-97.23243, 31.91037]], [[-97.23418, 31.90721], [-97.2346, 31.90765], [-97.23455, 31.90859], [-97.23545, 31.90861], [-97.23508, 31.90723], [-97.23418, 31.90721]], [[-97.23074, 31.90799], [-97.231, 31.90524], [-97.2301, 31.90523], [-97.22957, 31.90567], [-97.22936, 31.90796], [-97.23074, 31.90799]], [[-97.22756, 31.90606], [-97.22713, 31.90606], [-97.22756, 31.9065], [-97.22756, 31.90606]], [[-97.22957, 31.89316], [-97.22957, 31.89272], [-97.22914, 31.89316], [-97.22957, 31.89316]], [[-97.22845, 31.89451], [-97.22845, 31.89407], [-97.22803, 31.89451], [-97.22845, 31.89451]], [[-97.22761, 31.89359], [-97.22761, 31.89404], [-97.22803, 31.89359], [-97.22761, 31.89359]], [[-97.22268, 31.90727], [-97.22226, 31.90635], [-97.22099, 31.9054], [-97.22093, 31.9063], [-97.22178, 31.90726], [-97.22268, 31.90727]], [[-97.22448, 31.90873], [-97.22538, 31.90874], [-97.22623, 31.91017], [-97.22719, 31.90973], [-97.22586, 31.90831], [-97.22448, 31.90828], [-97.22448, 31.90873]]], [[[-97.19095, 31.92567], [-97.18989, 31.92612], [-97.19005, 31.92934], [-97.18607, 31.93016], [-97.18501, 31.93105], [-97.18491, 31.93241], [-97.18342, 31.93238], [-97.18289, 31.93327], [-97.18189, 31.93326], [-97.18173, 31.93508], [-97.17913, 31.9364], [-97.17829, 31.94006], [-97.17871, 31.94006], [-97.1786, 31.94145], [-97.17903, 31.94145], [-97.17892, 31.94285], [-97.17972, 31.94379], [-97.17998, 31.94612], [-97.17664, 31.94557], [-97.17664, 31.94601], [-97.17564, 31.946], [-97.17405, 31.94733], [-97.17405, 31.94778], [-97.17347, 31.94824], [-97.17331, 31.95007], [-97.17516, 31.95011], [-97.17521, 31.94921], [-97.17627, 31.94832], [-97.17728, 31.94833], [-97.17898, 31.95023], [-97.17892, 31.95117], [-97.18078, 31.95122], [-97.18189, 31.94942], [-97.1839, 31.94901], [-97.18449, 31.94766], [-97.18502, 31.94766], [-97.18523, 31.94537], [-97.1848, 31.94489], [-97.18295, 31.94485], [-97.183, 31.94391], [-97.18258, 31.94391], [-97.18237, 31.93696], [-97.18395, 31.93562], [-97.18496, 31.93564], [-97.18607, 31.93384], [-97.19201, 31.93263], [-97.19243, 31.93358], [-97.19095, 31.93355], [-97.1909, 31.93445], [-97.18994, 31.93398], [-97.18978, 31.93581], [-97.19158, 31.93631], [-97.19121, 31.93493], [-97.19222, 31.93495], [-97.19227, 31.93404], [-97.1928, 31.93404], [-97.1919, 31.93818], [-97.19328, 31.93822], [-97.19349, 31.93593], [-97.19402, 31.93593], [-97.19413, 31.93502], [-97.1937, 31.93409], [-97.19423, 31.93409], [-97.19381, 31.93364], [-97.19397, 31.93178], [-97.19588, 31.93229], [-97.19593, 31.93138], [-97.19694, 31.9314], [-97.19704, 31.93003], [-97.19805, 31.93005], [-97.19815, 31.92868], [-97.19921, 31.92824], [-97.19927, 31.92733], [-97.20027, 31.92735], [-97.20027, 31.92782], [-97.19974, 31.92782], [-97.19953, 31.93011], [-97.20038, 31.93059], [-97.20033, 31.93152], [-97.20271, 31.93112], [-97.20239, 31.92928], [-97.20292, 31.92928], [-97.20297, 31.92838], [-97.20398, 31.92839], [-97.20403, 31.92749], [-97.20271, 31.92698], [-97.2017, 31.92742], [-97.20128, 31.92647], [-97.20229, 31.92649], [-97.20234, 31.92558], [-97.20335, 31.9256], [-97.20345, 31.92423], [-97.20446, 31.92425], [-97.20451, 31.92334], [-97.20637, 31.92431], [-97.20642, 31.9234], [-97.20472, 31.9215], [-97.20334, 31.92147], [-97.20334, 31.92191], [-97.20425, 31.92193], [-97.20419, 31.92287], [-97.20319, 31.92285], [-97.20313, 31.92376], [-97.2017, 31.92326], [-97.20202, 31.92511], [-97.19953, 31.92551], [-97.19948, 31.92641], [-97.19805, 31.92592], [-97.19805, 31.92544], [-97.19572, 31.92538], [-97.19577, 31.92445], [-97.19773, 31.92449], [-97.19773, 31.92405], [-97.19921, 31.92408], [-97.19921, 31.92363], [-97.2007, 31.92366], [-97.20181, 31.91771], [-97.20499, 31.91504], [-97.20599, 31.91505], [-97.20605, 31.91415], [-97.20753, 31.91418], [-97.20811, 31.91283], [-97.20912, 31.91284], [-97.20944, 31.91472], [-97.21081, 31.91475], [-97.21134, 31.9143], [-97.21092, 31.91386], [-97.21118, 31.91108], [-97.21267, 31.91111], [-97.21283, 31.91436], [-97.21463, 31.91487], [-97.21394, 31.92087], [-97.21431, 31.92227], [-97.21521, 31.92228], [-97.21564, 31.92323], [-97.2203, 31.92383], [-97.21945, 31.92706], [-97.21988, 31.92752], [-97.21967, 31.92984], [-97.22009, 31.92984], [-97.22009, 31.93031], [-97.21956, 31.93031], [-97.21998, 31.93076], [-97.21983, 31.93261], [-97.22025, 31.93261], [-97.21961, 31.93446], [-97.22147, 31.9345], [-97.22322, 31.93595], [-97.22316, 31.93688], [-97.22396, 31.93782], [-97.22391, 31.93875], [-97.22518, 31.94018], [-97.22698, 31.94069], [-97.2273, 31.94256], [-97.2282, 31.94258], [-97.22905, 31.94353], [-97.22942, 31.94494], [-97.23313, 31.94551], [-97.23318, 31.9446], [-97.23371, 31.9446], [-97.23403, 31.94648], [-97.23302, 31.94646], [-97.23292, 31.94783], [-97.23096, 31.94778], [-97.23101, 31.94684], [-97.22963, 31.94681], [-97.22836, 31.94491], [-97.2265, 31.94486], [-97.22619, 31.94299], [-97.22433, 31.94294], [-97.22454, 31.94063], [-97.22364, 31.94061], [-97.22237, 31.93871], [-97.22099, 31.93868], [-97.22083, 31.94466], [-97.22163, 31.9456], [-97.22189, 31.94793], [-97.22232, 31.94793], [-97.22269, 31.94935], [-97.22163, 31.94979], [-97.22168, 31.94885], [-97.22084, 31.94838], [-97.22046, 31.94697], [-97.21909, 31.94694], [-97.21903, 31.94784], [-97.21797, 31.94829], [-97.21792, 31.94411], [-97.21511, 31.94403], [-97.21575, 31.94219], [-97.21681, 31.94175], [-97.21718, 31.93854], [-97.21681, 31.93714], [-97.21596, 31.93667], [-97.21564, 31.93479], [-97.21437, 31.93337], [-97.21299, 31.93334], [-97.21304, 31.9324], [-97.2122, 31.93192], [-97.21225, 31.93099], [-97.2114, 31.93003], [-97.20912, 31.92951], [-97.20753, 31.92621], [-97.20525, 31.92569], [-97.20435, 31.92934], [-97.20472, 31.93074], [-97.20419, 31.93074], [-97.20414, 31.93165], [-97.20308, 31.93209], [-97.2025, 31.93344], [-97.20096, 31.93387], [-97.2008, 31.9357], [-97.20123, 31.93617], [-97.2007, 31.93617], [-97.20049, 31.93846], [-97.20091, 31.93846], [-97.20128, 31.93987], [-97.1998, 31.93984], [-97.19964, 31.94167], [-97.20049, 31.94215], [-97.20038, 31.94354], [-97.19885, 31.94397], [-97.19869, 31.9458], [-97.19757, 31.9467], [-97.19789, 31.94855], [-97.19683, 31.94944], [-97.19583, 31.94942], [-97.19408, 31.9475], [-97.19318, 31.94749], [-97.19233, 31.94654], [-97.19238, 31.9456], [-97.19053, 31.94555], [-97.18994, 31.9469], [-97.18941, 31.9469], [-97.18936, 31.94781], [-97.18883, 31.94781], [-97.18814, 31.95008], [-97.18761, 31.95008], [-97.18751, 31.95145], [-97.1883, 31.95238], [-97.18825, 31.95332], [-97.18719, 31.95421], [-97.18571, 31.95418], [-97.18443, 31.95228], [-97.18306, 31.95225], [-97.18279, 31.95499], [-97.18226, 31.95499], [-97.1821, 31.95636], [-97.1829, 31.95823], [-97.18131, 31.95912], [-97.18126, 31.96003], [-97.18295, 31.96146], [-97.18285, 31.96285], [-97.1837, 31.9638], [-97.18221, 31.96377], [-97.18216, 31.96468], [-97.18163, 31.96468], [-97.18237, 31.96192], [-97.18147, 31.9619], [-97.18105, 31.96095], [-97.18014, 31.96093], [-97.1793, 31.95998], [-97.17898, 31.95811], [-97.17951, 31.95766], [-97.18147, 31.95771], [-97.18157, 31.9568], [-97.18115, 31.95587], [-97.1802, 31.95631], [-97.17977, 31.95584], [-97.18014, 31.95722], [-97.17866, 31.95719], [-97.17861, 31.95809], [-97.17808, 31.95809], [-97.17765, 31.95714], [-97.17675, 31.95713], [-97.17712, 31.95851], [-97.17755, 31.95851], [-97.17755, 31.95898], [-97.17702, 31.95898], [-97.17686, 31.96081], [-97.17908, 31.96179], [-97.17903, 31.96273], [-97.17946, 31.96273], [-97.17946, 31.96321], [-97.17845, 31.96319], [-97.1784, 31.9641], [-97.17787, 31.9641], [-97.17797, 31.9627], [-97.17707, 31.96268], [-97.17622, 31.96173], [-97.17654, 31.95849], [-97.17569, 31.95802], [-97.17575, 31.95708], [-97.17686, 31.95617], [-97.17696, 31.95481], [-97.17606, 31.95479], [-97.17622, 31.95294], [-97.17394, 31.95241], [-97.17378, 31.95424], [-97.17273, 31.95469], [-97.17246, 31.95743], [-97.17098, 31.9574], [-97.17087, 31.95877], [-97.17225, 31.9588], [-97.17225, 31.95928], [-97.17029, 31.95923], [-97.16971, 31.96058], [-97.16918, 31.96058], [-97.16896, 31.96287], [-97.16939, 31.96287], [-97.16976, 31.96428], [-97.16875, 31.96426], [-97.16875, 31.96379], [-97.16547, 31.9637], [-97.16436, 31.96549], [-97.16335, 31.96548], [-97.16229, 31.96637], [-97.16208, 31.96865], [-97.15916, 31.96858], [-97.15916, 31.96902], [-97.15816, 31.96901], [-97.15816, 31.969], [-97.15805, 31.97037], [-97.15699, 31.97082], [-97.15689, 31.97218], [-97.15853, 31.97407], [-97.15773, 31.97684], [-97.15811, 31.97823], [-97.15673, 31.97728], [-97.15689, 31.97542], [-97.15604, 31.97447], [-97.15514, 31.97444], [-97.15408, 31.97535], [-97.15392, 31.97717], [-97.15281, 31.97808], [-97.1528, 31.97807], [-97.15222, 31.97898], [-97.15207, 31.98081], [-97.15249, 31.98081], [-97.15281, 31.98268], [-97.15228, 31.98268], [-97.15217, 31.98405], [-97.15164, 31.98405], [-97.15143, 31.98634], [-97.15186, 31.98634], [-97.15217, 31.98821], [-97.15302, 31.98869], [-97.15376, 31.99103], [-97.15122, 31.99189], [-97.14968, 31.99321], [-97.14868, 31.9932], [-97.14873, 31.99226], [-97.14974, 31.99228], [-97.14937, 31.9909], [-97.15043, 31.99001], [-97.15096, 31.99001], [-97.15096, 31.99048], [-97.15191, 31.99004], [-97.15069, 31.9877], [-97.14979, 31.98769], [-97.14852, 31.98626], [-97.14857, 31.98532], [-97.15048, 31.98583], [-97.15048, 31.98539], [-97.14958, 31.98537], [-97.14963, 31.98443], [-97.15064, 31.98445], [-97.15079, 31.98262], [-97.15132, 31.98262], [-97.15095, 31.98124], [-97.15053, 31.98124], [-97.15111, 31.97986], [-97.14984, 31.97891], [-97.14989, 31.97797], [-97.15042, 31.97797], [-97.15169, 31.9794], [-97.15175, 31.97849], [-97.15048, 31.97754], [-97.15053, 31.9766], [-97.15154, 31.97662], [-97.15148, 31.97756], [-97.15277, 31.97803], [-97.15154, 31.97665], [-97.15159, 31.97571], [-97.15259, 31.97573], [-97.15265, 31.97482], [-97.15365, 31.97484], [-97.15323, 31.97392], [-97.15471, 31.97395], [-97.15477, 31.97304], [-97.1562, 31.97354], [-97.15593, 31.97123], [-97.15503, 31.97122], [-97.15503, 31.97074], [-97.15604, 31.97076], [-97.15567, 31.96938], [-97.15662, 31.96985], [-97.15673, 31.96848], [-97.15726, 31.96848], [-97.15815, 31.96897], [-97.15779, 31.96759], [-97.15567, 31.96569], [-97.15567, 31.96522], [-97.15673, 31.96477], [-97.15678, 31.96386], [-97.15779, 31.96388], [-97.15784, 31.96297], [-97.15879, 31.96345], [-97.15884, 31.96254], [-97.16033, 31.96258], [-97.16001, 31.96073], [-97.15906, 31.96162], [-97.15757, 31.96159], [-97.15725, 31.95972], [-97.15545, 31.95921], [-97.15551, 31.95828], [-97.15651, 31.95829], [-97.1572, 31.95602], [-97.15969, 31.95562], [-97.15985, 31.95379], [-97.15847, 31.95376], [-97.15842, 31.95467], [-97.15741, 31.95465], [-97.15736, 31.95556], [-97.15588, 31.95553], [-97.15582, 31.95643], [-97.15482, 31.95642], [-97.15476, 31.95733], [-97.15376, 31.95731], [-97.15334, 31.95685], [-97.1537, 31.95822], [-97.15227, 31.95772], [-97.15259, 31.95957], [-97.15116, 31.95907], [-97.15201, 31.96047], [-97.151, 31.96046], [-97.15084, 31.96182], [-97.15084, 31.96228], [-97.15222, 31.96231], [-97.15259, 31.96373], [-97.15159, 31.96371], [-97.15196, 31.96509], [-97.15053, 31.9646], [-97.15047, 31.96551], [-97.15175, 31.96646], [-97.15164, 31.96786], [-97.15302, 31.96789], [-97.15471, 31.97027], [-97.15371, 31.97025], [-97.15286, 31.9693], [-97.15281, 31.9702], [-97.15365, 31.97116], [-97.15265, 31.97114], [-97.15095, 31.96924], [-97.1509, 31.97014], [-97.15217, 31.97109], [-97.15212, 31.97203], [-97.15069, 31.97154], [-97.15063, 31.97245], [-97.14963, 31.97243], [-97.14957, 31.97334], [-97.14814, 31.97283], [-97.14714, 31.97327], [-97.14703, 31.97464], [-97.14788, 31.97512], [-97.14783, 31.97605], [-97.1473, 31.97605], [-97.14645, 31.97462], [-97.14555, 31.97461], [-97.14682, 31.97601], [-97.14677, 31.97694], [-97.14624, 31.97694], [-97.14581, 31.97599], [-97.14491, 31.97598], [-97.14428, 31.97779], [-97.14512, 31.97826], [-97.14502, 31.97966], [-97.14406, 31.97918], [-97.14396, 31.98055], [-97.14285, 31.98146], [-97.14406, 31.97455], [-97.14677, 31.97231], [-97.14756, 31.96911], [-97.14915, 31.96822], [-97.14926, 31.96732], [-97.14793, 31.96589], [-97.14613, 31.96538], [-97.14613, 31.96491], [-97.14475, 31.96488], [-97.14443, 31.963], [-97.14358, 31.96253], [-97.14374, 31.96067], [-97.14332, 31.96067], [-97.14337, 31.95973], [-97.14205, 31.95924], [-97.1421, 31.95831], [-97.14125, 31.95783], [-97.14131, 31.95689], [-97.14051, 31.95596], [-97.14056, 31.95502], [-97.13892, 31.95313], [-97.13903, 31.95174], [-97.14062, 31.95085], [-97.1404, 31.95316], [-97.14083, 31.95364], [-97.14364, 31.95372], [-97.14369, 31.95281], [-97.14422, 31.95281], [-97.1447, 31.95283], [-97.14464, 31.95376], [-97.14602, 31.95379], [-97.14655, 31.9529], [-97.14756, 31.95292], [-97.14809, 31.95247], [-97.14835, 31.94973], [-97.14623, 31.94735], [-97.14819, 31.94739], [-97.1483, 31.94603], [-97.1493, 31.94604], [-97.14915, 31.9479], [-97.14957, 31.9479], [-97.14994, 31.94931], [-97.15132, 31.94934], [-97.15116, 31.9512], [-97.1545, 31.95083], [-97.15471, 31.94854], [-97.15762, 31.94862], [-97.1572, 31.94818], [-97.15805, 31.94495], [-97.15762, 31.94402], [-97.15911, 31.94405], [-97.15974, 31.94732], [-97.15868, 31.94776], [-97.15858, 31.94913], [-97.15805, 31.94957], [-97.15614, 31.94907], [-97.15609, 31.94997], [-97.15508, 31.94996], [-97.15582, 31.95227], [-97.15482, 31.95226], [-97.15476, 31.95317], [-97.15466, 31.95317], [-97.15656, 31.95367], [-97.15572, 31.95227], [-97.15672, 31.95229], [-97.15688, 31.95046], [-97.15741, 31.95046], [-97.15736, 31.9514], [-97.15778, 31.9514], [-97.15784, 31.95049], [-97.15932, 31.95053], [-97.16001, 31.94825], [-97.16149, 31.94828], [-97.16313, 31.94604], [-97.16515, 31.94563], [-97.16531, 31.9438], [-97.16488, 31.94333], [-97.16589, 31.94334], [-97.16679, 31.94431], [-97.1687, 31.94389], [-97.16859, 31.94021], [-97.17002, 31.9407], [-97.17013, 31.94442], [-97.17193, 31.94492], [-97.17188, 31.94586], [-97.17082, 31.94675], [-97.16981, 31.94673], [-97.1697, 31.94764], [-97.17145, 31.94954], [-97.17193, 31.9491], [-97.17156, 31.9477], [-97.17299, 31.94819], [-97.17352, 31.9473], [-97.17404, 31.9473], [-97.17373, 31.94546], [-97.17468, 31.94595], [-97.17516, 31.94551], [-97.17389, 31.94408], [-97.17299, 31.94406], [-97.17341, 31.94498], [-97.17241, 31.94497], [-97.17267, 31.94219], [-97.17421, 31.94176], [-97.17415, 31.9427], [-97.17648, 31.94276], [-97.17696, 31.93863], [-97.17484, 31.93627], [-97.17452, 31.93439], [-97.17601, 31.93442], [-97.17691, 31.93539], [-97.17876, 31.93544], [-97.17929, 31.93499], [-97.1794, 31.93363], [-97.1777, 31.9322], [-97.17696, 31.92985], [-97.18077, 31.93042], [-97.18072, 31.93135], [-97.18258, 31.9314], [-97.18316, 31.93005], [-97.18464, 31.93008], [-97.18623, 31.9283], [-97.18771, 31.92833], [-97.18734, 31.92695], [-97.18501, 31.92689], [-97.18575, 31.92412], [-97.18628, 31.92412], [-97.18628, 31.9246], [-97.18861, 31.92466], [-97.18914, 31.92422], [-97.18925, 31.92285], [-97.19126, 31.92244], [-97.19222, 31.92247], [-97.19222, 31.92294], [-97.19312, 31.92296], [-97.19312, 31.92343], [-97.19158, 31.92386], [-97.19105, 31.92431], [-97.19095, 31.92567]], [[-97.15423, 31.95317], [-97.15429, 31.95223], [-97.15238, 31.95264], [-97.15238, 31.95217], [-97.151, 31.95214], [-97.15089, 31.9535], [-97.15036, 31.9535], [-97.15042, 31.95257], [-97.14952, 31.95255], [-97.14957, 31.95161], [-97.14867, 31.9516], [-97.14862, 31.9525], [-97.15031, 31.95393], [-97.15031, 31.95441], [-97.14931, 31.95439], [-97.14803, 31.95297], [-97.14798, 31.95387], [-97.14962, 31.95576], [-97.14909, 31.95668], [-97.14713, 31.95663], [-97.14719, 31.9557], [-97.14591, 31.95427], [-97.14501, 31.95425], [-97.14538, 31.95564], [-97.14438, 31.95562], [-97.14401, 31.95421], [-97.14162, 31.95461], [-97.14146, 31.95643], [-97.14236, 31.95645], [-97.14279, 31.9574], [-97.14369, 31.95742], [-97.14454, 31.95837], [-97.14385, 31.96067], [-97.14427, 31.96067], [-97.14422, 31.96161], [-97.1456, 31.96164], [-97.14602, 31.96259], [-97.14692, 31.96261], [-97.14565, 31.96073], [-97.14666, 31.96075], [-97.14671, 31.95984], [-97.14862, 31.96035], [-97.14825, 31.95897], [-97.14968, 31.95946], [-97.14936, 31.95762], [-97.15079, 31.95811], [-97.15042, 31.95673], [-97.15143, 31.95674], [-97.15148, 31.95584], [-97.15328, 31.95678], [-97.15206, 31.95541], [-97.15211, 31.95447], [-97.15397, 31.95544], [-97.1536, 31.95406], [-97.15503, 31.95455], [-97.15466, 31.95317], [-97.15423, 31.95317]], [[-97.18941, 31.92563], [-97.18809, 31.92514], [-97.18846, 31.92652], [-97.18936, 31.92653], [-97.18941, 31.92563]], [[-97.17728, 31.9442], [-97.1777, 31.94512], [-97.17818, 31.94422], [-97.17728, 31.9442]], [[-97.17728, 31.94417], [-97.17728, 31.94373], [-97.17686, 31.94417], [-97.17728, 31.94417]], [[-97.17839, 31.94237], [-97.17754, 31.9419], [-97.17829, 31.94374], [-97.17839, 31.94237]], [[-97.17622, 31.94506], [-97.17622, 31.94462], [-97.1758, 31.94506], [-97.17622, 31.94506]], [[-97.17495, 31.94366], [-97.1749, 31.94457], [-97.1758, 31.94459], [-97.17585, 31.94368], [-97.17495, 31.94366]], [[-97.17643, 31.94325], [-97.17643, 31.9437], [-97.17686, 31.94325], [-97.17643, 31.94325]], [[-97.18767, 31.94546], [-97.18767, 31.94591], [-97.18899, 31.9464], [-97.18904, 31.94549], [-97.18767, 31.94546]], [[-97.19143, 31.94141], [-97.18952, 31.94182], [-97.18814, 31.94132], [-97.18708, 31.94221], [-97.18745, 31.94359], [-97.18968, 31.94457], [-97.19021, 31.94413], [-97.19111, 31.94462], [-97.19074, 31.94324], [-97.19132, 31.94277], [-97.19143, 31.94141]], [[-97.18962, 31.94043], [-97.1892, 31.94043], [-97.18915, 31.94133], [-97.18957, 31.94133], [-97.18962, 31.94043]], [[-97.18777, 31.9399], [-97.18687, 31.93989], [-97.18772, 31.94129], [-97.18814, 31.94129], [-97.18777, 31.9399]], [[-97.1856, 31.93846], [-97.1856, 31.93891], [-97.1865, 31.93892], [-97.1865, 31.93848], [-97.1856, 31.93846]], [[-97.20976, 31.92859], [-97.21018, 31.92859], [-97.20976, 31.92815], [-97.20976, 31.92859]], [[-97.20933, 31.92812], [-97.20976, 31.92812], [-97.20939, 31.92721], [-97.20933, 31.92812]], [[-97.214, 31.92919], [-97.21299, 31.92918], [-97.21246, 31.93007], [-97.21548, 31.93246], [-97.21622, 31.93481], [-97.21718, 31.93436], [-97.21802, 31.93532], [-97.21813, 31.93395], [-97.21919, 31.9335], [-97.21834, 31.93258], [-97.21898, 31.93074], [-97.21808, 31.93073], [-97.21723, 31.92977], [-97.21728, 31.92884], [-97.21829, 31.92885], [-97.21861, 31.92564], [-97.21818, 31.92517], [-97.21723, 31.92606], [-97.21574, 31.92603], [-97.21569, 31.92693], [-97.21516, 31.92693], [-97.21479, 31.92552], [-97.21299, 31.92502], [-97.21304, 31.92408], [-97.21447, 31.92459], [-97.21495, 31.92414], [-97.2141, 31.92319], [-97.21315, 31.92363], [-97.21129, 31.92311], [-97.21135, 31.92218], [-97.21235, 31.92219], [-97.2124, 31.92129], [-97.21108, 31.92079], [-97.21103, 31.9217], [-97.21002, 31.92168], [-97.20997, 31.92259], [-97.21124, 31.92402], [-97.21023, 31.924], [-97.20854, 31.92208], [-97.20806, 31.92253], [-97.20933, 31.92348], [-97.20928, 31.92442], [-97.20875, 31.92442], [-97.2079, 31.92299], [-97.20748, 31.92299], [-97.20737, 31.92389], [-97.20737, 31.92435], [-97.20827, 31.92437], [-97.20912, 31.92532], [-97.20901, 31.92672], [-97.21039, 31.92675], [-97.21124, 31.92818], [-97.21267, 31.92775], [-97.21267, 31.92822], [-97.21357, 31.92824], [-97.214, 31.92919]], [[-97.20493, 31.91966], [-97.20403, 31.91964], [-97.2053, 31.92152], [-97.20621, 31.92153], [-97.20493, 31.91966]], [[-97.20642, 31.92016], [-97.20684, 31.92016], [-97.20642, 31.91972], [-97.20642, 31.92016]], [[-97.20472, 31.91734], [-97.20382, 31.91732], [-97.20552, 31.91967], [-97.20642, 31.91969], [-97.20472, 31.91734]], [[-97.2062, 31.91785], [-97.20663, 31.91785], [-97.2062, 31.9174], [-97.2062, 31.91785]], [[-97.2053, 31.91736], [-97.2062, 31.91737], [-97.2053, 31.91691], [-97.2053, 31.91736]], [[-97.21787, 31.94089], [-97.21734, 31.94178], [-97.21946, 31.94416], [-97.22036, 31.94417], [-97.22041, 31.94327], [-97.21951, 31.94325], [-97.21787, 31.94089]], [[-97.21893, 31.94], [-97.2184, 31.94089], [-97.21924, 31.94184], [-97.22014, 31.94185], [-97.2193, 31.94093], [-97.21935, 31.94], [-97.21893, 31.94]], [[-97.21824, 31.93719], [-97.21781, 31.93719], [-97.21824, 31.93763], [-97.21824, 31.93719]], [[-97.21166, 31.91617], [-97.21023, 31.91568], [-97.21278, 31.91898], [-97.2132, 31.91898], [-97.21325, 31.91808], [-97.2124, 31.91713], [-97.21389, 31.91716], [-97.21399, 31.91579], [-97.21309, 31.91577], [-97.21315, 31.91484], [-97.21177, 31.91481], [-97.21166, 31.91617]], [[-97.22041, 31.93542], [-97.22025, 31.93725], [-97.22253, 31.93777], [-97.22263, 31.93641], [-97.22173, 31.93639], [-97.22179, 31.93545], [-97.22041, 31.93542]], [[-97.22544, 31.94204], [-97.22634, 31.94205], [-97.22597, 31.94115], [-97.22544, 31.94204]], [[-97.22068, 31.94512], [-97.2193, 31.94509], [-97.21877, 31.94598], [-97.22057, 31.94649], [-97.22068, 31.94512]], [[-97.21739, 31.93716], [-97.21781, 31.93716], [-97.21739, 31.93671], [-97.21739, 31.93716]], [[-97.2176, 31.94316], [-97.21718, 31.94224], [-97.21622, 31.94268], [-97.21622, 31.94313], [-97.2176, 31.94316]], [[-97.21108, 31.92864], [-97.21018, 31.92862], [-97.21108, 31.92908], [-97.21108, 31.92864]], [[-97.21219, 31.91944], [-97.21214, 31.92035], [-97.21299, 31.92082], [-97.21304, 31.91992], [-97.21219, 31.91944]], [[-97.21066, 31.92032], [-97.21066, 31.92076], [-97.21108, 31.92032], [-97.21066, 31.92032]], [[-97.20938, 31.91889], [-97.20938, 31.91934], [-97.20981, 31.91889], [-97.20938, 31.91889]], [[-97.21007, 31.91659], [-97.20917, 31.91657], [-97.21002, 31.91797], [-97.21044, 31.91797], [-97.21007, 31.91659]], [[-97.20912, 31.92164], [-97.21002, 31.92165], [-97.2087, 31.92072], [-97.20912, 31.92164]], [[-97.20917, 31.91654], [-97.20922, 31.91564], [-97.20838, 31.91516], [-97.20832, 31.91607], [-97.20917, 31.91654]], [[-97.20928, 31.91934], [-97.20885, 31.91934], [-97.20928, 31.91978], [-97.20928, 31.91934]], [[-97.20811, 31.91746], [-97.20811, 31.91791], [-97.20854, 31.91746], [-97.20811, 31.91746]], [[-97.20684, 31.91648], [-97.20811, 31.91743], [-97.20817, 31.91653], [-97.20732, 31.91604], [-97.20684, 31.91648]], [[-97.20854, 31.91838], [-97.20944, 31.9184], [-97.20854, 31.91794], [-97.20854, 31.91838]], [[-97.20795, 31.91881], [-97.20795, 31.91837], [-97.20663, 31.91788], [-97.20658, 31.91878], [-97.20795, 31.91881]], [[-97.19545, 31.94017], [-97.19551, 31.93923], [-97.19604, 31.93923], [-97.19688, 31.94066], [-97.19778, 31.94067], [-97.19694, 31.93975], [-97.19699, 31.93881], [-97.19842, 31.93931], [-97.19805, 31.93792], [-97.199, 31.93842], [-97.19948, 31.93797], [-97.19906, 31.93797], [-97.19831, 31.93562], [-97.19651, 31.93512], [-97.19688, 31.9365], [-97.19545, 31.93601], [-97.19582, 31.93739], [-97.19439, 31.9369], [-97.19365, 31.93963], [-97.19222, 31.93914], [-97.19259, 31.94052], [-97.19159, 31.9405], [-97.19153, 31.94141], [-97.19296, 31.94098], [-97.19339, 31.94145], [-97.19339, 31.94193], [-97.19238, 31.94192], [-97.19238, 31.94236], [-97.19323, 31.94331], [-97.19413, 31.94333], [-97.1945, 31.94474], [-97.19302, 31.94471], [-97.19291, 31.94607], [-97.19514, 31.94706], [-97.19598, 31.94849], [-97.19641, 31.94849], [-97.19646, 31.94758], [-97.19604, 31.94758], [-97.19567, 31.94617], [-97.19667, 31.94618], [-97.19673, 31.94528], [-97.19773, 31.94529], [-97.19842, 31.94302], [-97.19943, 31.94304], [-97.19953, 31.94167], [-97.19667, 31.94205], [-97.19673, 31.94112], [-97.19545, 31.94017]], [[-97.19815, 31.93376], [-97.19858, 31.93376], [-97.19826, 31.9324], [-97.19815, 31.93376]], [[-97.20631, 31.92525], [-97.20721, 31.92526], [-97.20684, 31.92435], [-97.20631, 31.92525]], [[-97.20382, 31.92564], [-97.20377, 31.92655], [-97.20419, 31.92655], [-97.20425, 31.92564], [-97.20382, 31.92564]], [[-97.20107, 31.93247], [-97.20017, 31.93246], [-97.19974, 31.93198], [-97.1989, 31.93103], [-97.19921, 31.93287], [-97.20054, 31.93337], [-97.20107, 31.93247]], [[-97.20001, 31.93429], [-97.20043, 31.93429], [-97.20001, 31.93384], [-97.20001, 31.93429]], [[-97.19905, 31.93426], [-97.19948, 31.93426], [-97.19911, 31.93335], [-97.19905, 31.93426]], [[-97.19948, 31.93473], [-97.1999, 31.93473], [-97.19948, 31.93429], [-97.19948, 31.93473]], [[-97.20012, 31.93705], [-97.19974, 31.93567], [-97.19921, 31.93703], [-97.20012, 31.93705]], [[-97.19625, 31.9337], [-97.19715, 31.93372], [-97.19678, 31.93234], [-97.19588, 31.93232], [-97.19625, 31.9337]], [[-97.19784, 31.93237], [-97.19826, 31.93237], [-97.19784, 31.93192], [-97.19784, 31.93237]], [[-97.19784, 31.93145], [-97.19694, 31.93143], [-97.19694, 31.93188], [-97.19784, 31.93189], [-97.19784, 31.93145]], [[-97.19095, 31.93768], [-97.191, 31.93677], [-97.19005, 31.93766], [-97.19095, 31.93768]], [[-97.18878, 31.93624], [-97.18968, 31.93625], [-97.18841, 31.93485], [-97.18878, 31.93624]], [[-97.18947, 31.93857], [-97.18989, 31.93857], [-97.18994, 31.93766], [-97.18952, 31.93766], [-97.18947, 31.93857]], [[-97.19074, 31.93955], [-97.19068, 31.94046], [-97.19111, 31.94046], [-97.19116, 31.93955], [-97.19074, 31.93955]], [[-97.19307, 31.94377], [-97.19217, 31.94376], [-97.19217, 31.9442], [-97.19307, 31.94422], [-97.19307, 31.94377]], [[-97.18777, 31.93574], [-97.18735, 31.93574], [-97.18729, 31.93665], [-97.18772, 31.93665], [-97.18777, 31.93574]], [[-97.18798, 31.93438], [-97.18798, 31.93482], [-97.18841, 31.93438], [-97.18798, 31.93438]], [[-97.18856, 31.9376], [-97.18862, 31.9367], [-97.18772, 31.93668], [-97.18766, 31.93759], [-97.18856, 31.9376]], [[-97.20234, 31.92142], [-97.20191, 31.92142], [-97.20234, 31.92187], [-97.20234, 31.92142]], [[-97.20366, 31.91823], [-97.20276, 31.91821], [-97.20361, 31.91914], [-97.20366, 31.91823]], [[-97.20234, 31.9219], [-97.20234, 31.92234], [-97.20276, 31.9219], [-97.20234, 31.9219]], [[-97.20292, 31.92144], [-97.20334, 31.92144], [-97.20297, 31.92053], [-97.20292, 31.92144]], [[-97.20319, 31.92282], [-97.20319, 31.92237], [-97.20276, 31.92282], [-97.20319, 31.92282]], [[-97.16912, 31.9564], [-97.16822, 31.95639], [-97.16865, 31.95731], [-97.16955, 31.95733], [-97.16912, 31.9564]], [[-97.17061, 31.95644], [-97.17066, 31.95553], [-97.16933, 31.95504], [-97.16971, 31.95642], [-97.17061, 31.95644]], [[-97.16843, 31.95499], [-97.16933, 31.95501], [-97.16843, 31.95455], [-97.16843, 31.95499]], [[-97.16949, 31.95366], [-97.17039, 31.95412], [-97.17034, 31.95505], [-97.17119, 31.95553], [-97.17087, 31.95369], [-97.16949, 31.95366]], [[-97.16891, 31.9504], [-97.16891, 31.95085], [-97.16981, 31.95086], [-97.16981, 31.95042], [-97.16891, 31.9504]], [[-97.16589, 31.94798], [-97.16488, 31.94796], [-97.16483, 31.94887], [-97.16525, 31.94934], [-97.16668, 31.94891], [-97.16668, 31.94939], [-97.16806, 31.94942], [-97.16822, 31.94759], [-97.16875, 31.94759], [-97.16886, 31.94623], [-97.167, 31.94618], [-97.16695, 31.94709], [-97.16552, 31.9466], [-97.16589, 31.94798]], [[-97.16615, 31.94523], [-97.16615, 31.94567], [-97.16705, 31.94569], [-97.16705, 31.94525], [-97.16615, 31.94523]], [[-97.18491, 31.94861], [-97.18528, 31.94999], [-97.18428, 31.94997], [-97.18428, 31.95042], [-97.18512, 31.95089], [-97.18544, 31.95277], [-97.18629, 31.95326], [-97.18724, 31.95327], [-97.18735, 31.95191], [-97.18602, 31.95142], [-97.18661, 31.9505], [-97.18624, 31.9491], [-97.18491, 31.94861]], [[-97.18687, 31.94773], [-97.18597, 31.94772], [-97.18682, 31.94911], [-97.18724, 31.94867], [-97.18687, 31.94773]], [[-97.18581, 31.94494], [-97.1857, 31.9463], [-97.18703, 31.9468], [-97.18745, 31.94775], [-97.18835, 31.94776], [-97.18835, 31.94732], [-97.18714, 31.94591], [-97.18719, 31.94497], [-97.18581, 31.94494]], [[-97.18491, 31.94442], [-97.18496, 31.94351], [-97.18411, 31.94256], [-97.18321, 31.94254], [-97.18316, 31.94345], [-97.18406, 31.94347], [-97.18491, 31.94442]], [[-97.18729, 31.94497], [-97.18772, 31.94497], [-97.18729, 31.94452], [-97.18729, 31.94497]], [[-97.18428, 31.94994], [-97.18428, 31.9495], [-97.18385, 31.94994], [-97.18428, 31.94994]], [[-97.18083, 31.95447], [-97.18041, 31.95447], [-97.18083, 31.95492], [-97.18083, 31.95447]], [[-97.18041, 31.95444], [-97.18041, 31.954], [-97.17998, 31.95444], [-97.18041, 31.95444]], [[-97.18168, 31.95174], [-97.18168, 31.95218], [-97.18258, 31.9522], [-97.18258, 31.95175], [-97.18168, 31.95174]], [[-97.18194, 31.95357], [-97.18194, 31.95312], [-97.18104, 31.9531], [-97.18099, 31.95401], [-97.18194, 31.95357]], [[-97.17188, 31.95373], [-97.17182, 31.95464], [-97.17273, 31.95465], [-97.17278, 31.95375], [-97.17188, 31.95373]], [[-97.17829, 31.95254], [-97.17871, 31.95254], [-97.17829, 31.95209], [-97.17829, 31.95254]], [[-97.1776, 31.95389], [-97.17818, 31.95254], [-97.1767, 31.95387], [-97.1776, 31.95389]], [[-97.17792, 31.95112], [-97.17792, 31.95068], [-97.17702, 31.95066], [-97.17707, 31.94973], [-97.17617, 31.94971], [-97.17612, 31.95062], [-97.17511, 31.9506], [-97.17548, 31.95198], [-97.17686, 31.95201], [-97.17792, 31.95112]], [[-97.17574, 31.94968], [-97.17617, 31.94968], [-97.17574, 31.94924], [-97.17574, 31.94968]], [[-97.17781, 31.95668], [-97.17871, 31.9567], [-97.17829, 31.95578], [-97.17739, 31.95576], [-97.17781, 31.95668]], [[-97.1785, 31.95393], [-97.1776, 31.95392], [-97.1776, 31.95436], [-97.1785, 31.95438], [-97.1785, 31.95393]], [[-97.17845, 31.95532], [-97.17887, 31.95532], [-97.1785, 31.95441], [-97.17845, 31.95532]], [[-97.17188, 31.95326], [-97.17098, 31.95324], [-97.17188, 31.9537], [-97.17188, 31.95326]], [[-97.17034, 31.95089], [-97.17129, 31.95045], [-97.17002, 31.94858], [-97.1696, 31.94902], [-97.17034, 31.95089]], [[-97.17209, 31.95558], [-97.17119, 31.95556], [-97.17161, 31.95648], [-97.17204, 31.95648], [-97.17209, 31.95558]], [[-97.16854, 31.94483], [-97.16811, 31.94483], [-97.16806, 31.94574], [-97.16848, 31.94574], [-97.16854, 31.94483]], [[-97.1642, 31.96179], [-97.1633, 31.96178], [-97.16372, 31.9627], [-97.16462, 31.96271], [-97.1642, 31.96179]], [[-97.16393, 31.96086], [-97.16483, 31.96087], [-97.16393, 31.96041], [-97.16393, 31.96086]], [[-97.16329, 31.95806], [-97.16372, 31.95806], [-97.16377, 31.95716], [-97.16292, 31.95668], [-97.16298, 31.95574], [-97.16165, 31.95525], [-97.1616, 31.95616], [-97.16329, 31.95806]], [[-97.15905, 31.9533], [-97.16091, 31.95335], [-97.16144, 31.9529], [-97.16154, 31.95154], [-97.16017, 31.95151], [-97.16006, 31.95287], [-97.15868, 31.95192], [-97.15863, 31.95283], [-97.15905, 31.9533]], [[-97.16706, 31.96188], [-97.1652, 31.96184], [-97.16515, 31.96274], [-97.16695, 31.96325], [-97.16706, 31.96188]], [[-97.16695, 31.95865], [-97.16653, 31.95865], [-97.16695, 31.95909], [-97.16695, 31.95865]], [[-97.1661, 31.95817], [-97.1661, 31.95862], [-97.16653, 31.95817], [-97.1661, 31.95817]], [[-97.16711, 31.95403], [-97.1661, 31.95401], [-97.16647, 31.95539], [-97.16785, 31.95542], [-97.1679, 31.95452], [-97.16896, 31.95363], [-97.16764, 31.95314], [-97.16711, 31.95403]], [[-97.16446, 31.94749], [-97.16361, 31.94653], [-97.16398, 31.94792], [-97.16488, 31.94793], [-97.16446, 31.94749]], [[-97.16785, 31.95961], [-97.16785, 31.95914], [-97.16695, 31.95912], [-97.16727, 31.96096], [-97.16865, 31.96099], [-97.16875, 31.95963], [-97.16785, 31.95961]], [[-97.16806, 31.94945], [-97.16801, 31.95036], [-97.16891, 31.94993], [-97.16806, 31.94945]], [[-97.16796, 31.95914], [-97.16891, 31.95869], [-97.16849, 31.95777], [-97.16759, 31.95776], [-97.16796, 31.95914]], [[-97.16716, 31.95772], [-97.16759, 31.95772], [-97.16716, 31.95728], [-97.16716, 31.95772]], [[-97.16753, 31.96282], [-97.16844, 31.96284], [-97.16753, 31.96238], [-97.16753, 31.96282]], [[-97.16552, 31.94612], [-97.16509, 31.94612], [-97.16552, 31.94657], [-97.16552, 31.94612]], [[-97.16435, 31.95673], [-97.16435, 31.95717], [-97.16478, 31.95673], [-97.16435, 31.95673]], [[-97.16441, 31.95579], [-97.16398, 31.95579], [-97.16435, 31.9567], [-97.16441, 31.95579]], [[-97.16271, 31.95436], [-97.16308, 31.95574], [-97.16398, 31.95576], [-97.16361, 31.95438], [-97.16271, 31.95436]], [[-97.16462, 31.95439], [-97.16467, 31.95349], [-97.16377, 31.95392], [-97.16462, 31.95439]], [[-97.16462, 31.95442], [-97.16504, 31.95487], [-97.16499, 31.95581], [-97.16594, 31.95536], [-97.16552, 31.95444], [-97.16462, 31.95442]], [[-97.16573, 31.95307], [-97.16568, 31.95398], [-97.1661, 31.95398], [-97.16615, 31.95307], [-97.16573, 31.95307]], [[-97.16531, 31.95673], [-97.16531, 31.95628], [-97.16488, 31.95673], [-97.16531, 31.95673]], [[-97.16573, 31.96092], [-97.16483, 31.9609], [-97.16483, 31.96135], [-97.16573, 31.96136], [-97.16573, 31.96092]], [[-97.16504, 31.95906], [-97.16499, 31.95997], [-97.16589, 31.95954], [-97.16504, 31.95906]], [[-97.16297, 31.94835], [-97.1634, 31.94835], [-97.16297, 31.9479], [-97.16297, 31.94835]], [[-97.16382, 31.94882], [-97.16382, 31.94838], [-97.1634, 31.94882], [-97.16382, 31.94882]], [[-97.16382, 31.95254], [-97.16287, 31.95298], [-97.16287, 31.95343], [-97.16377, 31.95344], [-97.16382, 31.95254]], [[-97.16144, 31.9571], [-97.16139, 31.958], [-97.16181, 31.958], [-97.16186, 31.9571], [-97.16144, 31.9571]], [[-97.16054, 31.96492], [-97.16049, 31.96583], [-97.16187, 31.96586], [-97.16187, 31.96542], [-97.16054, 31.96492]], [[-97.16165, 31.9631], [-97.16081, 31.96262], [-97.16112, 31.96446], [-97.16202, 31.96448], [-97.16165, 31.9631]], [[-97.15964, 31.96488], [-97.16054, 31.96489], [-97.15969, 31.9635], [-97.15927, 31.96394], [-97.15964, 31.96488]], [[-97.15821, 31.96437], [-97.15858, 31.96577], [-97.15948, 31.96578], [-97.15863, 31.96486], [-97.15869, 31.96393], [-97.15821, 31.96437]], [[-97.15906, 31.96115], [-97.15911, 31.96024], [-97.15821, 31.96067], [-97.15906, 31.96115]], [[-97.15863, 31.95699], [-97.15953, 31.957], [-97.15868, 31.95608], [-97.15863, 31.95699]], [[-97.16144, 31.96078], [-97.16102, 31.96078], [-97.16176, 31.9631], [-97.16266, 31.96311], [-97.16144, 31.96078]], [[-97.16213, 31.95895], [-97.16075, 31.95892], [-97.16065, 31.96029], [-97.16202, 31.96032], [-97.16213, 31.95895]], [[-97.16287, 31.96175], [-97.1633, 31.96175], [-97.16292, 31.96084], [-97.16287, 31.96175]], [[-97.16202, 31.96079], [-97.16292, 31.96081], [-97.16202, 31.96035], [-97.16202, 31.96079]], [[-97.16266, 31.96314], [-97.16266, 31.96359], [-97.16356, 31.9636], [-97.16356, 31.96316], [-97.16266, 31.96314]], [[-97.15996, 31.95703], [-97.15953, 31.95703], [-97.15948, 31.95794], [-97.1599, 31.95794], [-97.15996, 31.95703]], [[-97.16059, 31.95659], [-97.16102, 31.95659], [-97.16059, 31.95614], [-97.16059, 31.95659]], [[-97.16144, 31.95706], [-97.16144, 31.95662], [-97.16102, 31.95706], [-97.16144, 31.95706]], [[-97.16012, 31.96029], [-97.16012, 31.96073], [-97.16054, 31.96029], [-97.16012, 31.96029]], [[-97.15927, 31.95978], [-97.16017, 31.9598], [-97.15927, 31.95934], [-97.15927, 31.95978]], [[-97.15842, 31.96623], [-97.158, 31.96623], [-97.15673, 31.9648], [-97.15667, 31.96571], [-97.15879, 31.96761], [-97.15842, 31.96623]], [[-97.15975, 31.96812], [-97.16112, 31.96815], [-97.16123, 31.96678], [-97.15985, 31.96675], [-97.15975, 31.96812]], [[-97.15868, 31.95189], [-97.15868, 31.95145], [-97.15826, 31.95189], [-97.15868, 31.95189]], [[-97.15762, 31.95234], [-97.15672, 31.95232], [-97.15762, 31.95278], [-97.15762, 31.95234]], [[-97.15741, 31.95418], [-97.15651, 31.95416], [-97.15651, 31.95461], [-97.15741, 31.95462], [-97.15741, 31.95418]], [[-97.14825, 31.95528], [-97.14697, 31.95386], [-97.14772, 31.95617], [-97.14867, 31.95528], [-97.14825, 31.95528]], [[-97.14931, 31.97056], [-97.14793, 31.97053], [-97.14783, 31.97189], [-97.14963, 31.9724], [-97.14931, 31.97056]], [[-97.14978, 31.96225], [-97.14793, 31.96221], [-97.1483, 31.96359], [-97.14963, 31.96408], [-97.14978, 31.96225]], [[-97.14989, 31.96133], [-97.14899, 31.96132], [-97.14899, 31.96176], [-97.14989, 31.96178], [-97.14989, 31.96133]], [[-97.14862, 31.96082], [-97.14904, 31.96082], [-97.14862, 31.96038], [-97.14862, 31.96082]], [[-97.15159, 31.96368], [-97.15159, 31.96323], [-97.15116, 31.96368], [-97.15159, 31.96368]], [[-97.14963, 31.96455], [-97.15053, 31.96457], [-97.14963, 31.96411], [-97.14963, 31.96455]], [[-97.15121, 31.95814], [-97.15079, 31.95814], [-97.15121, 31.95858], [-97.15121, 31.95814]], [[-97.15031, 31.96597], [-97.14941, 31.96595], [-97.15111, 31.96782], [-97.15116, 31.96692], [-97.15031, 31.96597]], [[-97.14777, 31.96311], [-97.14687, 31.9631], [-97.14724, 31.96448], [-97.14814, 31.96449], [-97.14777, 31.96311]], [[-97.14756, 31.96079], [-97.14666, 31.96078], [-97.14708, 31.9617], [-97.14798, 31.96172], [-97.14756, 31.96079]], [[-97.14449, 31.9755], [-97.14449, 31.97594], [-97.14491, 31.9755], [-97.14449, 31.9755]]], [[[-97.14439, 31.99351], [-97.1429, 31.99347], [-97.1429, 31.99392], [-97.14333, 31.99392], [-97.14327, 31.99486], [-97.14465, 31.99489], [-97.14518, 31.994], [-97.14714, 31.99404], [-97.14714, 31.99452], [-97.14613, 31.9945], [-97.1456, 31.99539], [-97.14407, 31.99582], [-97.14391, 31.99765], [-97.1419, 31.99806], [-97.142, 31.99667], [-97.14158, 31.99667], [-97.14131, 31.99433], [-97.14089, 31.99433], [-97.1411, 31.99202], [-97.13946, 31.99013], [-97.13951, 31.98919], [-97.13813, 31.98916], [-97.13771, 31.98821], [-97.13633, 31.98818], [-97.13633, 31.9877], [-97.13686, 31.9877], [-97.13697, 31.98634], [-97.13993, 31.98595], [-97.13993, 31.98551], [-97.14147, 31.98508], [-97.14184, 31.98649], [-97.14274, 31.98651], [-97.14317, 31.98746], [-97.14311, 31.98792], [-97.14211, 31.9879], [-97.142, 31.98927], [-97.14094, 31.98971], [-97.14136, 31.99063], [-97.14269, 31.99113], [-97.14396, 31.99255], [-97.14322, 31.99024], [-97.14423, 31.99025], [-97.14428, 31.98935], [-97.14571, 31.98984], [-97.14608, 31.99125], [-97.14545, 31.99262], [-97.14587, 31.99309], [-97.14444, 31.9926], [-97.14439, 31.99351]], [[-97.14311, 31.99576], [-97.14317, 31.99486], [-97.14184, 31.99436], [-97.14221, 31.99575], [-97.14311, 31.99576]], [[-97.14248, 31.993], [-97.14248, 31.99344], [-97.1429, 31.993], [-97.14248, 31.993]], [[-97.14205, 31.99297], [-97.14248, 31.99297], [-97.14205, 31.99252], [-97.14205, 31.99297]], [[-97.14502, 31.99166], [-97.14507, 31.99076], [-97.14465, 31.99076], [-97.1446, 31.99166], [-97.14502, 31.99166]], [[-97.14036, 31.98646], [-97.14078, 31.98738], [-97.14126, 31.98647], [-97.14036, 31.98646]], [[-97.14105, 31.98876], [-97.14105, 31.98832], [-97.13977, 31.98737], [-97.14015, 31.98875], [-97.14105, 31.98876]]]]}}]}