{"type": "FeatureCollection", "features": [{"type": "Feature", "properties": {"id": "usace-whitney", "name": "Whitney Lake", "source": "USACE Fort Worth District 2025 hunting map", "padusUnit": "Whitney Point Recreation Area", "boundarySource": "corps-hunt-map", "closedNames": ["Lake Whitney State Park"]}, "geometry": {"type": "MultiPolygon", "coordinates": [[[[-97.43246, 31.91249], [-97.43246, 31.91172], [-97.4298, 31.91172], [-97.42978, 31.91325], [-97.42887, 31.91325], [-97.42891, 31.91096], [-97.42625, 31.91096], [-97.42625, 31.91172], [-97.42445, 31.91172], [-97.4245, 31.90867], [-97.42898, 31.90867], [-97.42898, 31.90791], [-97.42989, 31.90791], [-97.42989, 31.90715], [-97.4308, 31.90715], [-97.43079, 31.90867], [-97.43166, 31.90867], [-97.43166, 31.90944], [-97.43521, 31.90944], [-97.43523, 31.90791], [-97.43614, 31.90791], [-97.4361, 31.9102], [-97.43787, 31.9102], [-97.43787, 31.91096], [-97.43962, 31.91173], [-97.43962, 31.91249], [-97.43246, 31.91249]]], [[[-97.45012, 31.91935], [-97.44657, 31.91935], [-97.44657, 31.91859], [-97.44213, 31.91859], [-97.44213, 31.91782], [-97.44125, 31.91782], [-97.44125, 31.91706], [-97.43949, 31.91706], [-97.43949, 31.9163], [-97.44218, 31.9163], [-97.44222, 31.91401], [-97.44313, 31.91401], [-97.44313, 31.91478], [-97.4449, 31.91478], [-97.4449, 31.91554], [-97.44755, 31.91554], [-97.44755, 31.9163], [-97.44932, 31.9163], [-97.44932, 31.91706], [-97.45198, 31.91707], [-97.45194, 31.91935], [-97.45103, 31.91935], [-97.45103, 31.92011], [-97.45012, 31.92011], [-97.45012, 31.91935]], [[-97.44573, 31.91706], [-97.44573, 31.9163], [-97.44486, 31.9163], [-97.44484, 31.91782], [-97.44661, 31.91783], [-97.44661, 31.91706], [-97.44573, 31.91706]]], [[[-97.44726, 31.92849], [-97.44635, 31.92849], [-97.44635, 31.92926], [-97.44365, 31.92925], [-97.4436, 31.9323], [-97.44447, 31.9323], [-97.44447, 31.93154], [-97.44717, 31.93154], [-97.44717, 31.9323], [-97.44625, 31.9323], [-97.44625, 31.93307], [-97.44534, 31.93307], [-97.44534, 31.93383], [-97.44086, 31.93383], [-97.44097, 31.92849], [-97.43921, 31.92849], [-97.43921, 31.92773], [-97.43834, 31.92773], [-97.43834, 31.92697], [-97.43746, 31.92697], [-97.43748, 31.92544], [-97.43661, 31.92544], [-97.43662, 31.92392], [-97.43575, 31.92392], [-97.43575, 31.92315], [-97.43845, 31.92316], [-97.43843, 31.92468], [-97.44287, 31.92468], [-97.44287, 31.92544], [-97.44464, 31.92544], [-97.44464, 31.92621], [-97.44551, 31.92621], [-97.44551, 31.92697], [-97.44638, 31.92697], [-97.44638, 31.92773], [-97.44726, 31.92773], [-97.44726, 31.92849]]], [[[-97.41307, 31.93915], [-97.41306, 31.94067], [-97.41214, 31.94067], [-97.41214, 31.94143], [-97.41123, 31.94143], [-97.41122, 31.94296], [-97.40852, 31.94295], [-97.40852, 31.94219], [-97.40765, 31.94219], [-97.40765, 31.94143], [-97.40677, 31.94143], [-97.40677, 31.94067], [-97.40501, 31.94067], [-97.40501, 31.9399], [-97.40235, 31.9399], [-97.40235, 31.94067], [-97.40054, 31.94067], [-97.40054, 31.94143], [-97.39874, 31.94143], [-97.39874, 31.94219], [-97.39783, 31.94219], [-97.39783, 31.94295], [-97.39603, 31.94295], [-97.39603, 31.94371], [-97.39512, 31.94371], [-97.39512, 31.94447], [-97.39421, 31.94447], [-97.39424, 31.94219], [-97.39694, 31.94219], [-97.39698, 31.9399], [-97.39878, 31.9399], [-97.39878, 31.93914], [-97.39969, 31.93914], [-97.39969, 31.9399], [-97.40056, 31.9399], [-97.40056, 31.93914], [-97.40147, 31.93914], [-97.40147, 31.93838], [-97.4006, 31.93838], [-97.40062, 31.93685], [-97.40153, 31.93685], [-97.40153, 31.93762], [-97.4024, 31.93762], [-97.4024, 31.93838], [-97.40328, 31.93838], [-97.4033, 31.93686], [-97.40242, 31.93686], [-97.40244, 31.93533], [-97.40335, 31.93533], [-97.40335, 31.93609], [-97.40512, 31.93609], [-97.40512, 31.93533], [-97.40424, 31.93533], [-97.40426, 31.93381], [-97.40607, 31.93381], [-97.4061, 31.93152], [-97.40344, 31.93152], [-97.40344, 31.93228], [-97.40075, 31.93228], [-97.40077, 31.93076], [-97.39989, 31.93076], [-97.39989, 31.93], [-97.39813, 31.93], [-97.39813, 31.92923], [-97.39725, 31.92923], [-97.39727, 31.92771], [-97.39818, 31.92771], [-97.39818, 31.92847], [-97.39995, 31.92847], [-97.39995, 31.92771], [-97.39908, 31.92771], [-97.39908, 31.92695], [-97.39911, 31.92542], [-97.40002, 31.92542], [-97.40006, 31.92314], [-97.40097, 31.92314], [-97.40097, 31.9239], [-97.40274, 31.9239], [-97.40272, 31.92543], [-97.40447, 31.92619], [-97.40447, 31.92695], [-97.40534, 31.92695], [-97.40532, 31.92847], [-97.40619, 31.92847], [-97.40619, 31.92924], [-97.40796, 31.92924], [-97.40796, 31.93], [-97.40705, 31.93], [-97.40701, 31.93229], [-97.40789, 31.93229], [-97.40785, 31.93457], [-97.40872, 31.93457], [-97.40869, 31.93686], [-97.41134, 31.93686], [-97.41136, 31.93534], [-97.41227, 31.93534], [-97.41226, 31.93686], [-97.41402, 31.93686], [-97.41398, 31.93915], [-97.41307, 31.93915]], [[-97.41127, 31.93915], [-97.40861, 31.93914], [-97.40858, 31.94143], [-97.41123, 31.94143], [-97.41127, 31.93915]], [[-97.39995, 31.92923], [-97.40082, 31.92923], [-97.40082, 31.93], [-97.4017, 31.93], [-97.40171, 31.92847], [-97.39995, 31.92847], [-97.39995, 31.92923]], [[-97.4017, 31.93076], [-97.40346, 31.93076], [-97.40346, 31.93], [-97.4017, 31.93], [-97.4017, 31.93076]], [[-97.40599, 31.9361], [-97.40512, 31.9361], [-97.4051, 31.93762], [-97.40685, 31.93838], [-97.40685, 31.93914], [-97.40772, 31.93914], [-97.40774, 31.93762], [-97.40686, 31.93762], [-97.40686, 31.93686], [-97.40599, 31.93686], [-97.40599, 31.9361]], [[-97.40179, 31.92542], [-97.40092, 31.92542], [-97.4009, 31.92695], [-97.40177, 31.92695], [-97.40177, 31.92771], [-97.40264, 31.92771], [-97.40264, 31.92847], [-97.40441, 31.92847], [-97.40441, 31.92771], [-97.40354, 31.92771], [-97.40354, 31.92695], [-97.40266, 31.92695], [-97.40266, 31.92619], [-97.40179, 31.92619], [-97.40179, 31.92542]]], [[[-97.46366, 31.9506], [-97.46366, 31.95136], [-97.4565, 31.95136], [-97.4565, 31.95212], [-97.4538, 31.95212], [-97.4538, 31.95288], [-97.452, 31.95288], [-97.452, 31.95364], [-97.45109, 31.95364], [-97.45109, 31.9544], [-97.44929, 31.9544], [-97.44929, 31.95517], [-97.44659, 31.95516], [-97.44659, 31.9544], [-97.44393, 31.9544], [-97.44304, 31.9544], [-97.44304, 31.95516], [-97.44213, 31.95516], [-97.44204, 31.95973], [-97.4438, 31.95973], [-97.4438, 31.9605], [-97.44557, 31.9605], [-97.44555, 31.96202], [-97.44464, 31.96202], [-97.44457, 31.96583], [-97.44544, 31.96583], [-97.44542, 31.96736], [-97.44717, 31.96812], [-97.44715, 31.96964], [-97.44624, 31.96964], [-97.44624, 31.9704], [-97.44533, 31.9704], [-97.44533, 31.97117], [-97.44442, 31.97117], [-97.44442, 31.9704], [-97.44354, 31.9704], [-97.44354, 31.96964], [-97.44267, 31.96964], [-97.44269, 31.96812], [-97.44003, 31.96812], [-97.44003, 31.96888], [-97.43912, 31.96888], [-97.43912, 31.96964], [-97.43999, 31.96964], [-97.43999, 31.9704], [-97.44087, 31.9704], [-97.44085, 31.97193], [-97.43726, 31.97192], [-97.43726, 31.97116], [-97.4355, 31.97116], [-97.4355, 31.9704], [-97.43373, 31.9704], [-97.43373, 31.96964], [-97.43107, 31.96964], [-97.43103, 31.97192], [-97.43191, 31.97192], [-97.43189, 31.97345], [-97.43276, 31.97345], [-97.43276, 31.97421], [-97.43185, 31.97421], [-97.43185, 31.97497], [-97.42916, 31.97497], [-97.42916, 31.97421], [-97.42828, 31.97421], [-97.42828, 31.97344], [-97.42741, 31.97344], [-97.42743, 31.97192], [-97.42568, 31.97116], [-97.4257, 31.96963], [-97.42483, 31.96963], [-97.42483, 31.96887], [-97.42306, 31.96887], [-97.42306, 31.96811], [-97.42219, 31.96811], [-97.4222, 31.96658], [-97.42133, 31.96658], [-97.42139, 31.96353], [-97.42051, 31.96353], [-97.42053, 31.96201], [-97.41966, 31.96201], [-97.41969, 31.95972], [-97.42596, 31.95973], [-97.42596, 31.96049], [-97.42683, 31.96049], [-97.42683, 31.95973], [-97.42863, 31.95973], [-97.42863, 31.95897], [-97.42955, 31.95897], [-97.42955, 31.9582], [-97.43313, 31.95821], [-97.43317, 31.95592], [-97.43408, 31.95592], [-97.43408, 31.95516], [-97.43588, 31.95516], [-97.43596, 31.95135], [-97.43419, 31.95135], [-97.43425, 31.9483], [-97.43337, 31.9483], [-97.43339, 31.94678], [-97.43163, 31.94678], [-97.43163, 31.94754], [-97.43072, 31.94754], [-97.43068, 31.94906], [-97.43068, 31.94982], [-97.43155, 31.94982], [-97.43155, 31.95059], [-97.43332, 31.95059], [-97.43326, 31.95363], [-97.42611, 31.95363], [-97.42611, 31.95439], [-97.4243, 31.95439], [-97.42432, 31.95287], [-97.42345, 31.95287], [-97.42348, 31.95058], [-97.4244, 31.95058], [-97.4244, 31.94982], [-97.42531, 31.94982], [-97.42531, 31.94906], [-97.42622, 31.94906], [-97.42622, 31.9483], [-97.42713, 31.9483], [-97.42713, 31.94754], [-97.42893, 31.94754], [-97.42893, 31.94677], [-97.42984, 31.94677], [-97.42984, 31.94601], [-97.43075, 31.94601], [-97.43075, 31.94525], [-97.43166, 31.94525], [-97.43166, 31.94449], [-97.43257, 31.94449], [-97.43259, 31.94297], [-97.43618, 31.94297], [-97.43618, 31.94221], [-97.43709, 31.94221], [-97.44066, 31.94221], [-97.44066, 31.94297], [-97.44332, 31.94297], [-97.44332, 31.94373], [-97.44419, 31.94373], [-97.44417, 31.94526], [-97.44505, 31.94526], [-97.44503, 31.94678], [-97.4459, 31.94678], [-97.4459, 31.94754], [-97.44856, 31.94754], [-97.4486, 31.94526], [-97.44951, 31.94526], [-97.44951, 31.94602], [-97.45038, 31.94602], [-97.45035, 31.94831], [-97.45568, 31.94831], [-97.45568, 31.94755], [-97.46016, 31.94755], [-97.46016, 31.94679], [-97.46375, 31.94679], [-97.46375, 31.94603], [-97.4709, 31.94603], [-97.47089, 31.94756], [-97.46819, 31.94755], [-97.46815, 31.94984], [-97.46635, 31.94984], [-97.46635, 31.9506], [-97.46366, 31.9506]], [[-97.45111, 31.95212], [-97.44934, 31.95212], [-97.44932, 31.95364], [-97.45109, 31.95364], [-97.45111, 31.95212]], [[-97.44934, 31.95136], [-97.44847, 31.95136], [-97.44847, 31.95059], [-97.4467, 31.95059], [-97.4467, 31.95135], [-97.44758, 31.95135], [-97.44758, 31.95212], [-97.44934, 31.95212], [-97.44934, 31.95136]], [[-97.44672, 31.94907], [-97.44497, 31.94831], [-97.44497, 31.94907], [-97.44406, 31.94907], [-97.44406, 31.94983], [-97.4467, 31.95059], [-97.44672, 31.94907]], [[-97.4339, 31.9643], [-97.43299, 31.9643], [-97.43299, 31.96506], [-97.43207, 31.96506], [-97.43202, 31.96811], [-97.43378, 31.96811], [-97.43378, 31.96887], [-97.43466, 31.96887], [-97.43466, 31.96811], [-97.43557, 31.96811], [-97.43557, 31.96735], [-97.43737, 31.96735], [-97.43737, 31.96659], [-97.44007, 31.96659], [-97.44009, 31.96507], [-97.43921, 31.96507], [-97.43921, 31.9643], [-97.43834, 31.9643], [-97.43834, 31.96354], [-97.4339, 31.96354], [-97.4339, 31.9643]], [[-97.433, 31.96278], [-97.43213, 31.96278], [-97.43213, 31.96202], [-97.43036, 31.96202], [-97.43035, 31.96354], [-97.43211, 31.96354], [-97.43211, 31.9643], [-97.43299, 31.9643], [-97.433, 31.96278]], [[-97.43765, 31.95668], [-97.43942, 31.95668], [-97.43943, 31.95516], [-97.43767, 31.95516], [-97.43765, 31.95668]], [[-97.43761, 31.95668], [-97.43674, 31.95668], [-97.43674, 31.95592], [-97.43497, 31.95592], [-97.43495, 31.95744], [-97.43583, 31.95744], [-97.43583, 31.95821], [-97.43759, 31.95821], [-97.43761, 31.95668]], [[-97.44059, 31.94602], [-97.44146, 31.94602], [-97.44146, 31.94678], [-97.44233, 31.94678], [-97.44237, 31.94449], [-97.4406, 31.94449], [-97.4406, 31.94373], [-97.43973, 31.94373], [-97.43971, 31.94525], [-97.44059, 31.94525], [-97.44059, 31.94602]], [[-97.45299, 31.94907], [-97.45295, 31.95136], [-97.45561, 31.95136], [-97.45564, 31.94907], [-97.45299, 31.94907]], [[-97.46458, 31.94908], [-97.4646, 31.94755], [-97.46284, 31.94755], [-97.46282, 31.94908], [-97.46458, 31.94908]], [[-97.45115, 31.95212], [-97.45202, 31.95212], [-97.45204, 31.95059], [-97.45116, 31.95059], [-97.45115, 31.95212]], [[-97.44364, 31.96583], [-97.44276, 31.96583], [-97.44274, 31.96735], [-97.44451, 31.96736], [-97.44451, 31.96659], [-97.44364, 31.96659], [-97.44364, 31.96583]], [[-97.44016, 31.96354], [-97.44282, 31.96354], [-97.44286, 31.96126], [-97.4402, 31.96126], [-97.44016, 31.96354]], [[-97.44042, 31.95211], [-97.44042, 31.95135], [-97.43776, 31.95135], [-97.43776, 31.95059], [-97.43689, 31.95059], [-97.43683, 31.95364], [-97.43949, 31.95364], [-97.43951, 31.95211], [-97.44042, 31.95211]], [[-97.4378, 31.95059], [-97.43956, 31.95059], [-97.43958, 31.94906], [-97.43871, 31.94906], [-97.43871, 31.9483], [-97.43694, 31.9483], [-97.43692, 31.94983], [-97.4378, 31.94983], [-97.4378, 31.95059]], [[-97.44046, 31.95135], [-97.44133, 31.95135], [-97.44133, 31.95059], [-97.44046, 31.95059], [-97.44046, 31.95135]], [[-97.4394, 31.95821], [-97.44027, 31.95821], [-97.44029, 31.95669], [-97.43942, 31.95669], [-97.4394, 31.95821]], [[-97.42973, 31.95135], [-97.42973, 31.95058], [-97.42796, 31.95058], [-97.42796, 31.95135], [-97.42973, 31.95135]], [[-97.42796, 31.94982], [-97.42709, 31.94982], [-97.42709, 31.95058], [-97.42796, 31.95058], [-97.42796, 31.94982]], [[-97.42888, 31.94906], [-97.428, 31.94906], [-97.428, 31.94982], [-97.42888, 31.94982], [-97.42888, 31.94906]]], [[[-97.42436, 31.98944], [-97.42434, 31.99021], [-97.42343, 31.99021], [-97.42336, 31.99402], [-97.42156, 31.99402], [-97.42157, 31.99249], [-97.41624, 31.99249], [-97.41624, 31.99173], [-97.41447, 31.99173], [-97.41449, 31.9902], [-97.41183, 31.9902], [-97.41183, 31.98944], [-97.41096, 31.98944], [-97.41096, 31.98868], [-97.41009, 31.98868], [-97.41009, 31.98791], [-97.40743, 31.98791], [-97.40743, 31.98715], [-97.40655, 31.98715], [-97.40657, 31.98563], [-97.40482, 31.98486], [-97.40486, 31.98258], [-97.40131, 31.98258], [-97.40129, 31.9841], [-97.3986, 31.9841], [-97.3986, 31.98334], [-97.39685, 31.98257], [-97.39685, 31.98181], [-97.39598, 31.98181], [-97.39598, 31.98105], [-97.3951, 31.98105], [-97.39514, 31.97876], [-97.39427, 31.97876], [-97.39438, 31.97343], [-97.39529, 31.97343], [-97.39534, 31.97038], [-97.39715, 31.97038], [-97.39718, 31.9681], [-97.39809, 31.9681], [-97.39809, 31.96733], [-97.399, 31.96733], [-97.399, 31.96657], [-97.39992, 31.96657], [-97.39995, 31.96429], [-97.40086, 31.96429], [-97.40086, 31.96353], [-97.40177, 31.96353], [-97.40177, 31.96276], [-97.40268, 31.96276], [-97.40268, 31.962], [-97.40538, 31.962], [-97.40538, 31.96124], [-97.40629, 31.96124], [-97.40629, 31.962], [-97.40804, 31.96277], [-97.40804, 31.96353], [-97.40891, 31.96353], [-97.40891, 31.96429], [-97.41066, 31.96505], [-97.41066, 31.96582], [-97.41153, 31.96582], [-97.41153, 31.96658], [-97.41241, 31.96658], [-97.41241, 31.96734], [-97.41328, 31.96734], [-97.41328, 31.9681], [-97.41503, 31.96887], [-97.41501, 31.97039], [-97.41676, 31.97115], [-97.41674, 31.97268], [-97.41583, 31.97268], [-97.41583, 31.97344], [-97.41492, 31.97344], [-97.41488, 31.97572], [-97.41575, 31.97572], [-97.41574, 31.97725], [-97.41748, 31.97801], [-97.41745, 31.9803], [-97.41921, 31.9803], [-97.41919, 31.98182], [-97.42007, 31.98182], [-97.42005, 31.98335], [-97.42271, 31.98335], [-97.42271, 31.98411], [-97.42358, 31.98411], [-97.42349, 31.98868], [-97.42436, 31.98868], [-97.42436, 31.98944]], [[-97.39525, 31.97571], [-97.39791, 31.97572], [-97.39789, 31.97724], [-97.39966, 31.97724], [-97.39967, 31.97572], [-97.39793, 31.97495], [-97.39793, 31.97419], [-97.39973, 31.97419], [-97.39973, 31.97343], [-97.40064, 31.97343], [-97.40064, 31.97267], [-97.39977, 31.97267], [-97.39977, 31.97191], [-97.39711, 31.97191], [-97.39709, 31.97343], [-97.39529, 31.97343], [-97.39525, 31.97571]], [[-97.40665, 31.98334], [-97.40665, 31.9841], [-97.40752, 31.9841], [-97.40752, 31.98486], [-97.40839, 31.98486], [-97.40838, 31.98639], [-97.40925, 31.98639], [-97.40929, 31.9841], [-97.40841, 31.9841], [-97.40841, 31.98334], [-97.40665, 31.98334]], [[-97.40847, 31.98258], [-97.40934, 31.98258], [-97.40934, 31.98334], [-97.41022, 31.98334], [-97.4102, 31.98487], [-97.41107, 31.98487], [-97.41107, 31.9841], [-97.41198, 31.9841], [-97.41198, 31.98334], [-97.41111, 31.98334], [-97.41111, 31.98258], [-97.40936, 31.98182], [-97.40936, 31.98106], [-97.41116, 31.98106], [-97.41116, 31.98182], [-97.41291, 31.98258], [-97.41291, 31.98334], [-97.41378, 31.98334], [-97.41377, 31.98487], [-97.41553, 31.98487], [-97.41553, 31.98563], [-97.41373, 31.98563], [-97.41369, 31.98792], [-97.41546, 31.98792], [-97.41546, 31.98868], [-97.41721, 31.98944], [-97.41721, 31.9902], [-97.41808, 31.9902], [-97.41808, 31.99097], [-97.41895, 31.99097], [-97.41895, 31.9902], [-97.41986, 31.9902], [-97.41986, 31.98944], [-97.4181, 31.98944], [-97.4181, 31.98868], [-97.41722, 31.98868], [-97.41722, 31.98792], [-97.41635, 31.98792], [-97.41637, 31.98639], [-97.41728, 31.98639], [-97.4173, 31.98563], [-97.4173, 31.98487], [-97.41642, 31.98487], [-97.41644, 31.98334], [-97.41557, 31.98334], [-97.41557, 31.98258], [-97.4138, 31.98258], [-97.4138, 31.98182], [-97.41293, 31.98182], [-97.41295, 31.9803], [-97.41475, 31.9803], [-97.41482, 31.97649], [-97.41395, 31.97649], [-97.41399, 31.9742], [-97.41133, 31.9742], [-97.41133, 31.97344], [-97.41046, 31.97344], [-97.41047, 31.97191], [-97.41139, 31.97191], [-97.41139, 31.97267], [-97.41313, 31.97344], [-97.41317, 31.97115], [-97.4123, 31.97115], [-97.4123, 31.97039], [-97.41053, 31.97039], [-97.41055, 31.96886], [-97.40967, 31.96886], [-97.40967, 31.9681], [-97.40791, 31.9681], [-97.40789, 31.96962], [-97.4052, 31.96962], [-97.4052, 31.97039], [-97.40694, 31.97115], [-97.40694, 31.97191], [-97.40782, 31.97191], [-97.40782, 31.97267], [-97.40869, 31.97267], [-97.40869, 31.97344], [-97.40956, 31.97344], [-97.40956, 31.9742], [-97.41044, 31.9742], [-97.41044, 31.97496], [-97.40863, 31.97496], [-97.40863, 31.9742], [-97.40776, 31.9742], [-97.40776, 31.97343], [-97.40601, 31.97267], [-97.40601, 31.97191], [-97.40514, 31.97191], [-97.40514, 31.97115], [-97.40427, 31.97115], [-97.40425, 31.97267], [-97.40512, 31.97267], [-97.40512, 31.97343], [-97.40599, 31.97343], [-97.40599, 31.9742], [-97.40687, 31.9742], [-97.40687, 31.97496], [-97.40507, 31.97496], [-97.40507, 31.9742], [-97.40332, 31.97343], [-97.4033, 31.97496], [-97.40505, 31.97572], [-97.40505, 31.97648], [-97.40592, 31.97648], [-97.40592, 31.97724], [-97.40679, 31.97724], [-97.40679, 31.97801], [-97.40499, 31.97801], [-97.40499, 31.97724], [-97.40324, 31.97648], [-97.40323, 31.978], [-97.4041, 31.978], [-97.40408, 31.97953], [-97.40495, 31.97953], [-97.40495, 31.98029], [-97.4085, 31.98029], [-97.4085, 31.98106], [-97.40759, 31.98106], [-97.40759, 31.98182], [-97.40847, 31.98182], [-97.40847, 31.98258]], [[-97.41905, 31.98716], [-97.41905, 31.98639], [-97.41817, 31.98639], [-97.41815, 31.98792], [-97.41903, 31.98792], [-97.41903, 31.98868], [-97.42077, 31.98944], [-97.42077, 31.98868], [-97.42169, 31.98868], [-97.42169, 31.98792], [-97.41992, 31.98792], [-97.41992, 31.98716], [-97.41905, 31.98716]], [[-97.42172, 31.98716], [-97.42174, 31.98563], [-97.42087, 31.98563], [-97.42085, 31.98716], [-97.42172, 31.98716]], [[-97.41059, 31.96886], [-97.41235, 31.96886], [-97.41235, 31.9681], [-97.41059, 31.9681], [-97.41059, 31.96886]], [[-97.39869, 31.98029], [-97.39869, 31.98105], [-97.40046, 31.98105], [-97.40047, 31.97953], [-97.3996, 31.97953], [-97.3996, 31.97876], [-97.39783, 31.97876], [-97.39782, 31.98029], [-97.39869, 31.98029]], [[-97.39785, 31.97724], [-97.39611, 31.97648], [-97.39607, 31.97876], [-97.39783, 31.97876], [-97.39785, 31.97724]]], [[[-97.49534, 32.00548], [-97.4953, 32.00777], [-97.49171, 32.00776], [-97.49171, 32.007], [-97.49262, 32.007], [-97.4927, 32.00319], [-97.48112, 32.00319], [-97.48112, 32.00395], [-97.4802, 32.00395], [-97.4802, 32.00319], [-97.47755, 32.00319], [-97.47755, 32.00395], [-97.47664, 32.00395], [-97.47574, 32.00395], [-97.47574, 32.00318], [-97.47041, 32.00318], [-97.47041, 32.00394], [-97.46593, 32.00394], [-97.46593, 32.00318], [-97.46327, 32.00318], [-97.46327, 32.00242], [-97.46061, 32.00242], [-97.45972, 32.00242], [-97.45972, 32.00318], [-97.45702, 32.00318], [-97.45702, 32.00241], [-97.45615, 32.00241], [-97.45617, 32.00089], [-97.45262, 32.00089], [-97.45269, 31.99708], [-97.45003, 31.99708], [-97.45003, 31.99784], [-97.44734, 31.99784], [-97.44734, 31.9986], [-97.44643, 31.9986], [-97.44643, 31.99936], [-97.44463, 31.99936], [-97.44464, 31.99784], [-97.44377, 31.99784], [-97.44379, 31.99631], [-97.44291, 31.99631], [-97.44291, 31.99555], [-97.44383, 31.99555], [-97.44383, 31.99479], [-97.44563, 31.99479], [-97.44563, 31.99403], [-97.44654, 31.99403], [-97.44654, 31.99326], [-97.44745, 31.99326], [-97.44752, 31.98946], [-97.44933, 31.98946], [-97.44933, 31.99022], [-97.45109, 31.99022], [-97.45199, 31.99022], [-97.45199, 31.98946], [-97.45468, 31.98946], [-97.45466, 31.99098], [-97.45554, 31.99098], [-97.45552, 31.99251], [-97.46174, 31.99251], [-97.46174, 31.99175], [-97.46355, 31.99175], [-97.46355, 31.99099], [-97.46535, 31.99099], [-97.46535, 31.99175], [-97.46622, 31.99175], [-97.46622, 31.99251], [-97.46619, 31.99404], [-97.46528, 31.99404], [-97.46528, 31.9948], [-97.46615, 31.9948], [-97.46613, 31.99632], [-97.46701, 31.99632], [-97.46701, 31.99708], [-97.46788, 31.99708], [-97.46788, 31.99785], [-97.46965, 31.99785], [-97.46965, 31.99709], [-97.47056, 31.99709], [-97.47056, 31.99632], [-97.47147, 31.99632], [-97.47147, 31.99709], [-97.47234, 31.99709], [-97.4723, 31.99937], [-97.47407, 31.99937], [-97.47407, 32.00014], [-97.47762, 32.00014], [-97.47762, 32.0009], [-97.48028, 32.0009], [-97.48028, 32.00014], [-97.48119, 32.00014], [-97.48121, 31.99862], [-97.48212, 31.99862], [-97.48208, 32.0009], [-97.48385, 32.0009], [-97.48385, 32.00166], [-97.49275, 32.00167], [-97.49275, 32.00243], [-97.49363, 32.00243], [-97.49357, 32.00548], [-97.49534, 32.00548]], [[-97.44927, 31.99174], [-97.44923, 31.99403], [-97.45011, 31.99403], [-97.45011, 31.99479], [-97.45187, 31.99479], [-97.45187, 31.99555], [-97.45364, 31.99555], [-97.45364, 31.99632], [-97.45451, 31.99632], [-97.45448, 31.9986], [-97.45714, 31.9986], [-97.45714, 31.99784], [-97.46072, 31.99784], [-97.46072, 31.99708], [-97.46163, 31.99708], [-97.46171, 31.99327], [-97.45459, 31.99327], [-97.45459, 31.99251], [-97.45371, 31.99251], [-97.45373, 31.99098], [-97.45197, 31.99098], [-97.45197, 31.99174], [-97.44927, 31.99174]]], [[[-97.50779, 32.00701], [-97.50779, 32.00777], [-97.50688, 32.00777], [-97.50688, 32.00853], [-97.50508, 32.00853], [-97.50508, 32.00777], [-97.50331, 32.00777], [-97.50242, 32.00777], [-97.50242, 32.00853], [-97.49526, 32.00853], [-97.49526, 32.00777], [-97.4953, 32.00777], [-97.49796, 32.00777], [-97.49798, 32.00624], [-97.49978, 32.00624], [-97.49978, 32.00548], [-97.49891, 32.00548], [-97.49891, 32.00472], [-97.49803, 32.00472], [-97.49803, 32.00548], [-97.49623, 32.00548], [-97.49623, 32.00472], [-97.49714, 32.00472], [-97.49714, 32.00396], [-97.50787, 32.00396], [-97.50787, 32.00472], [-97.50874, 32.00472], [-97.50872, 32.00625], [-97.50959, 32.00625], [-97.50959, 32.00701], [-97.50779, 32.00701]], [[-97.50424, 32.00625], [-97.50424, 32.00548], [-97.50247, 32.00548], [-97.50247, 32.00624], [-97.50424, 32.00625]], [[-97.50692, 32.00625], [-97.50694, 32.00472], [-97.50517, 32.00472], [-97.50515, 32.00625], [-97.50692, 32.00625]]], [[[-97.52023, 32.04588], [-97.52023, 32.04664], [-97.52289, 32.04664], [-97.52289, 32.0474], [-97.5193, 32.0474], [-97.5193, 32.04664], [-97.51843, 32.04664], [-97.51843, 32.04588], [-97.51755, 32.04588], [-97.51755, 32.04511], [-97.51579, 32.04511], [-97.51579, 32.04435], [-97.51135, 32.04435], [-97.51135, 32.04359], [-97.51047, 32.04359], [-97.51047, 32.04283], [-97.50781, 32.04282], [-97.50781, 32.04359], [-97.5069, 32.04359], [-97.5069, 32.04435], [-97.50599, 32.04435], [-97.50599, 32.04511], [-97.50508, 32.04511], [-97.50508, 32.04587], [-97.50328, 32.04587], [-97.50324, 32.04816], [-97.50411, 32.04816], [-97.50411, 32.04892], [-97.50499, 32.04892], [-97.50499, 32.04968], [-97.50675, 32.04968], [-97.50672, 32.05197], [-97.51205, 32.05197], [-97.51205, 32.05273], [-97.51739, 32.05273], [-97.51739, 32.0535], [-97.51915, 32.0535], [-97.51915, 32.05426], [-97.52003, 32.05426], [-97.52001, 32.05578], [-97.52088, 32.05578], [-97.52088, 32.05655], [-97.51997, 32.05655], [-97.51997, 32.05731], [-97.51817, 32.05731], [-97.51817, 32.05807], [-97.51726, 32.05807], [-97.51726, 32.05883], [-97.51635, 32.05883], [-97.51635, 32.05959], [-97.51544, 32.05959], [-97.51546, 32.05807], [-97.5119, 32.05807], [-97.5119, 32.05883], [-97.5101, 32.05883], [-97.51005, 32.06188], [-97.50914, 32.06188], [-97.50914, 32.06264], [-97.50822, 32.06264], [-97.50819, 32.06492], [-97.50728, 32.06492], [-97.50728, 32.06568], [-97.50547, 32.06568], [-97.50547, 32.06645], [-97.50456, 32.06645], [-97.50456, 32.06721], [-97.50365, 32.06721], [-97.50365, 32.06644], [-97.50278, 32.06644], [-97.50278, 32.06568], [-97.5028, 32.06492], [-97.50371, 32.06492], [-97.50374, 32.06263], [-97.49662, 32.06263], [-97.49666, 32.06035], [-97.49579, 32.06035], [-97.49581, 32.05882], [-97.49315, 32.05882], [-97.4932, 32.05577], [-97.49411, 32.05577], [-97.49415, 32.05349], [-97.49149, 32.05349], [-97.49153, 32.0512], [-97.49066, 32.0512], [-97.49069, 32.04891], [-97.48982, 32.04891], [-97.48986, 32.04663], [-97.48898, 32.04663], [-97.48909, 32.04129], [-97.48822, 32.04129], [-97.48826, 32.03901], [-97.48917, 32.03901], [-97.48919, 32.03748], [-97.4901, 32.03748], [-97.4901, 32.03672], [-97.49101, 32.03672], [-97.49099, 32.03824], [-97.49454, 32.03825], [-97.49454, 32.03901], [-97.49541, 32.03901], [-97.49538, 32.04129], [-97.49447, 32.04129], [-97.49447, 32.04206], [-97.49356, 32.04206], [-97.49352, 32.04434], [-97.49439, 32.04434], [-97.49426, 32.05044], [-97.49514, 32.05044], [-97.49508, 32.05349], [-97.49685, 32.05349], [-97.49685, 32.05273], [-97.49776, 32.05273], [-97.49783, 32.04892], [-97.49874, 32.04892], [-97.49882, 32.04511], [-97.49794, 32.04511], [-97.49798, 32.04282], [-97.49889, 32.04282], [-97.49891, 32.0413], [-97.49982, 32.0413], [-97.49984, 32.03977], [-97.50075, 32.03977], [-97.50075, 32.03901], [-97.50166, 32.03901], [-97.5017, 32.03673], [-97.50082, 32.03673], [-97.50082, 32.03596], [-97.49908, 32.0352], [-97.49909, 32.03368], [-97.49822, 32.03368], [-97.49824, 32.03215], [-97.49737, 32.03215], [-97.49738, 32.03063], [-97.49651, 32.03063], [-97.49651, 32.02986], [-97.49564, 32.02986], [-97.49564, 32.0291], [-97.49476, 32.0291], [-97.49476, 32.02834], [-97.49302, 32.02758], [-97.49305, 32.02529], [-97.4913, 32.02453], [-97.49132, 32.023], [-97.49313, 32.023], [-97.49313, 32.02224], [-97.49582, 32.02224], [-97.49582, 32.02301], [-97.4967, 32.02301], [-97.49668, 32.02453], [-97.49842, 32.02529], [-97.49841, 32.02682], [-97.50285, 32.02682], [-97.50279, 32.02987], [-97.50188, 32.02987], [-97.50183, 32.03215], [-97.50183, 32.03292], [-97.5027, 32.03292], [-97.50264, 32.03596], [-97.50887, 32.03597], [-97.50887, 32.0352], [-97.50978, 32.0352], [-97.50976, 32.03673], [-97.51064, 32.03673], [-97.51064, 32.03749], [-97.5133, 32.03749], [-97.5133, 32.03825], [-97.51595, 32.03826], [-97.51595, 32.03902], [-97.51504, 32.03902], [-97.51501, 32.0413], [-97.51767, 32.0413], [-97.51763, 32.04359], [-97.51938, 32.04435], [-97.51936, 32.04588], [-97.52023, 32.04588]], [[-97.49982, 32.04206], [-97.50069, 32.04206], [-97.50069, 32.04282], [-97.50157, 32.04282], [-97.50157, 32.04358], [-97.50333, 32.04358], [-97.50333, 32.04282], [-97.50246, 32.04282], [-97.50246, 32.04206], [-97.50159, 32.04206], [-97.50159, 32.0413], [-97.49982, 32.0413], [-97.49982, 32.04206]], [[-97.50824, 32.06187], [-97.50826, 32.06035], [-97.50739, 32.06035], [-97.50739, 32.05959], [-97.50919, 32.05959], [-97.50921, 32.05807], [-97.51101, 32.05807], [-97.51103, 32.05654], [-97.51283, 32.05654], [-97.51285, 32.05502], [-97.51376, 32.05502], [-97.51376, 32.05426], [-97.51467, 32.05426], [-97.51467, 32.0535], [-97.51202, 32.05349], [-97.51202, 32.05273], [-97.50936, 32.05273], [-97.50932, 32.05502], [-97.50841, 32.05502], [-97.50843, 32.05349], [-97.50666, 32.05349], [-97.50666, 32.05425], [-97.50575, 32.05425], [-97.50307, 32.05425], [-97.50307, 32.05349], [-97.5022, 32.05349], [-97.50218, 32.05501], [-97.50127, 32.05501], [-97.50125, 32.05578], [-97.50125, 32.05654], [-97.50213, 32.05654], [-97.50211, 32.05806], [-97.50031, 32.05806], [-97.50029, 32.05958], [-97.49759, 32.05958], [-97.49755, 32.06187], [-97.50021, 32.06187], [-97.50021, 32.06111], [-97.5038, 32.06111], [-97.5038, 32.06035], [-97.50471, 32.06035], [-97.50471, 32.06111], [-97.50737, 32.06111], [-97.50737, 32.06187], [-97.50824, 32.06187]], [[-97.51466, 32.05578], [-97.51642, 32.05578], [-97.51642, 32.05654], [-97.51819, 32.05654], [-97.51821, 32.05502], [-97.51644, 32.05502], [-97.51644, 32.05426], [-97.51467, 32.05426], [-97.51466, 32.05578]], [[-97.50138, 32.05044], [-97.50138, 32.04968], [-97.50229, 32.04968], [-97.50231, 32.04816], [-97.50144, 32.04816], [-97.50144, 32.04892], [-97.50053, 32.04892], [-97.50051, 32.05044], [-97.50138, 32.05044]], [[-97.50092, 32.03291], [-97.50095, 32.03063], [-97.49919, 32.03063], [-97.49919, 32.03139], [-97.50006, 32.03139], [-97.50004, 32.03291], [-97.50092, 32.03291]], [[-97.50512, 32.04282], [-97.50424, 32.04282], [-97.50424, 32.04358], [-97.50512, 32.04358], [-97.50512, 32.04282]], [[-97.50341, 32.03977], [-97.50164, 32.03977], [-97.50164, 32.04054], [-97.50252, 32.04054], [-97.50252, 32.0413], [-97.50339, 32.0413], [-97.50339, 32.04206], [-97.50516, 32.04206], [-97.50516, 32.0413], [-97.50428, 32.0413], [-97.50428, 32.04054], [-97.50341, 32.04054], [-97.50341, 32.03977]], [[-97.50516, 32.04282], [-97.50603, 32.04282], [-97.50603, 32.04206], [-97.50516, 32.04206], [-97.50516, 32.04282]], [[-97.50553, 32.0634], [-97.50553, 32.06416], [-97.5064, 32.06416], [-97.50642, 32.06264], [-97.50555, 32.06264], [-97.50555, 32.06187], [-97.50467, 32.06187], [-97.50466, 32.0634], [-97.50553, 32.0634]], [[-97.50062, 32.04511], [-97.50064, 32.04358], [-97.49976, 32.04358], [-97.49975, 32.04511], [-97.50062, 32.04511]], [[-97.49252, 32.04815], [-97.49252, 32.04739], [-97.49164, 32.04739], [-97.49162, 32.04891], [-97.49339, 32.04891], [-97.49339, 32.04815], [-97.49252, 32.04815]], [[-97.49092, 32.04129], [-97.49179, 32.04129], [-97.49179, 32.04205], [-97.49266, 32.04205], [-97.49268, 32.04053], [-97.49181, 32.04053], [-97.49181, 32.03977], [-97.49006, 32.03901], [-97.49004, 32.04053], [-97.49092, 32.04053], [-97.49092, 32.04129]], [[-97.48997, 32.04282], [-97.48997, 32.04358], [-97.49173, 32.04358], [-97.49173, 32.04282], [-97.48997, 32.04282]], [[-97.49569, 32.02758], [-97.49569, 32.02682], [-97.49482, 32.02682], [-97.49482, 32.02758], [-97.49569, 32.02758]], [[-97.49573, 32.02682], [-97.4966, 32.02682], [-97.4966, 32.02605], [-97.49573, 32.02605], [-97.49573, 32.02682]]], [[[-97.47025, 32.08396], [-97.46934, 32.08396], [-97.46932, 32.08548], [-97.46841, 32.08548], [-97.46841, 32.08624], [-97.4675, 32.08624], [-97.4675, 32.08548], [-97.46662, 32.08548], [-97.46662, 32.08472], [-97.46486, 32.08472], [-97.46486, 32.08395], [-97.4622, 32.08395], [-97.4622, 32.08319], [-97.46043, 32.08319], [-97.46043, 32.08243], [-97.46313, 32.08243], [-97.46313, 32.08167], [-97.46226, 32.08167], [-97.46226, 32.0809], [-97.46138, 32.0809], [-97.46142, 32.07862], [-97.46055, 32.07862], [-97.46055, 32.07785], [-97.46146, 32.07785], [-97.46146, 32.07709], [-97.46326, 32.07709], [-97.46326, 32.07786], [-97.46501, 32.07862], [-97.46499, 32.08014], [-97.46586, 32.08014], [-97.46584, 32.08167], [-97.46672, 32.08167], [-97.46672, 32.08243], [-97.46848, 32.08243], [-97.46848, 32.08319], [-97.47025, 32.08319], [-97.47025, 32.08396]]], [[[-97.51152, 32.07483], [-97.51239, 32.07483], [-97.51239, 32.07559], [-97.51148, 32.07559], [-97.51148, 32.07635], [-97.50878, 32.07635], [-97.50878, 32.07559], [-97.50791, 32.07559], [-97.50791, 32.07483], [-97.50525, 32.07483], [-97.50521, 32.07711], [-97.5043, 32.07711], [-97.5043, 32.07788], [-97.5025, 32.07787], [-97.5025, 32.07864], [-97.50159, 32.07864], [-97.50159, 32.0794], [-97.50068, 32.0794], [-97.50068, 32.08016], [-97.49977, 32.08016], [-97.49977, 32.08092], [-97.49886, 32.08092], [-97.49886, 32.08168], [-97.49795, 32.08168], [-97.49795, 32.08244], [-97.49704, 32.08244], [-97.49702, 32.08397], [-97.49611, 32.08397], [-97.49611, 32.08473], [-97.4952, 32.08473], [-97.4952, 32.08549], [-97.4925, 32.08549], [-97.49244, 32.08854], [-97.49153, 32.08854], [-97.49153, 32.0893], [-97.49062, 32.0893], [-97.49062, 32.08854], [-97.48975, 32.08854], [-97.48977, 32.08701], [-97.488, 32.08701], [-97.48802, 32.08549], [-97.48893, 32.08549], [-97.48982, 32.08549], [-97.48982, 32.08625], [-97.49157, 32.08701], [-97.49159, 32.08549], [-97.49072, 32.08549], [-97.49072, 32.08473], [-97.48984, 32.08473], [-97.48984, 32.08396], [-97.48897, 32.08396], [-97.48897, 32.0832], [-97.48809, 32.0832], [-97.48809, 32.08396], [-97.48718, 32.08396], [-97.48451, 32.08396], [-97.48451, 32.0832], [-97.48363, 32.0832], [-97.48361, 32.08472], [-97.48449, 32.08472], [-97.48449, 32.08549], [-97.48269, 32.08549], [-97.48269, 32.08625], [-97.4791, 32.08625], [-97.47908, 32.08777], [-97.47817, 32.08777], [-97.47817, 32.08701], [-97.47729, 32.08701], [-97.47726, 32.08929], [-97.47545, 32.08929], [-97.47545, 32.09005], [-97.47633, 32.09005], [-97.47629, 32.09234], [-97.47538, 32.09234], [-97.47538, 32.09158], [-97.47451, 32.09158], [-97.47447, 32.09386], [-97.47534, 32.09386], [-97.47534, 32.09463], [-97.47711, 32.09463], [-97.478, 32.09463], [-97.47804, 32.09234], [-97.47895, 32.09234], [-97.47895, 32.09158], [-97.48165, 32.09158], [-97.48165, 32.09234], [-97.48252, 32.09234], [-97.48252, 32.09311], [-97.48339, 32.09311], [-97.48341, 32.09158], [-97.48521, 32.09158], [-97.48521, 32.09234], [-97.48609, 32.09234], [-97.48609, 32.09311], [-97.48696, 32.09311], [-97.48698, 32.09235], [-97.48698, 32.09158], [-97.48611, 32.09158], [-97.48612, 32.09006], [-97.48704, 32.09006], [-97.48704, 32.09082], [-97.48791, 32.09082], [-97.48791, 32.09158], [-97.48878, 32.09158], [-97.48876, 32.09311], [-97.48785, 32.09311], [-97.48774, 32.09844], [-97.48683, 32.09844], [-97.48685, 32.09692], [-97.48508, 32.09692], [-97.48508, 32.09615], [-97.48421, 32.09615], [-97.48332, 32.09615], [-97.48332, 32.09692], [-97.48419, 32.09692], [-97.48419, 32.09768], [-97.48328, 32.09768], [-97.48328, 32.09844], [-97.48237, 32.09844], [-97.48237, 32.0992], [-97.48324, 32.0992], [-97.48323, 32.10073], [-97.48499, 32.10073], [-97.48501, 32.0992], [-97.48681, 32.0992], [-97.48681, 32.09997], [-97.4859, 32.09997], [-97.48588, 32.10149], [-97.48497, 32.10149], [-97.48497, 32.10225], [-97.48406, 32.10225], [-97.48406, 32.10301], [-97.48315, 32.10301], [-97.48315, 32.10377], [-97.47956, 32.10377], [-97.47953, 32.10606], [-97.4804, 32.10606], [-97.4804, 32.10682], [-97.48127, 32.10682], [-97.48127, 32.10758], [-97.48302, 32.10835], [-97.48302, 32.10911], [-97.4839, 32.10911], [-97.48388, 32.11063], [-97.48475, 32.11063], [-97.48475, 32.11139], [-97.48652, 32.1114], [-97.48652, 32.11063], [-97.48743, 32.11063], [-97.48743, 32.10987], [-97.48834, 32.10987], [-97.48834, 32.10911], [-97.49014, 32.10911], [-97.49014, 32.10987], [-97.49369, 32.10987], [-97.49369, 32.11064], [-97.49457, 32.11064], [-97.49457, 32.1114], [-97.49544, 32.1114], [-97.49544, 32.11216], [-97.49721, 32.11216], [-97.49721, 32.11292], [-97.49808, 32.11292], [-97.49808, 32.11369], [-97.50252, 32.11369], [-97.50252, 32.11445], [-97.50429, 32.11445], [-97.50429, 32.11521], [-97.50338, 32.11521], [-97.50338, 32.11598], [-97.50247, 32.11598], [-97.50247, 32.11674], [-97.50156, 32.11674], [-97.50156, 32.1175], [-97.49975, 32.1175], [-97.49975, 32.11826], [-97.49884, 32.11826], [-97.49884, 32.11902], [-97.49704, 32.11902], [-97.49704, 32.11978], [-97.49434, 32.11978], [-97.49434, 32.11902], [-97.4899, 32.11902], [-97.48985, 32.12207], [-97.49072, 32.12207], [-97.4907, 32.12359], [-97.49157, 32.12359], [-97.49156, 32.12511], [-97.49243, 32.12511], [-97.49241, 32.12664], [-97.49329, 32.12664], [-97.49329, 32.1274], [-97.49327, 32.12816], [-97.49414, 32.12816], [-97.4941, 32.13045], [-97.49498, 32.13045], [-97.49488, 32.13502], [-97.49397, 32.13502], [-97.49396, 32.13655], [-97.49304, 32.13655], [-97.49304, 32.13731], [-97.49124, 32.13731], [-97.49124, 32.13807], [-97.49033, 32.13807], [-97.49033, 32.13883], [-97.48853, 32.13883], [-97.48853, 32.13959], [-97.48672, 32.13959], [-97.48672, 32.14035], [-97.48403, 32.14035], [-97.48403, 32.14111], [-97.48133, 32.14111], [-97.48133, 32.14035], [-97.48046, 32.14035], [-97.4805, 32.13806], [-97.47962, 32.13806], [-97.47964, 32.13654], [-97.48055, 32.13654], [-97.48055, 32.1373], [-97.48143, 32.1373], [-97.48143, 32.13806], [-97.4823, 32.13806], [-97.4823, 32.13883], [-97.48139, 32.13883], [-97.48139, 32.13959], [-97.48316, 32.13959], [-97.48316, 32.13883], [-97.48496, 32.13883], [-97.48498, 32.1373], [-97.48678, 32.1373], [-97.4868, 32.13578], [-97.48771, 32.13578], [-97.48771, 32.13654], [-97.48948, 32.13654], [-97.48948, 32.13578], [-97.4886, 32.13578], [-97.4886, 32.13502], [-97.4913, 32.13502], [-97.49132, 32.1335], [-97.49044, 32.1335], [-97.49044, 32.13273], [-97.49224, 32.13273], [-97.49228, 32.13045], [-97.49319, 32.13045], [-97.49323, 32.12816], [-97.49236, 32.12816], [-97.49236, 32.1274], [-97.49059, 32.1274], [-97.49059, 32.12664], [-97.48882, 32.12664], [-97.48882, 32.1274], [-97.4897, 32.1274], [-97.48968, 32.12892], [-97.48788, 32.12892], [-97.48788, 32.12968], [-97.49053, 32.12969], [-97.49053, 32.13045], [-97.48962, 32.13045], [-97.48962, 32.13121], [-97.48871, 32.13121], [-97.48871, 32.13045], [-97.48605, 32.13045], [-97.48604, 32.13197], [-97.48423, 32.13197], [-97.48421, 32.13349], [-97.4833, 32.13349], [-97.4833, 32.13273], [-97.48065, 32.13273], [-97.48065, 32.13197], [-97.48156, 32.13197], [-97.48156, 32.13121], [-97.48247, 32.13121], [-97.48247, 32.13044], [-97.48427, 32.13044], [-97.48427, 32.12968], [-97.4834, 32.12968], [-97.48347, 32.12587], [-97.48172, 32.12511], [-97.4818, 32.1213], [-97.48092, 32.1213], [-97.48094, 32.11978], [-97.48007, 32.11978], [-97.48007, 32.11901], [-97.47384, 32.11901], [-97.47384, 32.11825], [-97.47297, 32.11825], [-97.47297, 32.11749], [-97.4712, 32.11749], [-97.4712, 32.11672], [-97.47033, 32.11672], [-97.47033, 32.11596], [-97.46945, 32.11596], [-97.46945, 32.1152], [-97.46771, 32.11444], [-97.46771, 32.11367], [-97.46505, 32.11367], [-97.46505, 32.11443], [-97.46324, 32.11443], [-97.46324, 32.11519], [-97.46144, 32.11519], [-97.46144, 32.11596], [-97.46053, 32.11596], [-97.46062, 32.11138], [-97.45975, 32.11138], [-97.45977, 32.10986], [-97.46068, 32.10986], [-97.46068, 32.1091], [-97.46248, 32.1091], [-97.46252, 32.10681], [-97.46164, 32.10681], [-97.46168, 32.10453], [-97.46348, 32.10453], [-97.46348, 32.10376], [-97.4644, 32.10376], [-97.46443, 32.10148], [-97.46356, 32.10148], [-97.46358, 32.09995], [-97.46183, 32.09919], [-97.46187, 32.09691], [-97.45832, 32.0969], [-97.45832, 32.09767], [-97.45741, 32.09767], [-97.45741, 32.09843], [-97.45649, 32.09843], [-97.45649, 32.09919], [-97.45558, 32.09919], [-97.45558, 32.09995], [-97.45467, 32.09995], [-97.45467, 32.10071], [-97.45376, 32.10071], [-97.45376, 32.10147], [-97.45285, 32.10147], [-97.45285, 32.10224], [-97.44926, 32.10223], [-97.44926, 32.103], [-97.44657, 32.103], [-97.44653, 32.10528], [-97.44562, 32.10528], [-97.44558, 32.10757], [-97.44467, 32.10757], [-97.44467, 32.10833], [-97.44287, 32.10833], [-97.44287, 32.10909], [-97.44017, 32.10909], [-97.44017, 32.10833], [-97.4393, 32.10833], [-97.4393, 32.10909], [-97.43839, 32.10909], [-97.43835, 32.11137], [-97.43744, 32.11137], [-97.43744, 32.11061], [-97.43389, 32.11061], [-97.43391, 32.10909], [-97.43304, 32.10909], [-97.43304, 32.10832], [-97.42949, 32.10832], [-97.42949, 32.10908], [-97.42858, 32.10908], [-97.42858, 32.10984], [-97.42766, 32.10984], [-97.42765, 32.11137], [-97.42674, 32.11137], [-97.42674, 32.11213], [-97.42582, 32.11213], [-97.42575, 32.11594], [-97.42662, 32.11594], [-97.42661, 32.11746], [-97.42748, 32.11746], [-97.42746, 32.11899], [-97.42833, 32.11899], [-97.42833, 32.11975], [-97.42653, 32.11975], [-97.42653, 32.12051], [-97.42562, 32.12051], [-97.42562, 32.11975], [-97.42385, 32.11975], [-97.42385, 32.11899], [-97.42298, 32.11899], [-97.42298, 32.11822], [-97.42121, 32.11822], [-97.42121, 32.11746], [-97.41766, 32.11746], [-97.41766, 32.11822], [-97.41675, 32.11822], [-97.41675, 32.11898], [-97.41584, 32.11898], [-97.41582, 32.12051], [-97.41491, 32.12051], [-97.41491, 32.12127], [-97.414, 32.12127], [-97.41395, 32.12432], [-97.41482, 32.12432], [-97.41482, 32.12508], [-97.41659, 32.12508], [-97.41659, 32.12584], [-97.41833, 32.1266], [-97.4183, 32.12889], [-97.41917, 32.12889], [-97.41915, 32.13041], [-97.42003, 32.13041], [-97.41999, 32.1327], [-97.41819, 32.1327], [-97.41819, 32.13346], [-97.41728, 32.13346], [-97.41728, 32.13422], [-97.41547, 32.13422], [-97.41545, 32.13575], [-97.41454, 32.13575], [-97.41451, 32.13803], [-97.4136, 32.13803], [-97.41358, 32.13956], [-97.41177, 32.13956], [-97.41177, 32.13879], [-97.40822, 32.13879], [-97.40817, 32.14184], [-97.40726, 32.14184], [-97.40718, 32.14565], [-97.40627, 32.14565], [-97.4062, 32.14946], [-97.4044, 32.14946], [-97.4044, 32.1487], [-97.40263, 32.1487], [-97.40265, 32.14717], [-97.40356, 32.14717], [-97.40365, 32.1426], [-97.4019, 32.14184], [-97.40192, 32.14031], [-97.40372, 32.14031], [-97.40372, 32.13955], [-97.40553, 32.13955], [-97.40556, 32.13727], [-97.4038, 32.13727], [-97.40382, 32.13574], [-97.40473, 32.13574], [-97.40473, 32.13498], [-97.40564, 32.13498], [-97.40564, 32.13422], [-97.40655, 32.13422], [-97.40655, 32.13346], [-97.40746, 32.13346], [-97.4075, 32.13117], [-97.40662, 32.13117], [-97.4067, 32.12736], [-97.40493, 32.12736], [-97.40493, 32.1266], [-97.40406, 32.1266], [-97.40406, 32.12584], [-97.40318, 32.12584], [-97.40318, 32.12507], [-97.40231, 32.12507], [-97.40233, 32.12355], [-97.40146, 32.12355], [-97.40153, 32.11974], [-97.40066, 32.11974], [-97.40071, 32.11669], [-97.39896, 32.11593], [-97.39898, 32.1144], [-97.39989, 32.1144], [-97.39989, 32.11364], [-97.4008, 32.11364], [-97.4008, 32.11288], [-97.40261, 32.11288], [-97.40268, 32.10907], [-97.40448, 32.10907], [-97.40448, 32.10983], [-97.40357, 32.10983], [-97.40357, 32.1106], [-97.40445, 32.1106], [-97.40443, 32.11212], [-97.4053, 32.11212], [-97.4053, 32.11136], [-97.40621, 32.11136], [-97.40621, 32.1106], [-97.40534, 32.1106], [-97.40534, 32.10983], [-97.40714, 32.10983], [-97.40714, 32.1106], [-97.40802, 32.1106], [-97.40802, 32.11136], [-97.41335, 32.11136], [-97.41335, 32.11212], [-97.41422, 32.11212], [-97.41422, 32.11289], [-97.41688, 32.11289], [-97.41688, 32.11213], [-97.41779, 32.11213], [-97.41781, 32.1106], [-97.42051, 32.1106], [-97.42053, 32.10908], [-97.42501, 32.10908], [-97.42504, 32.1068], [-97.42595, 32.1068], [-97.42595, 32.10756], [-97.42683, 32.10756], [-97.42685, 32.10603], [-97.42597, 32.10603], [-97.42599, 32.10451], [-97.4269, 32.10451], [-97.4269, 32.10527], [-97.42865, 32.10603], [-97.42867, 32.10451], [-97.42779, 32.10451], [-97.42781, 32.10299], [-97.42605, 32.10299], [-97.42605, 32.10222], [-97.42517, 32.10222], [-97.42519, 32.1007], [-97.4261, 32.1007], [-97.4261, 32.09994], [-97.43058, 32.09994], [-97.43058, 32.1007], [-97.43324, 32.1007], [-97.43328, 32.09842], [-97.43419, 32.09842], [-97.43419, 32.09918], [-97.43595, 32.09918], [-97.43595, 32.09994], [-97.43683, 32.09994], [-97.43686, 32.09766], [-97.43778, 32.09766], [-97.43778, 32.09842], [-97.43954, 32.09842], [-97.43956, 32.0969], [-97.44047, 32.0969], [-97.44045, 32.09842], [-97.44311, 32.09842], [-97.44315, 32.09614], [-97.44406, 32.09614], [-97.44406, 32.09537], [-97.44497, 32.09537], [-97.44497, 32.09461], [-97.44588, 32.09461], [-97.44588, 32.09385], [-97.44679, 32.09385], [-97.44679, 32.09309], [-97.44592, 32.09309], [-97.44592, 32.09233], [-97.44415, 32.09233], [-97.44415, 32.09156], [-97.4424, 32.0908], [-97.4424, 32.09004], [-97.44064, 32.09004], [-97.44064, 32.0908], [-97.44151, 32.0908], [-97.44151, 32.09156], [-97.44239, 32.09156], [-97.44237, 32.09309], [-97.44146, 32.09309], [-97.44146, 32.09232], [-97.44058, 32.09232], [-97.44058, 32.09156], [-97.43971, 32.09156], [-97.43971, 32.0908], [-97.43883, 32.0908], [-97.4388, 32.09309], [-97.43789, 32.09309], [-97.43789, 32.09232], [-97.43701, 32.09232], [-97.43703, 32.0908], [-97.43437, 32.0908], [-97.43437, 32.09156], [-97.43257, 32.09156], [-97.43257, 32.0908], [-97.43348, 32.0908], [-97.43348, 32.09003], [-97.43528, 32.09004], [-97.43528, 32.08927], [-97.43619, 32.08927], [-97.43619, 32.08851], [-97.43711, 32.08851], [-97.43711, 32.08775], [-97.43891, 32.08775], [-97.43891, 32.08699], [-97.43982, 32.08699], [-97.43982, 32.08775], [-97.44069, 32.08775], [-97.44067, 32.08928], [-97.44512, 32.08928], [-97.44515, 32.08699], [-97.44428, 32.08699], [-97.4443, 32.08547], [-97.44255, 32.08471], [-97.44257, 32.08318], [-97.4417, 32.08318], [-97.44171, 32.08166], [-97.43997, 32.08089], [-97.44, 32.07861], [-97.44359, 32.07861], [-97.44359, 32.07785], [-97.4454, 32.07785], [-97.44538, 32.07937], [-97.44625, 32.07937], [-97.44625, 32.08013], [-97.44534, 32.08013], [-97.4453, 32.08242], [-97.44705, 32.08318], [-97.44705, 32.08394], [-97.44525, 32.08394], [-97.44521, 32.08623], [-97.44787, 32.08623], [-97.44789, 32.08471], [-97.4488, 32.08471], [-97.44878, 32.08623], [-97.45053, 32.08699], [-97.45053, 32.08776], [-97.45229, 32.08776], [-97.45227, 32.08928], [-97.45047, 32.08928], [-97.45038, 32.09385], [-97.44947, 32.09385], [-97.44945, 32.09538], [-97.44854, 32.09538], [-97.4485, 32.09766], [-97.44759, 32.09766], [-97.44757, 32.09919], [-97.44488, 32.09918], [-97.44484, 32.10147], [-97.4475, 32.10147], [-97.44752, 32.09995], [-97.45021, 32.09995], [-97.45021, 32.09919], [-97.45112, 32.09919], [-97.45112, 32.09843], [-97.45203, 32.09843], [-97.45211, 32.09462], [-97.4557, 32.09462], [-97.4557, 32.09386], [-97.45661, 32.09386], [-97.46107, 32.09386], [-97.46107, 32.09462], [-97.46462, 32.09462], [-97.46469, 32.09081], [-97.4656, 32.09081], [-97.46562, 32.08929], [-97.46742, 32.08929], [-97.46742, 32.08853], [-97.46834, 32.08853], [-97.4683, 32.09081], [-97.46917, 32.09081], [-97.46908, 32.09539], [-97.46995, 32.09539], [-97.46993, 32.09691], [-97.47168, 32.09767], [-97.47168, 32.09843], [-97.47256, 32.09843], [-97.47256, 32.0992], [-97.47432, 32.0992], [-97.4743, 32.10072], [-97.47607, 32.10072], [-97.47609, 32.0992], [-97.47521, 32.0992], [-97.47523, 32.09767], [-97.47347, 32.09767], [-97.47352, 32.09463], [-97.47265, 32.09463], [-97.47267, 32.0931], [-97.47179, 32.0931], [-97.47183, 32.09081], [-97.47096, 32.09081], [-97.47101, 32.08777], [-97.47192, 32.08777], [-97.47196, 32.08548], [-97.47287, 32.08548], [-97.47291, 32.08319], [-97.47114, 32.08319], [-97.47122, 32.07938], [-97.47213, 32.07938], [-97.47226, 32.07329], [-97.47138, 32.07329], [-97.47153, 32.06643], [-97.47066, 32.06643], [-97.47067, 32.06491], [-97.47159, 32.06491], [-97.47159, 32.06414], [-97.4725, 32.06414], [-97.4725, 32.06338], [-97.47341, 32.06338], [-97.47341, 32.06262], [-97.47432, 32.06262], [-97.47432, 32.06186], [-97.47523, 32.06186], [-97.47523, 32.0611], [-97.47614, 32.0611], [-97.47621, 32.05729], [-97.47534, 32.05729], [-97.47534, 32.05653], [-97.47625, 32.05653], [-97.47625, 32.05576], [-97.47805, 32.05576], [-97.47805, 32.055], [-97.47896, 32.055], [-97.47896, 32.05424], [-97.48077, 32.05424], [-97.48095, 32.04586], [-97.47829, 32.04586], [-97.47829, 32.0451], [-97.47742, 32.0451], [-97.47744, 32.04357], [-97.47835, 32.04357], [-97.47835, 32.04281], [-97.47926, 32.04281], [-97.47933, 32.039], [-97.47846, 32.039], [-97.47846, 32.03824], [-97.4758, 32.03824], [-97.47588, 32.03443], [-97.47054, 32.03443], [-97.47054, 32.03366], [-97.46521, 32.03366], [-97.46521, 32.03442], [-97.4634, 32.03442], [-97.4634, 32.03518], [-97.4616, 32.03518], [-97.4616, 32.03594], [-97.46069, 32.03594], [-97.46069, 32.03671], [-97.45889, 32.03671], [-97.45889, 32.03747], [-97.45351, 32.03747], [-97.45351, 32.03823], [-97.44993, 32.03823], [-97.44993, 32.03899], [-97.44902, 32.03899], [-97.44902, 32.03822], [-97.43565, 32.03822], [-97.43565, 32.03746], [-97.43388, 32.03746], [-97.43388, 32.03669], [-97.43212, 32.03669], [-97.43212, 32.03593], [-97.43035, 32.03593], [-97.43035, 32.03517], [-97.42948, 32.03517], [-97.42948, 32.03441], [-97.42773, 32.03364], [-97.42775, 32.03212], [-97.4242, 32.03212], [-97.4242, 32.03288], [-97.42329, 32.03288], [-97.42331, 32.03135], [-97.42422, 32.03135], [-97.42424, 32.02983], [-97.42515, 32.02983], [-97.42515, 32.02907], [-97.42695, 32.02907], [-97.42695, 32.02983], [-97.42782, 32.02983], [-97.42781, 32.03136], [-97.42868, 32.03136], [-97.42868, 32.03212], [-97.42955, 32.03212], [-97.42955, 32.03288], [-97.43221, 32.03288], [-97.43221, 32.03365], [-97.43308, 32.03365], [-97.43307, 32.03517], [-97.43572, 32.03517], [-97.43572, 32.03441], [-97.43664, 32.03441], [-97.43664, 32.03365], [-97.44112, 32.03365], [-97.44108, 32.03594], [-97.44463, 32.03594], [-97.44463, 32.03517], [-97.44554, 32.03517], [-97.44554, 32.03441], [-97.44645, 32.03441], [-97.44645, 32.03365], [-97.44736, 32.03365], [-97.44736, 32.03289], [-97.44827, 32.03289], [-97.44827, 32.03213], [-97.45008, 32.03213], [-97.45008, 32.03137], [-97.45277, 32.03137], [-97.45277, 32.03213], [-97.45454, 32.03213], [-97.45452, 32.03366], [-97.45539, 32.03366], [-97.45539, 32.03442], [-97.45805, 32.03442], [-97.45805, 32.03366], [-97.45985, 32.03366], [-97.45985, 32.0329], [-97.46076, 32.0329], [-97.46076, 32.03213], [-97.46167, 32.03213], [-97.46167, 32.03137], [-97.46794, 32.03138], [-97.46794, 32.03061], [-97.46974, 32.03061], [-97.46974, 32.02985], [-97.47155, 32.02985], [-97.47155, 32.02909], [-97.47246, 32.02909], [-97.47246, 32.02833], [-97.4814, 32.02833], [-97.48142, 32.02681], [-97.48411, 32.02681], [-97.4838, 32.04053], [-97.48289, 32.04053], [-97.48283, 32.04281], [-97.48283, 32.04357], [-97.4837, 32.04357], [-97.48352, 32.05196], [-97.48261, 32.05196], [-97.48255, 32.055], [-97.48343, 32.055], [-97.48341, 32.05653], [-97.48607, 32.05653], [-97.48607, 32.05577], [-97.48698, 32.05577], [-97.48698, 32.05653], [-97.49053, 32.05653], [-97.49047, 32.05958], [-97.48956, 32.05958], [-97.48954, 32.0611], [-97.48863, 32.0611], [-97.48861, 32.06263], [-97.4877, 32.06263], [-97.48768, 32.06415], [-97.48677, 32.06415], [-97.48677, 32.06491], [-97.48586, 32.06491], [-97.48584, 32.06644], [-97.48493, 32.06644], [-97.48493, 32.0672], [-97.48402, 32.0672], [-97.48402, 32.06796], [-97.48311, 32.06796], [-97.48311, 32.06872], [-97.4822, 32.06872], [-97.4822, 32.06948], [-97.48129, 32.06948], [-97.48127, 32.07101], [-97.47947, 32.07101], [-97.47943, 32.07329], [-97.47852, 32.07329], [-97.47852, 32.07405], [-97.47761, 32.07405], [-97.47761, 32.07481], [-97.4767, 32.07481], [-97.47666, 32.0771], [-97.47575, 32.0771], [-97.47571, 32.07939], [-97.4748, 32.07939], [-97.4748, 32.08015], [-97.47746, 32.08015], [-97.47746, 32.07939], [-97.47837, 32.07939], [-97.47837, 32.07863], [-97.47928, 32.07863], [-97.47928, 32.07786], [-97.48019, 32.07786], [-97.48021, 32.07634], [-97.48112, 32.07634], [-97.48112, 32.07558], [-97.48203, 32.07558], [-97.48205, 32.07405], [-97.48296, 32.07405], [-97.48296, 32.07329], [-97.48387, 32.07329], [-97.48389, 32.07177], [-97.4848, 32.07177], [-97.48482, 32.07025], [-97.48573, 32.07025], [-97.48573, 32.07101], [-97.48661, 32.07101], [-97.48651, 32.07558], [-97.49006, 32.07558], [-97.49006, 32.07482], [-97.49098, 32.07482], [-97.49098, 32.07406], [-97.49278, 32.07406], [-97.49278, 32.0733], [-97.49369, 32.0733], [-97.49369, 32.07254], [-97.49549, 32.07254], [-97.49549, 32.07177], [-97.49729, 32.07178], [-97.49729, 32.07254], [-97.49995, 32.07254], [-97.50085, 32.07254], [-97.50085, 32.07178], [-97.50265, 32.07178], [-97.50265, 32.07102], [-97.50624, 32.07102], [-97.50624, 32.07178], [-97.50711, 32.07178], [-97.50711, 32.07254], [-97.50888, 32.07254], [-97.50888, 32.07331], [-97.51064, 32.07331], [-97.51064, 32.07407], [-97.51152, 32.07407], [-97.51152, 32.07483]], [[-97.49704, 32.08168], [-97.49616, 32.08168], [-97.49616, 32.08244], [-97.49704, 32.08244], [-97.49704, 32.08168]], [[-97.49616, 32.08092], [-97.49529, 32.08092], [-97.49529, 32.08168], [-97.49616, 32.08168], [-97.49616, 32.08092]], [[-97.49531, 32.0794], [-97.49711, 32.0794], [-97.49711, 32.08016], [-97.49798, 32.08016], [-97.49798, 32.0794], [-97.49979, 32.0794], [-97.49984, 32.07635], [-97.50165, 32.07635], [-97.50165, 32.07559], [-97.50077, 32.07559], [-97.50081, 32.0733], [-97.49815, 32.0733], [-97.49813, 32.07482], [-97.49722, 32.07482], [-97.49722, 32.07406], [-97.49635, 32.07406], [-97.49635, 32.0733], [-97.49547, 32.0733], [-97.49547, 32.07406], [-97.49456, 32.07406], [-97.49456, 32.07482], [-97.49544, 32.07482], [-97.49544, 32.07559], [-97.49363, 32.07558], [-97.49361, 32.07711], [-97.49181, 32.07711], [-97.49181, 32.07635], [-97.49094, 32.07635], [-97.49092, 32.07787], [-97.49267, 32.07863], [-97.49265, 32.08016], [-97.4944, 32.08092], [-97.49529, 32.08092], [-97.49531, 32.0794]], [[-97.48363, 32.08244], [-97.48276, 32.08244], [-97.48276, 32.0832], [-97.48363, 32.0832], [-97.48363, 32.08244]], [[-97.48276, 32.08168], [-97.48189, 32.08168], [-97.48189, 32.08244], [-97.48276, 32.08244], [-97.48276, 32.08168]], [[-97.47912, 32.08472], [-97.47824, 32.08472], [-97.47824, 32.08396], [-97.47737, 32.08396], [-97.47735, 32.08548], [-97.4791, 32.08625], [-97.47912, 32.08472]], [[-97.47729, 32.08624], [-97.47642, 32.08624], [-97.47642, 32.08701], [-97.47729, 32.08701], [-97.47729, 32.08624]], [[-97.50156, 32.11597], [-97.50068, 32.11597], [-97.50068, 32.11674], [-97.50156, 32.11674], [-97.50156, 32.11597]], [[-97.50068, 32.11521], [-97.49981, 32.11521], [-97.49981, 32.11597], [-97.50068, 32.11597], [-97.50068, 32.11521]], [[-97.48948, 32.13731], [-97.49035, 32.13731], [-97.49035, 32.13654], [-97.48948, 32.13654], [-97.48948, 32.13731]], [[-97.4913, 32.13578], [-97.49217, 32.13578], [-97.49217, 32.13502], [-97.4913, 32.13502], [-97.4913, 32.13578]], [[-97.45562, 32.0969], [-97.45296, 32.0969], [-97.45293, 32.09919], [-97.45558, 32.09919], [-97.45562, 32.0969]], [[-97.41363, 32.13575], [-97.41276, 32.13575], [-97.41276, 32.13498], [-97.41456, 32.13498], [-97.4146, 32.1327], [-97.41194, 32.1327], [-97.41194, 32.13346], [-97.40925, 32.13346], [-97.40921, 32.13574], [-97.41096, 32.13651], [-97.41094, 32.13803], [-97.4136, 32.13803], [-97.41363, 32.13575]], [[-97.44404, 32.09766], [-97.44581, 32.09766], [-97.44582, 32.09614], [-97.44406, 32.09614], [-97.44404, 32.09766]], [[-97.47159, 32.06567], [-97.47246, 32.06567], [-97.47246, 32.06491], [-97.47159, 32.06491], [-97.47159, 32.06567]], [[-97.47244, 32.06719], [-97.47419, 32.06795], [-97.47419, 32.06872], [-97.47595, 32.06872], [-97.47597, 32.06719], [-97.47421, 32.06719], [-97.47423, 32.06567], [-97.47246, 32.06567], [-97.47244, 32.06719]], [[-97.47127, 32.11444], [-97.47127, 32.1152], [-97.47215, 32.1152], [-97.47215, 32.11596], [-97.47391, 32.11596], [-97.47391, 32.1152], [-97.47304, 32.1152], [-97.47304, 32.11444], [-97.47217, 32.11444], [-97.47217, 32.11368], [-97.4704, 32.11367], [-97.4704, 32.11444], [-97.47127, 32.11444]], [[-97.47505, 32.10606], [-97.47505, 32.10529], [-97.47328, 32.10529], [-97.47328, 32.10453], [-97.47153, 32.10377], [-97.47153, 32.10301], [-97.47066, 32.10301], [-97.47066, 32.10224], [-97.46891, 32.10148], [-97.46893, 32.09996], [-97.46984, 32.09996], [-97.46984, 32.10072], [-97.47159, 32.10148], [-97.47159, 32.10224], [-97.47246, 32.10224], [-97.47248, 32.10072], [-97.47161, 32.10072], [-97.47163, 32.0992], [-97.47075, 32.0992], [-97.47077, 32.09767], [-97.46722, 32.09767], [-97.46722, 32.09843], [-97.46453, 32.09843], [-97.46451, 32.09996], [-97.46625, 32.10072], [-97.46624, 32.10224], [-97.46889, 32.10224], [-97.46889, 32.10301], [-97.46888, 32.10377], [-97.46707, 32.10377], [-97.46705, 32.10529], [-97.46525, 32.10529], [-97.46525, 32.10453], [-97.46438, 32.10453], [-97.46436, 32.10605], [-97.46523, 32.10605], [-97.46523, 32.10681], [-97.467, 32.10681], [-97.46698, 32.10834], [-97.46875, 32.10834], [-97.46875, 32.10758], [-97.46966, 32.10758], [-97.46966, 32.10834], [-97.47053, 32.10834], [-97.47053, 32.1091], [-97.47319, 32.1091], [-97.47321, 32.10758], [-97.47501, 32.10758], [-97.47501, 32.10682], [-97.47592, 32.10682], [-97.47592, 32.10606], [-97.47505, 32.10606]], [[-97.48285, 32.07787], [-97.48109, 32.07786], [-97.48109, 32.07863], [-97.48196, 32.07863], [-97.48196, 32.07939], [-97.48283, 32.07939], [-97.48285, 32.07787]], [[-97.48378, 32.0771], [-97.48378, 32.07634], [-97.48291, 32.07634], [-97.48291, 32.0771], [-97.48378, 32.0771]], [[-97.48728, 32.08092], [-97.48902, 32.08168], [-97.48901, 32.0832], [-97.49077, 32.0832], [-97.49077, 32.08397], [-97.49165, 32.08397], [-97.4917, 32.08092], [-97.48904, 32.08092], [-97.48904, 32.08015], [-97.48729, 32.07939], [-97.48728, 32.08092]], [[-97.5017, 32.07483], [-97.50257, 32.07483], [-97.50259, 32.0733], [-97.50172, 32.0733], [-97.5017, 32.07483]], [[-97.48373, 32.07939], [-97.48371, 32.08091], [-97.48458, 32.08091], [-97.48458, 32.08168], [-97.48545, 32.08168], [-97.48545, 32.08244], [-97.48722, 32.08244], [-97.48722, 32.08168], [-97.48635, 32.08168], [-97.48635, 32.08091], [-97.48547, 32.08091], [-97.48547, 32.08015], [-97.4846, 32.08015], [-97.4846, 32.07939], [-97.48373, 32.07939]], [[-97.48469, 32.07634], [-97.48469, 32.07558], [-97.48382, 32.07558], [-97.48382, 32.07634], [-97.48469, 32.07634]], [[-97.48892, 32.12283], [-97.48893, 32.1213], [-97.48806, 32.1213], [-97.48808, 32.11978], [-97.48721, 32.11978], [-97.48721, 32.11902], [-97.48455, 32.11902], [-97.48451, 32.1213], [-97.48271, 32.1213], [-97.48271, 32.12206], [-97.48358, 32.12206], [-97.48356, 32.12359], [-97.48533, 32.12359], [-97.48533, 32.12435], [-97.4862, 32.12435], [-97.4862, 32.12359], [-97.48711, 32.12359], [-97.48711, 32.12283], [-97.48892, 32.12283]], [[-97.48378, 32.11368], [-97.48378, 32.11292], [-97.48291, 32.11292], [-97.48291, 32.11216], [-97.48115, 32.11216], [-97.48115, 32.11139], [-97.47938, 32.11139], [-97.4794, 32.10987], [-97.47852, 32.10987], [-97.47852, 32.10911], [-97.47676, 32.10911], [-97.47676, 32.10987], [-97.47763, 32.10987], [-97.47761, 32.11139], [-97.47581, 32.11139], [-97.47577, 32.11368], [-97.47486, 32.11368], [-97.47486, 32.11291], [-97.47399, 32.11291], [-97.47397, 32.11444], [-97.47574, 32.11444], [-97.47574, 32.1152], [-97.47661, 32.1152], [-97.47657, 32.11749], [-97.47923, 32.11749], [-97.47927, 32.1152], [-97.48018, 32.1152], [-97.48014, 32.11749], [-97.48191, 32.11749], [-97.48191, 32.11825], [-97.48278, 32.11825], [-97.48367, 32.11825], [-97.48367, 32.11749], [-97.48458, 32.11749], [-97.48458, 32.11673], [-97.4855, 32.11673], [-97.48551, 32.11521], [-97.48464, 32.11521], [-97.48466, 32.11368], [-97.48378, 32.11368]], [[-97.47581, 32.11063], [-97.47494, 32.11063], [-97.47494, 32.11139], [-97.47581, 32.11139], [-97.47581, 32.11063]], [[-97.47399, 32.11215], [-97.47311, 32.11215], [-97.47311, 32.11291], [-97.47399, 32.11291], [-97.47399, 32.11215]], [[-97.48367, 32.11901], [-97.48455, 32.11901], [-97.48455, 32.11825], [-97.48367, 32.11825], [-97.48367, 32.11901]], [[-97.49886, 32.1175], [-97.49888, 32.11597], [-97.49801, 32.11597], [-97.49804, 32.11369], [-97.49449, 32.11369], [-97.49449, 32.11292], [-97.49362, 32.11292], [-97.49273, 32.11292], [-97.49273, 32.11368], [-97.49182, 32.11368], [-97.49182, 32.11292], [-97.49005, 32.11292], [-97.49003, 32.11445], [-97.49178, 32.11521], [-97.49176, 32.11673], [-97.49263, 32.11673], [-97.49263, 32.11749], [-97.49529, 32.1175], [-97.49529, 32.11826], [-97.49617, 32.11826], [-97.49617, 32.1175], [-97.49708, 32.1175], [-97.49708, 32.11673], [-97.49799, 32.11673], [-97.49799, 32.1175], [-97.49886, 32.1175]], [[-97.48417, 32.06034], [-97.4824, 32.06034], [-97.4824, 32.05958], [-97.48064, 32.05958], [-97.48066, 32.05805], [-97.47978, 32.05805], [-97.47973, 32.0611], [-97.47882, 32.0611], [-97.47883, 32.05958], [-97.47796, 32.05958], [-97.47796, 32.06034], [-97.47705, 32.06034], [-97.47703, 32.06186], [-97.47791, 32.06186], [-97.47791, 32.06262], [-97.4761, 32.06262], [-97.47608, 32.06415], [-97.47785, 32.06415], [-97.47785, 32.06491], [-97.47872, 32.06491], [-97.47962, 32.06491], [-97.47962, 32.06415], [-97.48053, 32.06415], [-97.48053, 32.06491], [-97.48229, 32.06491], [-97.48229, 32.06567], [-97.48406, 32.06567], [-97.48408, 32.06415], [-97.48499, 32.06415], [-97.48499, 32.06339], [-97.4859, 32.06339], [-97.4859, 32.06263], [-97.48413, 32.06263], [-97.48417, 32.06034]], [[-97.48246, 32.05805], [-97.48246, 32.05729], [-97.48159, 32.05729], [-97.48159, 32.05805], [-97.48246, 32.05805]], [[-97.48159, 32.05653], [-97.48071, 32.05653], [-97.48071, 32.05577], [-97.47984, 32.05577], [-97.47982, 32.05729], [-97.48159, 32.05729], [-97.48159, 32.05653]], [[-97.48038, 32.03443], [-97.48125, 32.03443], [-97.48125, 32.03519], [-97.48212, 32.03519], [-97.48214, 32.03367], [-97.48127, 32.03367], [-97.48127, 32.03291], [-97.4795, 32.03291], [-97.4795, 32.03367], [-97.48038, 32.03367], [-97.48038, 32.03443]], [[-97.48691, 32.09539], [-97.48692, 32.09387], [-97.48516, 32.09387], [-97.48514, 32.09539], [-97.48691, 32.09539]], [[-97.4814, 32.10225], [-97.48317, 32.10225], [-97.48319, 32.10073], [-97.48142, 32.10073], [-97.4814, 32.10225]], [[-97.47674, 32.07329], [-97.47675, 32.07177], [-97.47588, 32.07177], [-97.47586, 32.07329], [-97.47674, 32.07329]], [[-97.47588, 32.071], [-97.47411, 32.071], [-97.47411, 32.07177], [-97.47588, 32.07177], [-97.47588, 32.071]], [[-97.47776, 32.06719], [-97.47688, 32.06719], [-97.47688, 32.06796], [-97.47776, 32.06796], [-97.47776, 32.06719]], [[-97.47428, 32.06415], [-97.47426, 32.06567], [-97.47692, 32.06567], [-97.47692, 32.06491], [-97.47605, 32.06491], [-97.47605, 32.06415], [-97.47428, 32.06415]], [[-97.47867, 32.06643], [-97.47779, 32.06643], [-97.47779, 32.06719], [-97.47867, 32.06719], [-97.47867, 32.06643]], [[-97.48094, 32.08396], [-97.48092, 32.08548], [-97.48269, 32.08548], [-97.48269, 32.08472], [-97.48181, 32.08472], [-97.48181, 32.08396], [-97.48094, 32.08396]], [[-97.48094, 32.0832], [-97.48006, 32.0832], [-97.48006, 32.08396], [-97.48094, 32.08396], [-97.48094, 32.0832]], [[-97.47919, 32.08167], [-97.47742, 32.08167], [-97.47742, 32.08243], [-97.47919, 32.08244], [-97.47919, 32.08167]], [[-97.4807, 32.09387], [-97.48072, 32.09234], [-97.47984, 32.09234], [-97.47982, 32.09387], [-97.4807, 32.09387]], [[-97.47858, 32.10834], [-97.47945, 32.10834], [-97.47943, 32.10987], [-97.4812, 32.10987], [-97.4812, 32.11063], [-97.48207, 32.11063], [-97.48209, 32.10911], [-97.48035, 32.10835], [-97.48035, 32.10758], [-97.47858, 32.10758], [-97.47858, 32.10834]], [[-97.47889, 32.05729], [-97.47712, 32.05729], [-97.47712, 32.05805], [-97.47889, 32.05805], [-97.47889, 32.05729]], [[-97.47596, 32.10529], [-97.47598, 32.10377], [-97.4751, 32.10377], [-97.47508, 32.10529], [-97.47596, 32.10529]], [[-97.47486, 32.0771], [-97.47486, 32.07634], [-97.47309, 32.07634], [-97.47309, 32.0771], [-97.47486, 32.0771]], [[-97.47317, 32.07329], [-97.47315, 32.07481], [-97.47491, 32.07481], [-97.47493, 32.07329], [-97.47406, 32.07329], [-97.47408, 32.07177], [-97.4732, 32.07177], [-97.4732, 32.07253], [-97.47229, 32.07253], [-97.47229, 32.07329], [-97.47317, 32.07329]], [[-97.47326, 32.07024], [-97.47413, 32.07024], [-97.47413, 32.06948], [-97.47326, 32.06948], [-97.47326, 32.07024]], [[-97.47371, 32.08853], [-97.47458, 32.08853], [-97.47458, 32.08777], [-97.47371, 32.08777], [-97.47371, 32.08853]], [[-97.47371, 32.08701], [-97.47283, 32.08701], [-97.47283, 32.08777], [-97.47371, 32.08777], [-97.47371, 32.08701]], [[-97.47553, 32.08624], [-97.47555, 32.08472], [-97.47467, 32.08472], [-97.47465, 32.08624], [-97.47553, 32.08624]], [[-97.47473, 32.08243], [-97.47475, 32.08091], [-97.47298, 32.08091], [-97.47296, 32.08243], [-97.47473, 32.08243]], [[-97.47235, 32.07024], [-97.47235, 32.071], [-97.47322, 32.071], [-97.47322, 32.07024], [-97.47235, 32.07024]], [[-97.47602, 32.02909], [-97.47601, 32.03062], [-97.47331, 32.03062], [-97.47327, 32.0329], [-97.47504, 32.0329], [-97.47504, 32.03366], [-97.4777, 32.03367], [-97.4777, 32.0329], [-97.47861, 32.0329], [-97.47861, 32.03214], [-97.47952, 32.03214], [-97.47956, 32.03062], [-97.47956, 32.02986], [-97.47868, 32.02986], [-97.47868, 32.02909], [-97.47602, 32.02909]], [[-97.43672, 32.10375], [-97.43495, 32.10375], [-97.43493, 32.10528], [-97.43668, 32.10604], [-97.43668, 32.1068], [-97.43755, 32.1068], [-97.43755, 32.10756], [-97.43932, 32.10756], [-97.43934, 32.10604], [-97.44114, 32.10604], [-97.44116, 32.10452], [-97.43939, 32.10452], [-97.43941, 32.10299], [-97.43765, 32.10299], [-97.43763, 32.10451], [-97.43672, 32.10451], [-97.43672, 32.10375]], [[-97.46596, 32.11291], [-97.46598, 32.11139], [-97.46423, 32.11062], [-97.46423, 32.10986], [-97.46246, 32.10986], [-97.46244, 32.11138], [-97.46421, 32.11138], [-97.46419, 32.11291], [-97.46596, 32.11291]], [[-97.46518, 32.10834], [-97.46518, 32.10758], [-97.4643, 32.10758], [-97.4643, 32.10681], [-97.46343, 32.10681], [-97.46341, 32.10834], [-97.46428, 32.10834], [-97.46428, 32.1091], [-97.46603, 32.10986], [-97.46601, 32.11139], [-97.46689, 32.11139], [-97.46689, 32.11062], [-97.4678, 32.11062], [-97.4678, 32.10986], [-97.46605, 32.1091], [-97.46605, 32.10834], [-97.46518, 32.10834]], [[-97.46547, 32.09615], [-97.46547, 32.09691], [-97.46635, 32.09691], [-97.46635, 32.09615], [-97.46547, 32.09615]], [[-97.46547, 32.09538], [-97.4646, 32.09538], [-97.4646, 32.09615], [-97.46547, 32.09615], [-97.46547, 32.09538]], [[-97.45744, 32.09614], [-97.45744, 32.09538], [-97.45568, 32.09538], [-97.45566, 32.0969], [-97.45653, 32.0969], [-97.45653, 32.09614], [-97.45744, 32.09614]], [[-97.4619, 32.09691], [-97.46367, 32.09691], [-97.46367, 32.09614], [-97.4619, 32.09614], [-97.4619, 32.09691]], [[-97.44861, 32.09157], [-97.44685, 32.09157], [-97.44683, 32.09309], [-97.44859, 32.09309], [-97.44861, 32.09157]], [[-97.44473, 32.10528], [-97.44473, 32.10452], [-97.44385, 32.10452], [-97.44385, 32.10376], [-97.44209, 32.10376], [-97.44209, 32.10299], [-97.44122, 32.10299], [-97.4412, 32.10452], [-97.44296, 32.10452], [-97.44296, 32.10528], [-97.44473, 32.10528]], [[-97.41036, 32.12355], [-97.40949, 32.12355], [-97.40949, 32.12431], [-97.40858, 32.12431], [-97.40858, 32.12508], [-97.40766, 32.12508], [-97.40766, 32.12431], [-97.40679, 32.12431], [-97.40679, 32.12508], [-97.40588, 32.12508], [-97.40588, 32.12584], [-97.40675, 32.12584], [-97.40673, 32.12736], [-97.40939, 32.12736], [-97.40937, 32.12889], [-97.41025, 32.12889], [-97.41025, 32.12965], [-97.41112, 32.12965], [-97.41112, 32.13041], [-97.412, 32.13041], [-97.41201, 32.12889], [-97.41114, 32.12889], [-97.41114, 32.12813], [-97.41027, 32.12813], [-97.41027, 32.12736], [-97.41207, 32.12736], [-97.41207, 32.12813], [-97.41382, 32.12889], [-97.41382, 32.12965], [-97.41469, 32.12965], [-97.41471, 32.12813], [-97.41384, 32.12813], [-97.41385, 32.1266], [-97.41298, 32.1266], [-97.413, 32.12508], [-97.41213, 32.12508], [-97.41213, 32.12432], [-97.41036, 32.12432], [-97.41036, 32.12355]], [[-97.41679, 32.11594], [-97.41592, 32.11594], [-97.41592, 32.11517], [-97.41415, 32.11517], [-97.41415, 32.11441], [-97.41238, 32.11441], [-97.41238, 32.11517], [-97.41147, 32.11517], [-97.41147, 32.11441], [-97.40971, 32.11441], [-97.40882, 32.11441], [-97.4088, 32.11593], [-97.40699, 32.11593], [-97.40699, 32.11669], [-97.40787, 32.11669], [-97.40787, 32.11746], [-97.40874, 32.11746], [-97.40874, 32.11822], [-97.40694, 32.11822], [-97.40692, 32.11974], [-97.40779, 32.11974], [-97.40779, 32.1205], [-97.40954, 32.12127], [-97.40952, 32.12279], [-97.4104, 32.12279], [-97.4104, 32.12203], [-97.41131, 32.12203], [-97.41131, 32.12127], [-97.41043, 32.12127], [-97.41043, 32.1205], [-97.40956, 32.1205], [-97.40956, 32.11974], [-97.41136, 32.11974], [-97.41136, 32.12051], [-97.41224, 32.12051], [-97.41227, 32.11822], [-97.41318, 32.11822], [-97.41318, 32.11898], [-97.41495, 32.11898], [-97.41497, 32.11746], [-97.41677, 32.11746], [-97.41679, 32.11594]], [[-97.43311, 32.10604], [-97.43311, 32.1068], [-97.43398, 32.1068], [-97.43398, 32.10756], [-97.43575, 32.10756], [-97.43577, 32.10604], [-97.43311, 32.10604]], [[-97.42876, 32.10146], [-97.42876, 32.1007], [-97.42699, 32.1007], [-97.42699, 32.10146], [-97.42787, 32.10146], [-97.42785, 32.10299], [-97.42962, 32.10299], [-97.42962, 32.10375], [-97.43049, 32.10375], [-97.43051, 32.10223], [-97.42876, 32.10146]], [[-97.42304, 32.1167], [-97.42304, 32.11746], [-97.42391, 32.11746], [-97.42391, 32.11822], [-97.42568, 32.11823], [-97.42568, 32.11746], [-97.42393, 32.1167], [-97.42393, 32.11594], [-97.42216, 32.11594], [-97.42216, 32.1167], [-97.42304, 32.1167]], [[-97.42216, 32.11518], [-97.42307, 32.11518], [-97.42307, 32.11441], [-97.42131, 32.11441], [-97.42131, 32.11518], [-97.4204, 32.11518], [-97.4204, 32.11594], [-97.42216, 32.11594], [-97.42216, 32.11518]], [[-97.42231, 32.10984], [-97.42231, 32.1106], [-97.42408, 32.1106], [-97.42408, 32.10984], [-97.42231, 32.10984]], [[-97.41863, 32.11517], [-97.4195, 32.11517], [-97.4195, 32.11441], [-97.41863, 32.11441], [-97.41863, 32.11517]], [[-97.41772, 32.11594], [-97.41859, 32.11594], [-97.41859, 32.11517], [-97.41772, 32.11517], [-97.41772, 32.11594]], [[-97.41376, 32.13041], [-97.41289, 32.13041], [-97.41287, 32.13194], [-97.41374, 32.13194], [-97.41376, 32.13041]], [[-97.40435, 32.11517], [-97.40701, 32.11517], [-97.40705, 32.11288], [-97.40439, 32.11288], [-97.40435, 32.11517]], [[-97.40739, 32.13727], [-97.40826, 32.13727], [-97.40826, 32.13651], [-97.40739, 32.13651], [-97.40739, 32.13727]], [[-97.40917, 32.13574], [-97.4083, 32.13574], [-97.4083, 32.13651], [-97.40917, 32.13651], [-97.40917, 32.13574]], [[-97.40415, 32.12203], [-97.40328, 32.12203], [-97.40328, 32.12126], [-97.4024, 32.12126], [-97.40238, 32.12279], [-97.40326, 32.12279], [-97.40326, 32.12355], [-97.40413, 32.12355], [-97.40413, 32.12431], [-97.40501, 32.12431], [-97.40502, 32.12279], [-97.40415, 32.12279], [-97.40415, 32.12203]], [[-97.45091, 32.03518], [-97.45179, 32.03518], [-97.45179, 32.03594], [-97.45266, 32.03594], [-97.45266, 32.0367], [-97.45353, 32.0367], [-97.45355, 32.03518], [-97.45268, 32.03518], [-97.4527, 32.03365], [-97.45093, 32.03365], [-97.45093, 32.03289], [-97.45006, 32.03289], [-97.45004, 32.03442], [-97.45091, 32.03442], [-97.45091, 32.03518]], [[-97.44909, 32.03594], [-97.44909, 32.0367], [-97.44996, 32.0367], [-97.44996, 32.03746], [-97.45084, 32.03746], [-97.45087, 32.03518], [-97.44911, 32.03518], [-97.44911, 32.03441], [-97.44734, 32.03441], [-97.44734, 32.03518], [-97.44822, 32.03518], [-97.44822, 32.03594], [-97.44909, 32.03594]], [[-97.44729, 32.03594], [-97.44641, 32.03594], [-97.44639, 32.03746], [-97.44727, 32.03746], [-97.44729, 32.03594]], [[-97.45625, 32.03518], [-97.45623, 32.0367], [-97.45799, 32.0367], [-97.45801, 32.03518], [-97.45625, 32.03518]], [[-97.43662, 32.03593], [-97.43749, 32.03593], [-97.43749, 32.0367], [-97.43836, 32.0367], [-97.43836, 32.03746], [-97.44013, 32.03746], [-97.44017, 32.03517], [-97.43929, 32.03517], [-97.43929, 32.03593], [-97.43838, 32.03593], [-97.43838, 32.03517], [-97.43662, 32.03517], [-97.43662, 32.03593]]], [[[-97.35821, 31.88349], [-97.35819, 31.88502], [-97.35728, 31.88502], [-97.35728, 31.88578], [-97.35637, 31.88578], [-97.35635, 31.8873], [-97.35544, 31.8873], [-97.35544, 31.88806], [-97.35453, 31.88806], [-97.35453, 31.88883], [-97.35362, 31.88883], [-97.3536, 31.89035], [-97.35269, 31.89035], [-97.35269, 31.89111], [-97.35089, 31.89111], [-97.35093, 31.88882], [-97.35184, 31.88882], [-97.35186, 31.8873], [-97.35011, 31.88654], [-97.35011, 31.88578], [-97.34923, 31.88578], [-97.34923, 31.88501], [-97.34836, 31.88501], [-97.34838, 31.88349], [-97.34572, 31.88349], [-97.34572, 31.88425], [-97.34659, 31.88425], [-97.34659, 31.88501], [-97.34568, 31.88501], [-97.34568, 31.88577], [-97.34477, 31.88577], [-97.34477, 31.88654], [-97.34208, 31.88654], [-97.3421, 31.88501], [-97.34301, 31.88501], [-97.34301, 31.88425], [-97.34392, 31.88425], [-97.34392, 31.88349], [-97.34483, 31.88349], [-97.34483, 31.88273], [-97.34574, 31.88273], [-97.34574, 31.88196], [-97.34754, 31.88196], [-97.34754, 31.8812], [-97.34934, 31.8812], [-97.34934, 31.88044], [-97.35293, 31.88044], [-97.35293, 31.87968], [-97.35652, 31.87968], [-97.35652, 31.88045], [-97.35739, 31.88045], [-97.35739, 31.88121], [-97.35916, 31.88121], [-97.35912, 31.88349], [-97.35821, 31.88349]], [[-97.35641, 31.88349], [-97.35554, 31.88349], [-97.35554, 31.88273], [-97.35377, 31.88273], [-97.35377, 31.88197], [-97.352, 31.88197], [-97.352, 31.88121], [-97.35024, 31.8812], [-97.35024, 31.88197], [-97.34933, 31.88197], [-97.34929, 31.88425], [-97.35016, 31.88425], [-97.35016, 31.88501], [-97.35193, 31.88501], [-97.35191, 31.88654], [-97.35278, 31.88654], [-97.35278, 31.8873], [-97.35366, 31.8873], [-97.35368, 31.88578], [-97.35637, 31.88578], [-97.35641, 31.88349]], [[-97.35381, 31.88197], [-97.35468, 31.88197], [-97.3547, 31.88044], [-97.35382, 31.88044], [-97.35381, 31.88197]]], [[[-97.34989, 31.89568], [-97.34989, 31.89644], [-97.35076, 31.89644], [-97.35076, 31.89721], [-97.34985, 31.89721], [-97.34981, 31.89949], [-97.3489, 31.89949], [-97.34886, 31.90178], [-97.34617, 31.90178], [-97.34615, 31.9033], [-97.34524, 31.9033], [-97.34524, 31.90406], [-97.34344, 31.90406], [-97.34344, 31.9033], [-97.34256, 31.9033], [-97.34265, 31.89873], [-97.34535, 31.89873], [-97.34537, 31.8972], [-97.34628, 31.8972], [-97.34628, 31.89797], [-97.34805, 31.89797], [-97.34805, 31.89721], [-97.34717, 31.89721], [-97.34721, 31.89492], [-97.34546, 31.89416], [-97.34546, 31.89339], [-97.34726, 31.89339], [-97.34726, 31.89263], [-97.34639, 31.89263], [-97.34639, 31.89187], [-97.34909, 31.89187], [-97.34909, 31.89111], [-97.35, 31.89111], [-97.35089, 31.89111], [-97.35089, 31.89187], [-97.34998, 31.89187], [-97.34998, 31.89263], [-97.34818, 31.89263], [-97.34814, 31.89492], [-97.34901, 31.89492], [-97.34901, 31.89568], [-97.34989, 31.89568]], [[-97.34351, 31.90101], [-97.34351, 31.90178], [-97.34528, 31.90178], [-97.34528, 31.90101], [-97.34351, 31.90101]]], [[[-97.3974, 31.9239], [-97.3956, 31.9239], [-97.3956, 31.92314], [-97.39383, 31.92314], [-97.39383, 31.92237], [-97.39207, 31.92237], [-97.39207, 31.92313], [-97.39026, 31.92313], [-97.39024, 31.92466], [-97.39201, 31.92466], [-97.39199, 31.92618], [-97.39287, 31.92618], [-97.39287, 31.92694], [-97.39106, 31.92694], [-97.39106, 31.92618], [-97.38932, 31.92542], [-97.38932, 31.92466], [-97.38844, 31.92466], [-97.38844, 31.92389], [-97.38669, 31.92313], [-97.38671, 31.92161], [-97.38584, 31.92161], [-97.38586, 31.92008], [-97.38498, 31.92008], [-97.38498, 31.92085], [-97.38407, 31.92085], [-97.38405, 31.92237], [-97.38225, 31.92237], [-97.38223, 31.92389], [-97.38043, 31.92389], [-97.38041, 31.92542], [-97.37772, 31.92541], [-97.3777, 31.92694], [-97.37589, 31.92694], [-97.37589, 31.92617], [-97.37681, 31.92617], [-97.37686, 31.92313], [-97.37777, 31.92313], [-97.37777, 31.92237], [-97.37868, 31.92237], [-97.3787, 31.92084], [-97.37961, 31.92084], [-97.37961, 31.92008], [-97.38052, 31.92008], [-97.38052, 31.91932], [-97.38143, 31.91932], [-97.38143, 31.91856], [-97.38234, 31.91856], [-97.38238, 31.91627], [-97.38508, 31.91627], [-97.38508, 31.91551], [-97.38688, 31.91551], [-97.38686, 31.91704], [-97.38595, 31.91704], [-97.38591, 31.91932], [-97.38768, 31.91932], [-97.38766, 31.92085], [-97.39389, 31.92085], [-97.39389, 31.92009], [-97.39569, 31.92009], [-97.39569, 31.92085], [-97.39744, 31.92161], [-97.39744, 31.92237], [-97.39831, 31.92237], [-97.39831, 31.92314], [-97.3974, 31.92314], [-97.3974, 31.9239]], [[-97.39026, 31.92237], [-97.3885, 31.92237], [-97.3885, 31.92313], [-97.39026, 31.92313], [-97.39026, 31.92237]], [[-97.38407, 31.92084], [-97.38409, 31.91932], [-97.38322, 31.91932], [-97.3832, 31.92084], [-97.38407, 31.92084]]], [[[-97.39015, 31.92847], [-97.38924, 31.92847], [-97.38924, 31.92771], [-97.38749, 31.92694], [-97.38748, 31.92847], [-97.38835, 31.92847], [-97.38835, 31.92923], [-97.38833, 31.92999], [-97.38742, 31.92999], [-97.38742, 31.92923], [-97.38567, 31.92847], [-97.38567, 31.9277], [-97.3848, 31.9277], [-97.38476, 31.92999], [-97.38296, 31.92999], [-97.38294, 31.93151], [-97.38114, 31.93151], [-97.38116, 31.92999], [-97.38028, 31.92999], [-97.38028, 31.92923], [-97.38208, 31.92923], [-97.38212, 31.92694], [-97.38303, 31.92694], [-97.38303, 31.9277], [-97.38391, 31.9277], [-97.38393, 31.92618], [-97.38216, 31.92618], [-97.38216, 31.92542], [-97.38575, 31.92542], [-97.38577, 31.92389], [-97.38668, 31.92389], [-97.38668, 31.92466], [-97.38755, 31.92466], [-97.38755, 31.92542], [-97.38842, 31.92542], [-97.38842, 31.92618], [-97.3893, 31.92618], [-97.3893, 31.92694], [-97.39017, 31.92694], [-97.39015, 31.92847]]], [[[-97.39805, 31.93304], [-97.39803, 31.93457], [-97.39891, 31.93457], [-97.39889, 31.93609], [-97.39709, 31.93609], [-97.39707, 31.93761], [-97.39527, 31.93761], [-97.39532, 31.93457], [-97.39266, 31.93457], [-97.39268, 31.93304], [-97.38824, 31.93304], [-97.38824, 31.9338], [-97.38733, 31.9338], [-97.38735, 31.93228], [-97.38826, 31.93228], [-97.38828, 31.93075], [-97.39008, 31.93075], [-97.39008, 31.93152], [-97.39095, 31.93152], [-97.39095, 31.93075], [-97.39186, 31.93075], [-97.39186, 31.92999], [-97.39277, 31.92999], [-97.39277, 31.93075], [-97.39365, 31.93075], [-97.39365, 31.92999], [-97.39456, 31.92999], [-97.39456, 31.92923], [-97.39636, 31.92923], [-97.39636, 31.92999], [-97.39545, 31.92999], [-97.39545, 31.93076], [-97.39454, 31.93076], [-97.39454, 31.93152], [-97.39631, 31.93152], [-97.39629, 31.93304], [-97.39805, 31.93304]]], [[[-97.37309, 31.93303], [-97.37129, 31.93303], [-97.37127, 31.93455], [-97.36946, 31.93455], [-97.36946, 31.93532], [-97.36855, 31.93532], [-97.36855, 31.93455], [-97.36589, 31.93455], [-97.36586, 31.93684], [-97.36495, 31.93684], [-97.36495, 31.93608], [-97.3632, 31.93531], [-97.36316, 31.9376], [-97.36491, 31.93836], [-97.36491, 31.93912], [-97.364, 31.93912], [-97.36396, 31.94141], [-97.36484, 31.94141], [-97.36484, 31.94065], [-97.36575, 31.94065], [-97.36575, 31.93989], [-97.36666, 31.93989], [-97.36666, 31.94065], [-97.36753, 31.94065], [-97.36753, 31.94141], [-97.3693, 31.94141], [-97.3693, 31.94217], [-97.37017, 31.94217], [-97.37017, 31.94294], [-97.37104, 31.94294], [-97.37104, 31.9437], [-97.37192, 31.9437], [-97.37192, 31.94446], [-97.37012, 31.94446], [-97.37012, 31.9437], [-97.36837, 31.94294], [-97.36837, 31.94217], [-97.36749, 31.94217], [-97.36748, 31.9437], [-97.36835, 31.9437], [-97.36835, 31.94446], [-97.36922, 31.94446], [-97.36922, 31.94522], [-97.36653, 31.94522], [-97.36649, 31.94751], [-97.36558, 31.94751], [-97.36554, 31.94979], [-97.36463, 31.94979], [-97.36463, 31.94903], [-97.36288, 31.94827], [-97.36287, 31.94979], [-97.36461, 31.95055], [-97.36459, 31.95208], [-97.36636, 31.95208], [-97.36636, 31.95284], [-97.36811, 31.9536], [-97.36811, 31.95437], [-97.36898, 31.95437], [-97.36898, 31.95513], [-97.36986, 31.95513], [-97.36986, 31.95589], [-97.37073, 31.95589], [-97.37073, 31.95665], [-97.36714, 31.95665], [-97.36714, 31.95589], [-97.36538, 31.95589], [-97.36538, 31.95513], [-97.3645, 31.95513], [-97.36452, 31.9536], [-97.36365, 31.9536], [-97.36365, 31.95284], [-97.36277, 31.95284], [-97.36277, 31.95208], [-97.36012, 31.95208], [-97.36012, 31.95284], [-97.3592, 31.95284], [-97.3592, 31.9536], [-97.35829, 31.9536], [-97.35651, 31.9536], [-97.35651, 31.95284], [-97.35476, 31.95207], [-97.35478, 31.95055], [-97.35569, 31.95055], [-97.35569, 31.94979], [-97.35749, 31.94979], [-97.35749, 31.94903], [-97.3593, 31.94903], [-97.3593, 31.94827], [-97.3611, 31.94827], [-97.3611, 31.9475], [-97.36201, 31.9475], [-97.36201, 31.94674], [-97.36292, 31.94674], [-97.36296, 31.94446], [-97.36208, 31.94446], [-97.36208, 31.94369], [-97.3621, 31.94293], [-97.36301, 31.94293], [-97.36303, 31.94141], [-97.35948, 31.94141], [-97.35948, 31.94217], [-97.35768, 31.94217], [-97.35768, 31.94293], [-97.35677, 31.94293], [-97.35677, 31.94369], [-97.35497, 31.94369], [-97.35497, 31.94445], [-97.35316, 31.94445], [-97.35316, 31.94521], [-97.35136, 31.94521], [-97.35136, 31.94598], [-97.34956, 31.94598], [-97.34957, 31.94445], [-97.3487, 31.94445], [-97.34872, 31.94293], [-97.34785, 31.94293], [-97.34785, 31.94216], [-97.34608, 31.94216], [-97.34608, 31.9414], [-97.34521, 31.9414], [-97.34521, 31.94216], [-97.3434, 31.94216], [-97.3434, 31.94292], [-97.34249, 31.94292], [-97.34249, 31.94369], [-97.3398, 31.94369], [-97.33983, 31.9414], [-97.33896, 31.9414], [-97.33898, 31.93987], [-97.3381, 31.93987], [-97.33812, 31.93835], [-97.33725, 31.93835], [-97.33729, 31.93606], [-97.33641, 31.93606], [-97.33645, 31.93378], [-97.33201, 31.93378], [-97.33204, 31.93149], [-97.33117, 31.93149], [-97.33119, 31.92996], [-97.33299, 31.92996], [-97.33299, 31.93073], [-97.33474, 31.93149], [-97.33563, 31.93149], [-97.33565, 31.92997], [-97.33745, 31.92997], [-97.33749, 31.92768], [-97.33483, 31.92768], [-97.33481, 31.9292], [-97.3339, 31.9292], [-97.33399, 31.92463], [-97.33491, 31.92463], [-97.33502, 31.92006], [-97.33502, 31.9193], [-97.33414, 31.9193], [-97.33414, 31.91854], [-97.3297, 31.91853], [-97.3297, 31.9193], [-97.32879, 31.9193], [-97.32879, 31.92006], [-97.32788, 31.92006], [-97.32788, 31.92082], [-97.32697, 31.92082], [-97.32697, 31.92158], [-97.32427, 31.92158], [-97.32427, 31.92234], [-97.32336, 31.92234], [-97.32338, 31.92082], [-97.32163, 31.92005], [-97.32163, 31.91929], [-97.31987, 31.91929], [-97.31989, 31.91777], [-97.31723, 31.91777], [-97.31713, 31.92234], [-97.31801, 31.92234], [-97.31799, 31.92386], [-97.31351, 31.92386], [-97.31351, 31.9231], [-97.31621, 31.9231], [-97.31622, 31.92158], [-97.31535, 31.92158], [-97.31537, 31.92005], [-97.31271, 31.92005], [-97.31271, 31.91929], [-97.31362, 31.91929], [-97.31364, 31.91776], [-97.31544, 31.91776], [-97.31544, 31.917], [-97.31635, 31.917], [-97.31635, 31.91624], [-97.31994, 31.91624], [-97.31994, 31.917], [-97.32171, 31.91701], [-97.32171, 31.91777], [-97.32437, 31.91777], [-97.32444, 31.91396], [-97.32269, 31.9132], [-97.32269, 31.91243], [-97.3236, 31.91243], [-97.3236, 31.91167], [-97.32451, 31.91167], [-97.32451, 31.91243], [-97.32628, 31.91244], [-97.32628, 31.9132], [-97.32983, 31.9132], [-97.32983, 31.91244], [-97.33074, 31.91244], [-97.33074, 31.9132], [-97.33429, 31.9132], [-97.33518, 31.9132], [-97.33518, 31.91244], [-97.34056, 31.91244], [-97.34052, 31.91473], [-97.34139, 31.91473], [-97.34139, 31.91549], [-97.34314, 31.91625], [-97.3431, 31.91854], [-97.34398, 31.91854], [-97.34394, 31.92083], [-97.34303, 31.92083], [-97.34303, 31.92159], [-97.34123, 31.92159], [-97.34119, 31.92387], [-97.34385, 31.92387], [-97.34385, 31.92311], [-97.34565, 31.92311], [-97.34565, 31.92235], [-97.34745, 31.92235], [-97.34745, 31.92311], [-97.34991, 31.92312], [-97.35253, 31.92693], [-97.3518, 31.92693], [-97.3518, 31.92769], [-97.35, 31.92769], [-97.34998, 31.92921], [-97.34907, 31.92921], [-97.34913, 31.92616], [-97.34738, 31.9254], [-97.34738, 31.92464], [-97.34651, 31.92464], [-97.34649, 31.92616], [-97.34736, 31.92616], [-97.34736, 31.92692], [-97.34823, 31.92692], [-97.34823, 31.92769], [-97.34643, 31.92769], [-97.34643, 31.92692], [-97.34556, 31.92692], [-97.34556, 31.92616], [-97.34468, 31.92616], [-97.34468, 31.9254], [-97.34292, 31.9254], [-97.34292, 31.92616], [-97.34379, 31.92616], [-97.34379, 31.92692], [-97.34467, 31.92692], [-97.34467, 31.92768], [-97.34286, 31.92768], [-97.34286, 31.92692], [-97.3411, 31.92692], [-97.3411, 31.92768], [-97.34197, 31.92768], [-97.34195, 31.92921], [-97.34104, 31.92921], [-97.34104, 31.92844], [-97.34017, 31.92844], [-97.34013, 31.92997], [-97.34013, 31.93073], [-97.341, 31.93073], [-97.341, 31.93149], [-97.33831, 31.93149], [-97.33831, 31.93225], [-97.33651, 31.93225], [-97.33651, 31.93301], [-97.33738, 31.93301], [-97.33736, 31.93454], [-97.33911, 31.9353], [-97.33911, 31.93606], [-97.33998, 31.93606], [-97.33996, 31.93759], [-97.34084, 31.93759], [-97.34084, 31.93835], [-97.3435, 31.93835], [-97.34351, 31.93683], [-97.34532, 31.93683], [-97.34535, 31.93454], [-97.34626, 31.93454], [-97.34626, 31.93531], [-97.34714, 31.93531], [-97.34714, 31.93607], [-97.3489, 31.93607], [-97.3489, 31.93531], [-97.34803, 31.93531], [-97.34803, 31.93454], [-97.34716, 31.93454], [-97.34716, 31.93378], [-97.34628, 31.93378], [-97.34628, 31.93302], [-97.34809, 31.93302], [-97.34809, 31.93378], [-97.34896, 31.93378], [-97.34896, 31.93454], [-97.35073, 31.93455], [-97.35073, 31.93378], [-97.34985, 31.93378], [-97.34985, 31.93302], [-97.34898, 31.93302], [-97.349, 31.9315], [-97.34991, 31.9315], [-97.34991, 31.93226], [-97.35166, 31.93302], [-97.35166, 31.93378], [-97.35253, 31.93378], [-97.35255, 31.93226], [-97.35167, 31.93226], [-97.35167, 31.9315], [-97.3508, 31.9315], [-97.3508, 31.93074], [-97.35082, 31.92997], [-97.35262, 31.92997], [-97.35262, 31.92921], [-97.3541, 31.92921], [-97.35841, 31.93548], [-97.35876, 31.93531], [-97.35876, 31.93531], [-97.36141, 31.93531], [-97.36141, 31.93455], [-97.36322, 31.93455], [-97.36322, 31.93379], [-97.36416, 31.93379], [-97.3663, 31.934], [-97.36644, 31.93379], [-97.36859, 31.93379], [-97.36859, 31.93303], [-97.37039, 31.93303], [-97.37039, 31.93227], [-97.3713, 31.93227], [-97.37136, 31.92922], [-97.37316, 31.92922], [-97.37316, 31.92846], [-97.37497, 31.92846], [-97.37498, 31.92694], [-97.37589, 31.92694], [-97.37586, 31.92922], [-97.37673, 31.92922], [-97.37673, 31.92999], [-97.37493, 31.92999], [-97.37493, 31.92922], [-97.37405, 31.92922], [-97.37404, 31.93075], [-97.37313, 31.93075], [-97.37309, 31.93303]], [[-97.36012, 31.95131], [-97.35924, 31.95131], [-97.35924, 31.95055], [-97.35748, 31.95055], [-97.35746, 31.95207], [-97.36012, 31.95208], [-97.36012, 31.95131]], [[-97.3593, 31.94979], [-97.36017, 31.94979], [-97.36017, 31.94903], [-97.3593, 31.94903], [-97.3593, 31.94979]], [[-97.36017, 31.95055], [-97.36194, 31.95055], [-97.36194, 31.94979], [-97.36017, 31.94979], [-97.36017, 31.95055]], [[-97.33487, 31.92692], [-97.33753, 31.92692], [-97.33756, 31.92463], [-97.33491, 31.92463], [-97.33487, 31.92692]], [[-97.34651, 31.92388], [-97.34563, 31.92388], [-97.34563, 31.92464], [-97.34651, 31.92464], [-97.34651, 31.92388]], [[-97.3526, 31.9315], [-97.35348, 31.9315], [-97.35348, 31.93226], [-97.35524, 31.93226], [-97.35524, 31.9315], [-97.35437, 31.9315], [-97.35439, 31.92998], [-97.35262, 31.92997], [-97.3526, 31.9315]], [[-97.35318, 31.94369], [-97.3532, 31.94217], [-97.35233, 31.94217], [-97.35233, 31.9414], [-97.35145, 31.9414], [-97.35145, 31.94064], [-97.35325, 31.94064], [-97.35325, 31.9414], [-97.35413, 31.9414], [-97.35415, 31.93988], [-97.35506, 31.93988], [-97.35595, 31.93988], [-97.35595, 31.94064], [-97.35772, 31.94064], [-97.35772, 31.93988], [-97.35684, 31.93988], [-97.35688, 31.9376], [-97.35779, 31.9376], [-97.35777, 31.93912], [-97.35954, 31.93912], [-97.35952, 31.94065], [-97.36039, 31.94065], [-97.36039, 31.93988], [-97.3613, 31.93988], [-97.3613, 31.93912], [-97.36043, 31.93912], [-97.36043, 31.93836], [-97.35866, 31.93836], [-97.35868, 31.93684], [-97.35693, 31.93607], [-97.35697, 31.93379], [-97.35431, 31.93379], [-97.35428, 31.93607], [-97.35247, 31.93607], [-97.35247, 31.93683], [-97.34978, 31.93683], [-97.34976, 31.93836], [-97.34706, 31.93835], [-97.34706, 31.93912], [-97.34794, 31.93912], [-97.34794, 31.93988], [-97.34881, 31.93988], [-97.34879, 31.9414], [-97.35054, 31.94217], [-97.35054, 31.94293], [-97.35231, 31.94293], [-97.35231, 31.94369], [-97.35318, 31.94369]], [[-97.36389, 31.94446], [-97.36565, 31.94446], [-97.36565, 31.9437], [-97.36389, 31.9437], [-97.36389, 31.94446]], [[-97.36136, 31.9376], [-97.36134, 31.93912], [-97.36221, 31.93912], [-97.36223, 31.9376], [-97.36136, 31.9376]], [[-97.35589, 31.94141], [-97.35413, 31.94141], [-97.35413, 31.94217], [-97.35589, 31.94217], [-97.35589, 31.94141]], [[-97.3408, 31.93835], [-97.33903, 31.93835], [-97.33903, 31.93911], [-97.3408, 31.93911], [-97.3408, 31.93835]], [[-97.33697, 31.91396], [-97.33427, 31.91396], [-97.33422, 31.91701], [-97.33777, 31.91701], [-97.33779, 31.91549], [-97.33959, 31.91549], [-97.33963, 31.9132], [-97.33697, 31.9132], [-97.33697, 31.91396]], [[-97.33855, 31.92159], [-97.33855, 31.92235], [-97.33942, 31.92235], [-97.33942, 31.92159], [-97.34033, 31.92159], [-97.34033, 31.92082], [-97.33857, 31.92082], [-97.33859, 31.9193], [-97.33682, 31.9193], [-97.3368, 31.92082], [-97.33855, 31.92159]], [[-97.34039, 31.9193], [-97.34041, 31.91778], [-97.33953, 31.91778], [-97.33953, 31.91854], [-97.33862, 31.91854], [-97.33862, 31.9193], [-97.34039, 31.9193]], [[-97.34039, 31.92006], [-97.34126, 31.92006], [-97.34126, 31.9193], [-97.34039, 31.9193], [-97.34039, 31.92006]], [[-97.33762, 31.92235], [-97.33585, 31.92235], [-97.33585, 31.92311], [-97.33762, 31.92311], [-97.33762, 31.92235]], [[-97.32699, 31.91929], [-97.32522, 31.91929], [-97.3252, 31.92082], [-97.32608, 31.92082], [-97.32608, 31.92006], [-97.32699, 31.92006], [-97.32699, 31.91929]], [[-97.32522, 31.91853], [-97.32345, 31.91853], [-97.32345, 31.91929], [-97.32522, 31.91929], [-97.32522, 31.91853]]], [[[-97.38106, 31.9338], [-97.38019, 31.9338], [-97.38019, 31.93304], [-97.37842, 31.93303], [-97.37842, 31.9338], [-97.3793, 31.9338], [-97.3793, 31.93456], [-97.38017, 31.93456], [-97.38015, 31.93608], [-97.37924, 31.93608], [-97.37924, 31.93532], [-97.37837, 31.93532], [-97.37837, 31.93456], [-97.37749, 31.93456], [-97.37749, 31.9338], [-97.37662, 31.9338], [-97.3766, 31.93532], [-97.37835, 31.93608], [-97.37833, 31.93761], [-97.37742, 31.93761], [-97.37742, 31.93684], [-97.37655, 31.93684], [-97.37655, 31.93608], [-97.37478, 31.93608], [-97.37476, 31.9376], [-97.37385, 31.9376], [-97.37385, 31.93684], [-97.37208, 31.93684], [-97.3721, 31.93532], [-97.37391, 31.93532], [-97.37394, 31.93303], [-97.37575, 31.93303], [-97.37576, 31.93151], [-97.37668, 31.93151], [-97.37668, 31.93227], [-97.37755, 31.93227], [-97.37844, 31.93227], [-97.37844, 31.93151], [-97.38114, 31.93151], [-97.38112, 31.93304], [-97.38199, 31.93304], [-97.38199, 31.9338], [-97.38197, 31.93456], [-97.38106, 31.93456], [-97.38106, 31.9338]]], [[[-97.38895, 31.94142], [-97.38803, 31.94142], [-97.388, 31.94371], [-97.38709, 31.94371], [-97.38707, 31.94523], [-97.38616, 31.94523], [-97.38612, 31.94752], [-97.38521, 31.94752], [-97.38521, 31.94828], [-97.38341, 31.94828], [-97.38341, 31.94904], [-97.3816, 31.94904], [-97.3816, 31.9498], [-97.3798, 31.9498], [-97.3798, 31.95056], [-97.37889, 31.95056], [-97.37883, 31.95361], [-97.37792, 31.95361], [-97.37792, 31.95437], [-97.37701, 31.95437], [-97.37701, 31.95513], [-97.37521, 31.95513], [-97.37521, 31.95589], [-97.37073, 31.95589], [-97.37077, 31.95361], [-97.37257, 31.95361], [-97.37255, 31.95513], [-97.37343, 31.95513], [-97.37432, 31.95513], [-97.37434, 31.95361], [-97.37703, 31.95361], [-97.37703, 31.95285], [-97.37616, 31.95285], [-97.37616, 31.95208], [-97.37528, 31.95208], [-97.37528, 31.95132], [-97.37441, 31.95132], [-97.37441, 31.95056], [-97.37621, 31.95056], [-97.37621, 31.95132], [-97.37709, 31.95132], [-97.37711, 31.9498], [-97.37623, 31.9498], [-97.37623, 31.94904], [-97.37536, 31.94904], [-97.37536, 31.94827], [-97.37448, 31.94827], [-97.37448, 31.94751], [-97.37361, 31.94751], [-97.37361, 31.94675], [-97.37631, 31.94675], [-97.37631, 31.94599], [-97.37543, 31.94599], [-97.37545, 31.94446], [-97.37636, 31.94446], [-97.37636, 31.94523], [-97.37811, 31.94599], [-97.37811, 31.94675], [-97.37986, 31.94751], [-97.37986, 31.94828], [-97.38162, 31.94828], [-97.38162, 31.94751], [-97.38432, 31.94751], [-97.38435, 31.94523], [-97.38527, 31.94523], [-97.38528, 31.94371], [-97.38352, 31.94371], [-97.38352, 31.94294], [-97.38177, 31.94218], [-97.38179, 31.94066], [-97.38091, 31.94066], [-97.38091, 31.93989], [-97.38272, 31.93989], [-97.3827, 31.94142], [-97.38447, 31.94142], [-97.38447, 31.94218], [-97.38621, 31.94294], [-97.38623, 31.94142], [-97.38448, 31.94066], [-97.38448, 31.9399], [-97.38361, 31.9399], [-97.38363, 31.93837], [-97.38454, 31.93837], [-97.38458, 31.93685], [-97.38458, 31.93609], [-97.3837, 31.93609], [-97.3837, 31.93532], [-97.38461, 31.93532], [-97.38463, 31.9338], [-97.38644, 31.9338], [-97.38644, 31.93456], [-97.38552, 31.93456], [-97.38545, 31.93837], [-97.38811, 31.93837], [-97.38811, 31.93913], [-97.38898, 31.93913], [-97.38898, 31.9399], [-97.38895, 31.94142]], [[-97.37891, 31.9498], [-97.37895, 31.94751], [-97.37629, 31.94751], [-97.37629, 31.94827], [-97.37716, 31.94827], [-97.37716, 31.94904], [-97.37891, 31.9498]]], [[[-97.37404, 32.0039], [-97.37313, 32.0039], [-97.37315, 32.00238], [-97.37228, 32.00238], [-97.3723, 32.00085], [-97.37053, 32.00085], [-97.37053, 32.00009], [-97.36876, 32.00009], [-97.36876, 32.00085], [-97.36964, 32.00085], [-97.36964, 32.00161], [-97.37051, 32.00161], [-97.37051, 32.00237], [-97.37138, 32.00237], [-97.37138, 32.00314], [-97.37226, 32.00314], [-97.37226, 32.0039], [-97.37046, 32.0039], [-97.37044, 32.00542], [-97.36953, 32.00542], [-97.36954, 32.0039], [-97.36867, 32.0039], [-97.36867, 32.00314], [-97.36692, 32.00237], [-97.367, 31.99856], [-97.36791, 31.99856], [-97.36793, 31.99704], [-97.36884, 31.99704], [-97.36886, 31.99552], [-97.36977, 31.99552], [-97.36977, 31.99628], [-97.37153, 31.99628], [-97.37153, 31.99704], [-97.37241, 31.99704], [-97.37241, 31.9978], [-97.37328, 31.9978], [-97.37328, 31.99857], [-97.37415, 31.99857], [-97.37414, 32.00009], [-97.37679, 32.00009], [-97.37676, 32.00238], [-97.37406, 32.00238], [-97.37404, 32.0039]]], [[[-97.41496, 32.00849], [-97.41488, 32.0123], [-97.41308, 32.0123], [-97.41308, 32.01154], [-97.41221, 32.01154], [-97.41221, 32.01078], [-97.40866, 32.01077], [-97.40866, 32.01154], [-97.40775, 32.01154], [-97.40596, 32.01153], [-97.40596, 32.01077], [-97.40152, 32.01077], [-97.40144, 32.01458], [-97.40232, 32.01458], [-97.40228, 32.01687], [-97.40137, 32.01687], [-97.40139, 32.01534], [-97.39873, 32.01534], [-97.39866, 32.01915], [-97.39775, 32.01915], [-97.39769, 32.0222], [-97.39946, 32.0222], [-97.39936, 32.02677], [-97.39845, 32.02677], [-97.39845, 32.02601], [-97.39669, 32.02601], [-97.39669, 32.02525], [-97.39581, 32.02525], [-97.39581, 32.02601], [-97.3949, 32.02601], [-97.39492, 32.02448], [-97.39405, 32.02448], [-97.39407, 32.02296], [-97.39319, 32.02296], [-97.39319, 32.0222], [-97.39143, 32.0222], [-97.39144, 32.02067], [-97.39236, 32.02067], [-97.39243, 32.01762], [-97.39243, 32.01686], [-97.39156, 32.01686], [-97.39159, 32.01458], [-97.3925, 32.01458], [-97.3925, 32.01381], [-97.39431, 32.01381], [-97.39438, 32.01001], [-97.39351, 32.01001], [-97.39351, 32.00924], [-97.39085, 32.00924], [-97.39087, 32.00772], [-97.39267, 32.00772], [-97.39271, 32.00543], [-97.39094, 32.00543], [-97.39094, 32.00467], [-97.39007, 32.00467], [-97.3901, 32.00238], [-97.39191, 32.00238], [-97.39191, 32.00162], [-97.39371, 32.00162], [-97.39371, 32.00086], [-97.39462, 32.00086], [-97.39551, 32.00086], [-97.39551, 32.00162], [-97.39726, 32.00239], [-97.39724, 32.00391], [-97.39812, 32.00391], [-97.39812, 32.00467], [-97.39721, 32.00467], [-97.39711, 32.00924], [-97.39977, 32.00925], [-97.39979, 32.00772], [-97.4007, 32.00772], [-97.40072, 32.0062], [-97.40163, 32.0062], [-97.40165, 32.00467], [-97.40434, 32.00468], [-97.40434, 32.00391], [-97.40615, 32.00391], [-97.40615, 32.00315], [-97.40706, 32.00315], [-97.40706, 32.00391], [-97.41061, 32.00392], [-97.41061, 32.00468], [-97.41148, 32.00468], [-97.41148, 32.00544], [-97.41236, 32.00544], [-97.41236, 32.0062], [-97.41323, 32.0062], [-97.41321, 32.00773], [-97.41496, 32.00849]], [[-97.39507, 32.01991], [-97.39594, 32.01991], [-97.39594, 32.02067], [-97.39682, 32.02067], [-97.39684, 32.01915], [-97.39509, 32.01839], [-97.39509, 32.01763], [-97.39421, 32.01763], [-97.3942, 32.01915], [-97.39507, 32.01915], [-97.39507, 32.01991]], [[-97.40613, 32.00544], [-97.40522, 32.00544], [-97.4052, 32.00696], [-97.40429, 32.00696], [-97.40429, 32.0062], [-97.40341, 32.0062], [-97.40252, 32.0062], [-97.40252, 32.00696], [-97.40161, 32.00696], [-97.40156, 32.01001], [-97.40421, 32.01001], [-97.40421, 32.00925], [-97.40512, 32.00925], [-97.40691, 32.00925], [-97.40691, 32.01001], [-97.40868, 32.01001], [-97.40868, 32.00925], [-97.4078, 32.00925], [-97.40782, 32.00773], [-97.40873, 32.00773], [-97.40875, 32.0062], [-97.407, 32.00544], [-97.407, 32.00468], [-97.40613, 32.00468], [-97.40613, 32.00544]], [[-97.4096, 32.00849], [-97.4096, 32.00925], [-97.41137, 32.00925], [-97.41137, 32.00849], [-97.4096, 32.00849]], [[-97.39765, 32.02296], [-97.39765, 32.0222], [-97.39678, 32.0222], [-97.39678, 32.02296], [-97.39765, 32.02296]], [[-97.39365, 32.00315], [-97.39278, 32.00315], [-97.39278, 32.00391], [-97.39365, 32.00391], [-97.39365, 32.00315]], [[-97.39674, 32.02372], [-97.39674, 32.02296], [-97.39587, 32.02296], [-97.39587, 32.02372], [-97.39674, 32.02372]], [[-97.39187, 32.00467], [-97.39274, 32.00467], [-97.39274, 32.00391], [-97.39187, 32.00391], [-97.39187, 32.00467]]], [[[-97.37538, 32.02143], [-97.37538, 32.02219], [-97.37358, 32.02219], [-97.37358, 32.02295], [-97.37178, 32.02295], [-97.3718, 32.02142], [-97.37449, 32.02143], [-97.37455, 32.01838], [-97.37367, 32.01838], [-97.37375, 32.01457], [-97.37287, 32.01457], [-97.37291, 32.01228], [-97.37116, 32.01152], [-97.37116, 32.01076], [-97.37297, 32.01076], [-97.373, 32.00847], [-97.37213, 32.00847], [-97.37213, 32.00771], [-97.37304, 32.00771], [-97.37304, 32.00695], [-97.37395, 32.00695], [-97.37382, 32.01304], [-97.37469, 32.01304], [-97.37464, 32.01609], [-97.37551, 32.01609], [-97.37549, 32.01762], [-97.37724, 32.01838], [-97.37722, 32.0199], [-97.3781, 32.0199], [-97.3781, 32.02067], [-97.37629, 32.02067], [-97.37629, 32.02143], [-97.37538, 32.02143]]]]}}]}