{"type": "FeatureCollection", "features": [{"type": "Feature", "properties": {"id": "usace-lavon", "name": "Lavon Lake", "source": "USGS PAD-US 4.1", "padusUnit": "Lavon Recreation Area"}, "geometry": {"type": "Polygon", "coordinates": [[[-96.40812, 33.24634], [-96.41134, 33.24639], [-96.41516, 33.24344], [-96.41509, 33.2379], [-96.41278, 33.23645], [-96.41021, 33.22071], [-96.40648, 33.21386], [-96.4102, 33.21175], [-96.41293, 33.20485], [-96.41913, 33.20362], [-96.4201, 33.20538], [-96.41866, 33.21286], [-96.4243, 33.21295], [-96.42783, 33.20275], [-96.4277, 33.19837], [-96.43, 33.19727], [-96.43005, 33.19366], [-96.43299, 33.19373], [-96.43217, 33.19009], [-96.42766, 33.1889], [-96.42928, 33.18271], [-96.42733, 33.18265], [-96.42732, 33.17805], [-96.43057, 33.17495], [-96.4353, 33.17539], [-96.43536, 33.17783], [-96.43971, 33.17805], [-96.44206, 33.18328], [-96.44336, 33.18347], [-96.44384, 33.18141], [-96.45308, 33.18183], [-96.46329, 33.18437], [-96.46309, 33.18855], [-96.46465, 33.18767], [-96.46792, 33.18954], [-96.47028, 33.19354], [-96.46847, 33.19445], [-96.47013, 33.19796], [-96.46922, 33.20392], [-96.47138, 33.20647], [-96.47236, 33.21277], [-96.479, 33.21317], [-96.47928, 33.20891], [-96.4815, 33.20887], [-96.48002, 33.20442], [-96.48233, 33.19487], [-96.47975, 33.19186], [-96.4792, 33.18798], [-96.4809, 33.18804], [-96.48111, 33.18547], [-96.47785, 33.18436], [-96.47854, 33.18254], [-96.47738, 33.18397], [-96.47512, 33.18116], [-96.47459, 33.17756], [-96.46983, 33.17025], [-96.46072, 33.1721], [-96.45777, 33.1688], [-96.44987, 33.16812], [-96.44952, 33.1654], [-96.44033, 33.16328], [-96.43839, 33.1561], [-96.43973, 33.15619], [-96.43884, 33.15333], [-96.44386, 33.15294], [-96.44362, 33.15631], [-96.44544, 33.15932], [-96.44709, 33.15661], [-96.45142, 33.15667], [-96.45302, 33.14595], [-96.45998, 33.14636], [-96.46365, 33.1503], [-96.46212, 33.14242], [-96.46606, 33.14458], [-96.46604, 33.14642], [-96.47144, 33.14668], [-96.47396, 33.15107], [-96.47715, 33.14998], [-96.4803, 33.15397], [-96.48032, 33.14679], [-96.47779, 33.14668], [-96.47619, 33.14452], [-96.47702, 33.14148], [-96.47097, 33.14148], [-96.47085, 33.13706], [-96.46804, 33.13931], [-96.46706, 33.13836], [-96.47196, 33.1322], [-96.47236, 33.12426], [-96.47552, 33.12992], [-96.4758, 33.12463], [-96.4792, 33.12487], [-96.47968, 33.12334], [-96.47964, 33.12141], [-96.47627, 33.12128], [-96.47686, 33.11832], [-96.47494, 33.1185], [-96.47621, 33.11518], [-96.47465, 33.11363], [-96.48035, 33.11194], [-96.47785, 33.10951], [-96.48038, 33.10864], [-96.47809, 33.10766], [-96.47853, 33.1044], [-96.47642, 33.10431], [-96.47775, 33.10263], [-96.47718, 33.09798], [-96.48035, 33.09959], [-96.47895, 33.10266], [-96.48218, 33.10194], [-96.48238, 33.10409], [-96.48394, 33.1041], [-96.48291, 33.10453], [-96.48489, 33.10661], [-96.48368, 33.11054], [-96.48459, 33.11342], [-96.48884, 33.11352], [-96.48818, 33.11821], [-96.49052, 33.11826], [-96.49344, 33.12138], [-96.49263, 33.12255], [-96.49467, 33.12434], [-96.49494, 33.12885], [-96.49883, 33.13424], [-96.49824, 33.14052], [-96.50207, 33.14063], [-96.50442, 33.13271], [-96.50328, 33.13266], [-96.50115, 33.12584], [-96.49991, 33.11934], [-96.50089, 33.11631], [-96.49875, 33.11572], [-96.49843, 33.11402], [-96.50051, 33.11211], [-96.49742, 33.11157], [-96.5004, 33.10868], [-96.49977, 33.10692], [-96.49633, 33.10756], [-96.49799, 33.10095], [-96.4962, 33.10093], [-96.49567, 33.09829], [-96.49046, 33.09809], [-96.49137, 33.0961], [-96.4893, 33.09577], [-96.48785, 33.09101], [-96.48808, 33.08484], [-96.48985, 33.08403], [-96.48895, 33.08106], [-96.48677, 33.08205], [-96.48461, 33.07751], [-96.48694, 33.07715], [-96.48698, 33.07411], [-96.48862, 33.07413], [-96.49262, 33.07896], [-96.49395, 33.07784], [-96.49452, 33.0737], [-96.49273, 33.07365], [-96.49181, 33.07051], [-96.48901, 33.06859], [-96.49175, 33.06854], [-96.49183, 33.06731], [-96.4878, 33.06304], [-96.48931, 33.05782], [-96.49554, 33.05928], [-96.49671, 33.06123], [-96.49913, 33.05827], [-96.50181, 33.05829], [-96.50161, 33.06172], [-96.50517, 33.06173], [-96.50473, 33.06383], [-96.50837, 33.0641], [-96.50679, 33.06559], [-96.50869, 33.06654], [-96.50863, 33.06972], [-96.51242, 33.06986], [-96.51122, 33.06728], [-96.512, 33.06202], [-96.50899, 33.05599], [-96.51171, 33.0558], [-96.5129, 33.05725], [-96.51513, 33.06108], [-96.51345, 33.06369], [-96.51472, 33.06994], [-96.52095, 33.06935], [-96.51824, 33.07415], [-96.52243, 33.07272], [-96.52522, 33.07613], [-96.51898, 33.08137], [-96.51967, 33.08484], [-96.51722, 33.08695], [-96.5167, 33.09071], [-96.51864, 33.09388], [-96.51805, 33.09587], [-96.52098, 33.09851], [-96.51681, 33.10381], [-96.51924, 33.11736], [-96.52206, 33.11755], [-96.5208, 33.12235], [-96.52459, 33.12263], [-96.5266, 33.12569], [-96.52881, 33.13139], [-96.52884, 33.13929], [-96.5316, 33.14015], [-96.5328, 33.13787], [-96.53597, 33.14321], [-96.53704, 33.14933], [-96.5417, 33.15005], [-96.54163, 33.15168], [-96.55353, 33.16029], [-96.55375, 33.16545], [-96.55142, 33.16808], [-96.55932, 33.17459], [-96.56511, 33.17393], [-96.56559, 33.17636], [-96.56394, 33.17581], [-96.56274, 33.17735], [-96.56646, 33.17622], [-96.56712, 33.17797], [-96.56699, 33.17619], [-96.56884, 33.17636], [-96.57001, 33.16993], [-96.56336, 33.16769], [-96.56105, 33.16043], [-96.55941, 33.16039], [-96.55735, 33.15514], [-96.55629, 33.14603], [-96.55223, 33.14489], [-96.55234, 33.14159], [-96.55266, 33.13944], [-96.55668, 33.13776], [-96.55776, 33.1356], [-96.56708, 33.13799], [-96.57116, 33.13748], [-96.57129, 33.13124], [-96.56583, 33.13057], [-96.55925, 33.12475], [-96.5594, 33.12294], [-96.55253, 33.11812], [-96.55019, 33.11437], [-96.55129, 33.11226], [-96.54278, 33.1077], [-96.54322, 33.10022], [-96.5395, 33.09964], [-96.54026, 33.09231], [-96.53737, 33.08961], [-96.53897, 33.08952], [-96.53911, 33.08596], [-96.5419, 33.08571], [-96.54267, 33.09153], [-96.54614, 33.09381], [-96.54604, 33.096], [-96.54785, 33.09608], [-96.54846, 33.09967], [-96.55041, 33.10086], [-96.55289, 33.09991], [-96.5558, 33.10371], [-96.55731, 33.10377], [-96.5564, 33.10018], [-96.5581, 33.10022], [-96.56122, 33.10254], [-96.561, 33.10393], [-96.56454, 33.10405], [-96.5643, 33.10528], [-96.566, 33.10131], [-96.5633, 33.09994], [-96.56427, 33.09919], [-96.56118, 33.0962], [-96.55341, 33.09428], [-96.54983, 33.08805], [-96.5516, 33.0877], [-96.5505, 33.08658], [-96.55448, 33.08586], [-96.55675, 33.08704], [-96.55682, 33.08567], [-96.56193, 33.08594], [-96.56275, 33.08404], [-96.56114, 33.08327], [-96.56433, 33.08068], [-96.55519, 33.08207], [-96.55252, 33.07839], [-96.5503, 33.08025], [-96.54974, 33.07201], [-96.55219, 33.073], [-96.55224, 33.07148], [-96.55917, 33.06813], [-96.55109, 33.06799], [-96.55532, 33.06178], [-96.54589, 33.06622], [-96.54149, 33.06215], [-96.54591, 33.06194], [-96.5474, 33.0598], [-96.54496, 33.06017], [-96.54535, 33.05769], [-96.53639, 33.05944], [-96.53677, 33.05782], [-96.54191, 33.05515], [-96.54051, 33.05256], [-96.53679, 33.05199], [-96.53312, 33.0535], [-96.53471, 33.05161], [-96.53516, 33.04604], [-96.54375, 33.04851], [-96.54216, 33.04573], [-96.54749, 33.04601], [-96.54518, 33.04285], [-96.54602, 33.04152], [-96.54294, 33.04282], [-96.54314, 33.0375], [-96.53838, 33.03734], [-96.53852, 33.03411], [-96.53262, 33.03685], [-96.53236, 33.03434], [-96.5297, 33.03202], [-96.52762, 33.03559], [-96.52544, 33.03549], [-96.52545, 33.0302], [-96.52378, 33.03014], [-96.52283, 33.03261], [-96.5209, 33.03185], [-96.52095, 33.03298], [-96.51552, 33.03408], [-96.51455, 33.03159], [-96.513, 33.03446], [-96.51018, 33.03447], [-96.50908, 33.03108], [-96.50689, 33.03276], [-96.50608, 33.03617], [-96.50408, 33.03692], [-96.50569, 33.03733], [-96.50272, 33.03748], [-96.50098, 33.04133], [-96.50129, 33.03499], [-96.50042, 33.0401], [-96.49734, 33.04049], [-96.48086, 33.02566], [-96.46944, 33.02216], [-96.46087, 33.02266], [-96.4535, 33.02688], [-96.44094, 33.02641], [-96.441, 33.02983], [-96.44367, 33.03024], [-96.44338, 33.03845], [-96.44135, 33.04341], [-96.43713, 33.04757], [-96.43579, 33.04753], [-96.4359, 33.04377], [-96.43075, 33.04362], [-96.42661, 33.04615], [-96.42578, 33.04838], [-96.42276, 33.04762], [-96.42221, 33.05021], [-96.41416, 33.05002], [-96.41181, 33.05416], [-96.41397, 33.05504], [-96.39877, 33.05818], [-96.41124, 33.06005], [-96.40584, 33.06542], [-96.40437, 33.06786], [-96.40578, 33.06867], [-96.41571, 33.06263], [-96.41768, 33.06845], [-96.41677, 33.06458], [-96.41835, 33.06378], [-96.41826, 33.06058], [-96.42262, 33.06038], [-96.42285, 33.06164], [-96.42341, 33.05928], [-96.42665, 33.05722], [-96.42895, 33.05722], [-96.42945, 33.06047], [-96.4308, 33.05893], [-96.4361, 33.05916], [-96.43604, 33.06064], [-96.43845, 33.06076], [-96.4442, 33.05559], [-96.44025, 33.06185], [-96.44079, 33.06316], [-96.44681, 33.06041], [-96.4454, 33.05978], [-96.44741, 33.05794], [-96.45041, 33.05811], [-96.4543, 33.05563], [-96.45077, 33.06106], [-96.45525, 33.06207], [-96.45015, 33.06497], [-96.44961, 33.06685], [-96.4536, 33.06698], [-96.45367, 33.06982], [-96.45072, 33.07177], [-96.45223, 33.07183], [-96.45411, 33.07606], [-96.45617, 33.07613], [-96.45612, 33.07804], [-96.45034, 33.07715], [-96.45169, 33.0811], [-96.45008, 33.08247], [-96.45165, 33.08286], [-96.45159, 33.08549], [-96.44589, 33.08507], [-96.44947, 33.08805], [-96.44516, 33.0883], [-96.44327, 33.08483], [-96.44186, 33.08661], [-96.44343, 33.08951], [-96.43791, 33.09042], [-96.43875, 33.08669], [-96.4363, 33.08665], [-96.43473, 33.08288], [-96.43255, 33.08782], [-96.43124, 33.08779], [-96.43024, 33.08289], [-96.42658, 33.08915], [-96.42424, 33.08638], [-96.42408, 33.0918], [-96.41915, 33.08955], [-96.41768, 33.08708], [-96.4176, 33.09057], [-96.41344, 33.09123], [-96.41222, 33.0948], [-96.40629, 33.10005], [-96.40491, 33.10479], [-96.40122, 33.10635], [-96.39476, 33.10549], [-96.39414, 33.10759], [-96.3968, 33.10899], [-96.39672, 33.11117], [-96.39062, 33.11478], [-96.39046, 33.12018], [-96.3923, 33.12021], [-96.39066, 33.12189], [-96.39241, 33.12309], [-96.39799, 33.11968], [-96.40448, 33.11207], [-96.40767, 33.11534], [-96.41071, 33.11023], [-96.41598, 33.10754], [-96.41792, 33.10323], [-96.42451, 33.10319], [-96.42533, 33.09937], [-96.43062, 33.10031], [-96.43024, 33.10335], [-96.43364, 33.10342], [-96.4343, 33.10142], [-96.43635, 33.10143], [-96.43871, 33.10342], [-96.44322, 33.10362], [-96.44314, 33.10712], [-96.44515, 33.10767], [-96.44361, 33.10885], [-96.44736, 33.1109], [-96.44317, 33.11315], [-96.44399, 33.11434], [-96.44731, 33.11468], [-96.45074, 33.11187], [-96.45013, 33.11082], [-96.45221, 33.11034], [-96.45233, 33.11893], [-96.44718, 33.11732], [-96.44659, 33.1198], [-96.44276, 33.12091], [-96.4428, 33.11926], [-96.43599, 33.11582], [-96.43586, 33.11904], [-96.43364, 33.1193], [-96.43302, 33.12095], [-96.43688, 33.12099], [-96.43678, 33.12396], [-96.43013, 33.12599], [-96.433, 33.12745], [-96.43593, 33.12609], [-96.43667, 33.12756], [-96.43274, 33.13445], [-96.42078, 33.1342], [-96.41849, 33.13118], [-96.41783, 33.13784], [-96.41568, 33.1373], [-96.41321, 33.13365], [-96.4109, 33.13505], [-96.41195, 33.13946], [-96.40985, 33.14827], [-96.40669, 33.14664], [-96.40675, 33.14999], [-96.40365, 33.15399], [-96.41015, 33.15418], [-96.41369, 33.15968], [-96.41048, 33.15981], [-96.40928, 33.16822], [-96.41063, 33.16908], [-96.40627, 33.17167], [-96.40502, 33.17903], [-96.40272, 33.18305], [-96.39991, 33.18338], [-96.40047, 33.1854], [-96.40409, 33.18542], [-96.404, 33.18856], [-96.39943, 33.18973], [-96.3967, 33.19323], [-96.39579, 33.19948], [-96.39185, 33.2009], [-96.39233, 33.21202], [-96.39023, 33.21486], [-96.3827, 33.21477], [-96.37913, 33.21738], [-96.37389, 33.21839], [-96.37395, 33.22847], [-96.37897, 33.22751], [-96.37929, 33.2253], [-96.38193, 33.22405], [-96.38514, 33.22949], [-96.38723, 33.22957], [-96.39009, 33.22627], [-96.39419, 33.22805], [-96.40007, 33.22741], [-96.40247, 33.23149], [-96.4013, 33.23703], [-96.40656, 33.24219], [-96.40812, 33.24634]]]}}]}