{"type": "FeatureCollection", "features": [{"type": "Feature", "properties": {"id": "usace-belton", "name": "Belton Lake", "source": "USGS PAD-US 4.1", "padusUnit": "Belton Recreation Area"}, "geometry": {"type": "MultiPolygon", "coordinates": [[[[-97.42258, 31.17011], [-97.41812, 31.16821], [-97.42051, 31.16435], [-97.42258, 31.17011]]], [[[-97.3959, 31.16826], [-97.39577, 31.16772], [-97.39656, 31.1676], [-97.3959, 31.16826]]], [[[-97.40691, 31.17238], [-97.39893, 31.17392], [-97.40007, 31.16665], [-97.40425, 31.16849], [-97.40482, 31.16683], [-97.40874, 31.16733], [-97.41582, 31.17007], [-97.41375, 31.17454], [-97.40691, 31.17238]]], [[[-97.41727, 31.16861], [-97.42624, 31.17267], [-97.41762, 31.18173], [-97.41423, 31.18039], [-97.41324, 31.17696], [-97.41727, 31.16861]]], [[[-97.51905, 31.23236], [-97.51567, 31.22856], [-97.5152, 31.23023], [-97.51426, 31.22767], [-97.51151, 31.22948], [-97.51345, 31.22735], [-97.51102, 31.22651], [-97.51162, 31.22488], [-97.50799, 31.21756], [-97.51029, 31.21365], [-97.50671, 31.21051], [-97.50408, 31.21587], [-97.50523, 31.22333], [-97.50828, 31.22433], [-97.50557, 31.22957], [-97.50694, 31.23435], [-97.50575, 31.23672], [-97.50071, 31.23219], [-97.50174, 31.22584], [-97.49875, 31.22608], [-97.49848, 31.2232], [-97.49985, 31.22206], [-97.49869, 31.21893], [-97.49541, 31.2192], [-97.49394, 31.21695], [-97.496, 31.21167], [-97.4933, 31.21087], [-97.48959, 31.22347], [-97.48192, 31.22104], [-97.48013, 31.2237], [-97.48186, 31.22442], [-97.48096, 31.22645], [-97.48663, 31.22954], [-97.48005, 31.22692], [-97.48007, 31.23357], [-97.47268, 31.2316], [-97.47039, 31.23732], [-97.46701, 31.23751], [-97.46823, 31.23992], [-97.4691, 31.23901], [-97.47104, 31.24744], [-97.47397, 31.25088], [-97.47595, 31.25043], [-97.47511, 31.25255], [-97.47614, 31.25319], [-97.47959, 31.24959], [-97.47991, 31.25363], [-97.47738, 31.25304], [-97.47855, 31.25429], [-97.4774, 31.25511], [-97.48324, 31.25996], [-97.48023, 31.27123], [-97.48161, 31.27259], [-97.4783, 31.26945], [-97.47508, 31.27255], [-97.47605, 31.27282], [-97.47349, 31.28162], [-97.48055, 31.28663], [-97.48133, 31.28471], [-97.48634, 31.28411], [-97.48567, 31.28577], [-97.48781, 31.28657], [-97.49053, 31.28468], [-97.48894, 31.28741], [-97.49143, 31.28769], [-97.49148, 31.28952], [-97.50028, 31.28864], [-97.49928, 31.29295], [-97.50185, 31.30056], [-97.50015, 31.30413], [-97.49496, 31.30494], [-97.48718, 31.3029], [-97.48674, 31.30414], [-97.47768, 31.3032], [-97.47386, 31.30444], [-97.47537, 31.30306], [-97.472, 31.3028], [-97.4663, 31.3062], [-97.46593, 31.31081], [-97.46596, 31.3078], [-97.46341, 31.30451], [-97.46715, 31.29791], [-97.46785, 31.29984], [-97.4702, 31.29975], [-97.47033, 31.29763], [-97.47173, 31.29947], [-97.47685, 31.29954], [-97.48005, 31.29641], [-97.47841, 31.29465], [-97.48427, 31.29622], [-97.48541, 31.29326], [-97.47719, 31.29243], [-97.47383, 31.28796], [-97.47135, 31.28931], [-97.46892, 31.28779], [-97.47043, 31.28756], [-97.47058, 31.28551], [-97.46885, 31.28542], [-97.46794, 31.28243], [-97.46574, 31.28587], [-97.46346, 31.28524], [-97.46608, 31.28203], [-97.46454, 31.28106], [-97.46524, 31.27914], [-97.46759, 31.27964], [-97.46811, 31.27731], [-97.46829, 31.27405], [-97.46558, 31.27331], [-97.46871, 31.27339], [-97.47229, 31.26834], [-97.47038, 31.26761], [-97.47152, 31.26669], [-97.47073, 31.26285], [-97.46827, 31.26537], [-97.46848, 31.26312], [-97.46996, 31.26109], [-97.47606, 31.26245], [-97.4768, 31.26015], [-97.47, 31.25814], [-97.46995, 31.25936], [-97.4671, 31.25724], [-97.4654, 31.25871], [-97.46631, 31.25538], [-97.46367, 31.25323], [-97.46204, 31.25483], [-97.46265, 31.25227], [-97.46078, 31.25038], [-97.45872, 31.24265], [-97.45768, 31.24311], [-97.45851, 31.24186], [-97.45638, 31.23493], [-97.45239, 31.23637], [-97.45384, 31.24225], [-97.45303, 31.24769], [-97.45506, 31.24917], [-97.4523, 31.24864], [-97.45164, 31.25213], [-97.44647, 31.25434], [-97.4512, 31.25181], [-97.45015, 31.25068], [-97.45082, 31.24313], [-97.44918, 31.23953], [-97.44679, 31.24101], [-97.4497, 31.23491], [-97.45372, 31.23218], [-97.45178, 31.2313], [-97.45393, 31.23076], [-97.45457, 31.2275], [-97.44691, 31.22218], [-97.447, 31.21994], [-97.44091, 31.22022], [-97.44683, 31.2182], [-97.44689, 31.2137], [-97.44963, 31.21584], [-97.4483, 31.21894], [-97.45362, 31.22189], [-97.45495, 31.22068], [-97.45428, 31.22419], [-97.45675, 31.22469], [-97.45728, 31.22327], [-97.46179, 31.2239], [-97.4619, 31.21837], [-97.4658, 31.21722], [-97.46951, 31.21877], [-97.47239, 31.21617], [-97.47337, 31.2174], [-97.47675, 31.21555], [-97.47787, 31.20946], [-97.47619, 31.20899], [-97.47569, 31.20468], [-97.47395, 31.20422], [-97.47609, 31.20195], [-97.47426, 31.19979], [-97.47494, 31.19858], [-97.47944, 31.19974], [-97.4794, 31.20195], [-97.48555, 31.20164], [-97.48527, 31.1957], [-97.48793, 31.19583], [-97.4873, 31.19771], [-97.48861, 31.19902], [-97.49179, 31.19505], [-97.49098, 31.19893], [-97.49376, 31.20285], [-97.49552, 31.20188], [-97.49344, 31.19982], [-97.4941, 31.19762], [-97.49974, 31.20131], [-97.50227, 31.20031], [-97.50008, 31.19801], [-97.50186, 31.19878], [-97.50281, 31.19716], [-97.49967, 31.19512], [-97.50182, 31.19283], [-97.49686, 31.19171], [-97.50124, 31.18987], [-97.49689, 31.18878], [-97.50153, 31.18605], [-97.49928, 31.17439], [-97.49493, 31.17346], [-97.49654, 31.17941], [-97.49406, 31.17767], [-97.49351, 31.17924], [-97.48905, 31.17802], [-97.48689, 31.18001], [-97.48891, 31.18152], [-97.48775, 31.18152], [-97.48737, 31.18499], [-97.4847, 31.18101], [-97.48377, 31.18225], [-97.48148, 31.18107], [-97.47942, 31.18183], [-97.48181, 31.187], [-97.47966, 31.18527], [-97.47924, 31.18818], [-97.4788, 31.1837], [-97.47714, 31.18288], [-97.4745, 31.18808], [-97.47372, 31.1834], [-97.4694, 31.18435], [-97.47053, 31.18226], [-97.46926, 31.17875], [-97.46771, 31.17765], [-97.4671, 31.17954], [-97.46701, 31.17741], [-97.46529, 31.17778], [-97.46658, 31.17591], [-97.46458, 31.17302], [-97.46123, 31.17425], [-97.46496, 31.16846], [-97.46324, 31.16354], [-97.46018, 31.1627], [-97.45963, 31.16391], [-97.46181, 31.16975], [-97.45818, 31.17176], [-97.45673, 31.18115], [-97.45628, 31.17493], [-97.45479, 31.1745], [-97.45562, 31.17271], [-97.45186, 31.16889], [-97.44991, 31.17044], [-97.44695, 31.16961], [-97.44426, 31.17316], [-97.44316, 31.16974], [-97.44133, 31.16882], [-97.43779, 31.16969], [-97.43722, 31.16788], [-97.43504, 31.16946], [-97.43725, 31.16639], [-97.43484, 31.16342], [-97.43149, 31.16561], [-97.42629, 31.16368], [-97.42792, 31.1624], [-97.43071, 31.16395], [-97.43577, 31.16249], [-97.43787, 31.1648], [-97.43912, 31.16329], [-97.44628, 31.16547], [-97.45391, 31.16465], [-97.45681, 31.1638], [-97.4588, 31.16062], [-97.45673, 31.16078], [-97.45786, 31.1588], [-97.45273, 31.15756], [-97.45394, 31.15761], [-97.45221, 31.1557], [-97.45465, 31.15752], [-97.45587, 31.15736], [-97.45494, 31.15555], [-97.45713, 31.15719], [-97.45858, 31.15466], [-97.45794, 31.15688], [-97.45994, 31.15876], [-97.46222, 31.15687], [-97.46544, 31.15691], [-97.46286, 31.16023], [-97.46573, 31.16209], [-97.46818, 31.15992], [-97.46842, 31.16155], [-97.47301, 31.16008], [-97.47521, 31.16182], [-97.4754, 31.16005], [-97.477, 31.16098], [-97.47829, 31.15932], [-97.47787, 31.15767], [-97.48081, 31.16012], [-97.48339, 31.16032], [-97.48404, 31.15799], [-97.486, 31.15976], [-97.48904, 31.1577], [-97.49747, 31.15963], [-97.49973, 31.15849], [-97.5004, 31.15555], [-97.49857, 31.15506], [-97.4984, 31.1571], [-97.49592, 31.15519], [-97.49445, 31.15724], [-97.49338, 31.15396], [-97.48839, 31.15558], [-97.48945, 31.15295], [-97.48682, 31.15341], [-97.48488, 31.15191], [-97.48399, 31.15424], [-97.48271, 31.15301], [-97.48096, 31.15385], [-97.48123, 31.15234], [-97.47983, 31.15211], [-97.48125, 31.15007], [-97.47753, 31.14982], [-97.47541, 31.14483], [-97.47158, 31.15023], [-97.47031, 31.14982], [-97.47228, 31.14384], [-97.46736, 31.14596], [-97.46828, 31.1429], [-97.46417, 31.14353], [-97.46505, 31.14273], [-97.45965, 31.14121], [-97.4665, 31.13991], [-97.46603, 31.13657], [-97.46876, 31.14078], [-97.47061, 31.13946], [-97.47343, 31.14032], [-97.47435, 31.13864], [-97.47306, 31.13741], [-97.47649, 31.13618], [-97.47689, 31.13351], [-97.48035, 31.13601], [-97.48115, 31.13387], [-97.48299, 31.13438], [-97.48221, 31.13639], [-97.48764, 31.13817], [-97.49039, 31.13494], [-97.49227, 31.13657], [-97.49338, 31.13578], [-97.4931, 31.1379], [-97.49529, 31.13735], [-97.4962, 31.13505], [-97.49321, 31.1328], [-97.49548, 31.1291], [-97.49298, 31.12684], [-97.49317, 31.12146], [-97.49055, 31.1188], [-97.48947, 31.12689], [-97.48718, 31.12443], [-97.48667, 31.12646], [-97.48511, 31.1253], [-97.48367, 31.12666], [-97.48529, 31.12297], [-97.48344, 31.12068], [-97.48464, 31.11893], [-97.4799, 31.11418], [-97.47631, 31.1203], [-97.47521, 31.11807], [-97.46717, 31.11579], [-97.46659, 31.11765], [-97.46326, 31.11667], [-97.46517, 31.11054], [-97.46086, 31.10719], [-97.46154, 31.10583], [-97.4572, 31.10639], [-97.4589, 31.10213], [-97.46116, 31.10462], [-97.46771, 31.10388], [-97.47155, 31.09887], [-97.4844, 31.1022], [-97.48411, 31.10446], [-97.48696, 31.10459], [-97.48834, 31.10202], [-97.49009, 31.10442], [-97.48691, 31.10793], [-97.48862, 31.10855], [-97.49313, 31.10443], [-97.49225, 31.10731], [-97.49572, 31.10612], [-97.49447, 31.1086], [-97.49912, 31.10977], [-97.50016, 31.10686], [-97.50548, 31.10842], [-97.51365, 31.10556], [-97.51363, 31.10818], [-97.51741, 31.11003], [-97.51424, 31.11161], [-97.51486, 31.11461], [-97.52047, 31.11414], [-97.52531, 31.11729], [-97.52027, 31.11982], [-97.52249, 31.12119], [-97.52209, 31.1227], [-97.52473, 31.12321], [-97.52435, 31.1246], [-97.517, 31.1253], [-97.51989, 31.12764], [-97.5225, 31.12766], [-97.52183, 31.1324], [-97.52406, 31.13256], [-97.52763, 31.12889], [-97.53234, 31.13158], [-97.52779, 31.13233], [-97.52833, 31.13568], [-97.526, 31.1391], [-97.52768, 31.13976], [-97.53263, 31.13598], [-97.5335, 31.13829], [-97.5366, 31.13704], [-97.53645, 31.14032], [-97.53892, 31.14011], [-97.54028, 31.13751], [-97.53985, 31.13306], [-97.543, 31.13549], [-97.5466, 31.13311], [-97.54909, 31.13389], [-97.54788, 31.13605], [-97.55138, 31.14049], [-97.5553, 31.13579], [-97.55803, 31.14181], [-97.55582, 31.14568], [-97.56041, 31.14492], [-97.56523, 31.14737], [-97.57054, 31.14542], [-97.57399, 31.14931], [-97.57924, 31.14835], [-97.58153, 31.14992], [-97.57587, 31.15548], [-97.57679, 31.15815], [-97.57759, 31.15564], [-97.58297, 31.15747], [-97.58388, 31.15868], [-97.58073, 31.16156], [-97.58525, 31.16421], [-97.58443, 31.16662], [-97.58715, 31.1673], [-97.5867, 31.16863], [-97.59269, 31.16892], [-97.59694, 31.17325], [-97.60164, 31.17291], [-97.60221, 31.17124], [-97.60562, 31.17211], [-97.60469, 31.17492], [-97.60844, 31.17723], [-97.61324, 31.18392], [-97.61392, 31.18807], [-97.6169, 31.18926], [-97.62233, 31.18716], [-97.6263, 31.18814], [-97.62911, 31.18512], [-97.63089, 31.18624], [-97.63221, 31.18455], [-97.63865, 31.18567], [-97.63235, 31.18731], [-97.63158, 31.18956], [-97.62663, 31.19163], [-97.63115, 31.19562], [-97.63245, 31.19366], [-97.63238, 31.19626], [-97.63666, 31.19923], [-97.63833, 31.19476], [-97.64235, 31.19596], [-97.64104, 31.19893], [-97.64755, 31.20174], [-97.64997, 31.20865], [-97.65853, 31.20997], [-97.65853, 31.21127], [-97.65582, 31.21135], [-97.65713, 31.21787], [-97.66278, 31.21722], [-97.66216, 31.21811], [-97.66738, 31.22007], [-97.67067, 31.21986], [-97.67196, 31.21716], [-97.67247, 31.21909], [-97.67771, 31.21736], [-97.68521, 31.21802], [-97.69343, 31.21277], [-97.71143, 31.20834], [-97.71583, 31.20496], [-97.71724, 31.2014], [-97.72292, 31.20231], [-97.72418, 31.20514], [-97.71975, 31.20297], [-97.71255, 31.20994], [-97.70498, 31.21088], [-97.70185, 31.21616], [-97.69451, 31.21818], [-97.68362, 31.22531], [-97.67748, 31.2229], [-97.66925, 31.22929], [-97.66046, 31.2269], [-97.66042, 31.2228], [-97.65527, 31.22429], [-97.64949, 31.22325], [-97.64879, 31.2189], [-97.64992, 31.21737], [-97.64659, 31.21586], [-97.64178, 31.2167], [-97.64067, 31.21882], [-97.63707, 31.21774], [-97.63928, 31.21659], [-97.64, 31.2112], [-97.63461, 31.20952], [-97.63525, 31.20776], [-97.63095, 31.2069], [-97.63129, 31.20492], [-97.62838, 31.20357], [-97.62897, 31.20205], [-97.62521, 31.20085], [-97.62444, 31.20312], [-97.62243, 31.20259], [-97.62226, 31.19975], [-97.61868, 31.199], [-97.61807, 31.20368], [-97.61346, 31.20225], [-97.61428, 31.19887], [-97.61123, 31.19748], [-97.61057, 31.19919], [-97.60775, 31.19673], [-97.60725, 31.19837], [-97.60484, 31.19891], [-97.60593, 31.19547], [-97.60498, 31.193], [-97.59962, 31.19155], [-97.6005, 31.1892], [-97.59255, 31.18855], [-97.59158, 31.18701], [-97.58108, 31.18422], [-97.57934, 31.18767], [-97.58087, 31.19396], [-97.57492, 31.19239], [-97.57347, 31.18426], [-97.57215, 31.18451], [-97.57047, 31.18924], [-97.56798, 31.18854], [-97.56862, 31.17728], [-97.56497, 31.17712], [-97.56472, 31.17245], [-97.55781, 31.1719], [-97.55892, 31.17035], [-97.55711, 31.16887], [-97.56092, 31.16824], [-97.55875, 31.16375], [-97.55613, 31.16306], [-97.55704, 31.16049], [-97.53656, 31.15461], [-97.53397, 31.15629], [-97.53241, 31.15339], [-97.52465, 31.15117], [-97.52339, 31.15444], [-97.51898, 31.14958], [-97.5116, 31.14927], [-97.51084, 31.15132], [-97.51378, 31.15208], [-97.51365, 31.15549], [-97.52625, 31.15732], [-97.51811, 31.15999], [-97.5174, 31.16184], [-97.52231, 31.16326], [-97.53235, 31.16212], [-97.52821, 31.16576], [-97.53279, 31.16929], [-97.53003, 31.1707], [-97.52404, 31.16679], [-97.52061, 31.16702], [-97.52223, 31.17018], [-97.52512, 31.17109], [-97.52364, 31.17533], [-97.52606, 31.17603], [-97.52549, 31.1775], [-97.52929, 31.17777], [-97.52997, 31.18113], [-97.52802, 31.18196], [-97.52612, 31.17983], [-97.52346, 31.18065], [-97.52147, 31.17805], [-97.51993, 31.1786], [-97.51876, 31.1741], [-97.50612, 31.17068], [-97.50914, 31.17482], [-97.50634, 31.17566], [-97.50803, 31.17868], [-97.51105, 31.17874], [-97.50886, 31.18458], [-97.51444, 31.18223], [-97.51434, 31.18472], [-97.51555, 31.18443], [-97.51456, 31.18714], [-97.52083, 31.18961], [-97.51823, 31.19025], [-97.51814, 31.19191], [-97.51012, 31.18823], [-97.50865, 31.19012], [-97.51446, 31.19374], [-97.51219, 31.19377], [-97.51162, 31.19585], [-97.51513, 31.19843], [-97.51359, 31.20061], [-97.51653, 31.20095], [-97.51322, 31.20385], [-97.51116, 31.20251], [-97.51087, 31.20451], [-97.51299, 31.20492], [-97.51478, 31.20801], [-97.52056, 31.20757], [-97.52871, 31.20439], [-97.52486, 31.20829], [-97.54272, 31.21395], [-97.54228, 31.21506], [-97.53369, 31.21425], [-97.52791, 31.21191], [-97.52578, 31.21221], [-97.5274, 31.21412], [-97.52419, 31.21276], [-97.51829, 31.21446], [-97.5193, 31.21831], [-97.5233, 31.21945], [-97.522, 31.22275], [-97.52288, 31.22403], [-97.53206, 31.22339], [-97.54109, 31.22836], [-97.54626, 31.22881], [-97.56543, 31.23554], [-97.56349, 31.24051], [-97.56283, 31.23863], [-97.55564, 31.23675], [-97.54596, 31.2306], [-97.54552, 31.23212], [-97.54113, 31.23163], [-97.53681, 31.22932], [-97.53572, 31.23174], [-97.52901, 31.2303], [-97.53377, 31.2349], [-97.52812, 31.23108], [-97.52726, 31.23327], [-97.52265, 31.23509], [-97.52347, 31.23644], [-97.52081, 31.23684], [-97.52181, 31.23215], [-97.51905, 31.23236]]], [[[-97.53532, 31.23259], [-97.53356, 31.23149], [-97.53404, 31.23155], [-97.53532, 31.23259]]], [[[-97.48295, 31.26466], [-97.48272, 31.26486], [-97.48244, 31.2647], [-97.48295, 31.26466]]]]}}]}