{"type": "FeatureCollection", "features": [{"type": "Feature", "properties": {"id": "usace-benbrook", "name": "Benbrook Lake", "source": "USGS PAD-US 4.1", "padusUnit": "Benbrook Recreation Area"}, "geometry": {"type": "MultiPolygon", "coordinates": [[[[-97.45583, 32.58873], [-97.45308, 32.58262], [-97.45651, 32.58634], [-97.4564, 32.5887], [-97.45583, 32.58873]]], [[[-97.4564, 32.5887], [-97.4564, 32.5887], [-97.4565, 32.5887], [-97.4564, 32.5887]]], [[[-97.50906, 32.59632], [-97.50951, 32.59506], [-97.50909, 32.5972], [-97.50906, 32.59632]]], [[[-97.46058, 32.59759], [-97.46469, 32.6035], [-97.46951, 32.60408], [-97.47799, 32.59429], [-97.47808, 32.59145], [-97.48133, 32.58869], [-97.48257, 32.58938], [-97.48181, 32.59049], [-97.48763, 32.583], [-97.48264, 32.59014], [-97.48558, 32.5913], [-97.48309, 32.60277], [-97.48561, 32.6055], [-97.49093, 32.60101], [-97.49569, 32.60218], [-97.50869, 32.59746], [-97.50821, 32.59894], [-97.50214, 32.60104], [-97.50396, 32.60105], [-97.50401, 32.60578], [-97.50245, 32.60579], [-97.50323, 32.61202], [-97.50984, 32.60641], [-97.51062, 32.60762], [-97.50889, 32.60982], [-97.517, 32.61486], [-97.51739, 32.60336], [-97.52182, 32.60821], [-97.52528, 32.6095], [-97.53204, 32.60871], [-97.53204, 32.61614], [-97.53364, 32.61615], [-97.53364, 32.6182], [-97.52795, 32.62082], [-97.52519, 32.6187], [-97.519, 32.61862], [-97.51244, 32.61353], [-97.50893, 32.61334], [-97.50907, 32.61691], [-97.49891, 32.61655], [-97.49888, 32.61915], [-97.49668, 32.61915], [-97.49274, 32.62327], [-97.48966, 32.62304], [-97.49113, 32.6256], [-97.48317, 32.62564], [-97.48306, 32.62833], [-97.4886, 32.63048], [-97.48813, 32.63264], [-97.49157, 32.63711], [-97.48875, 32.63706], [-97.48189, 32.63279], [-97.4784, 32.63364], [-97.47809, 32.63628], [-97.48026, 32.6375], [-97.48027, 32.63992], [-97.47532, 32.63828], [-97.47453, 32.64094], [-97.47705, 32.64226], [-97.47408, 32.64377], [-97.48217, 32.64738], [-97.48225, 32.64919], [-97.47734, 32.64919], [-97.47756, 32.65539], [-97.48074, 32.65716], [-97.48535, 32.65603], [-97.48582, 32.65809], [-97.4906, 32.65878], [-97.47363, 32.66901], [-97.47108, 32.66481], [-97.46798, 32.66354], [-97.44528, 32.6654], [-97.44301, 32.66053], [-97.44587, 32.65226], [-97.44175, 32.64667], [-97.44194, 32.6439], [-97.44397, 32.64234], [-97.44666, 32.64415], [-97.44785, 32.64332], [-97.44647, 32.64148], [-97.4395, 32.64236], [-97.4375, 32.63968], [-97.43396, 32.64218], [-97.43392, 32.64048], [-97.43016, 32.63997], [-97.43674, 32.6364], [-97.43229, 32.63657], [-97.43267, 32.63277], [-97.42933, 32.6337], [-97.42895, 32.63086], [-97.42483, 32.63112], [-97.42762, 32.62846], [-97.41994, 32.62793], [-97.42247, 32.62384], [-97.42625, 32.62518], [-97.42638, 32.62139], [-97.42749, 32.62123], [-97.42833, 32.62491], [-97.4297, 32.62388], [-97.43041, 32.62576], [-97.43245, 32.62601], [-97.43166, 32.62204], [-97.43291, 32.62246], [-97.43499, 32.62472], [-97.43397, 32.62534], [-97.43594, 32.62993], [-97.43814, 32.62986], [-97.43995, 32.63236], [-97.44218, 32.63178], [-97.44173, 32.62953], [-97.43782, 32.62806], [-97.43929, 32.6243], [-97.43701, 32.61658], [-97.44032, 32.6223], [-97.44232, 32.62003], [-97.44295, 32.62088], [-97.44221, 32.626], [-97.44511, 32.62346], [-97.44557, 32.62825], [-97.44758, 32.62853], [-97.44637, 32.63042], [-97.45138, 32.63218], [-97.44942, 32.63059], [-97.4508, 32.62888], [-97.4504, 32.62579], [-97.45454, 32.63078], [-97.45562, 32.62708], [-97.45388, 32.62428], [-97.45708, 32.6253], [-97.4578, 32.62281], [-97.45659, 32.62148], [-97.46063, 32.62093], [-97.46085, 32.61902], [-97.45651, 32.61893], [-97.45819, 32.61566], [-97.46015, 32.61531], [-97.45724, 32.61265], [-97.45362, 32.61491], [-97.45623, 32.60943], [-97.4465, 32.6072], [-97.44653, 32.60372], [-97.45298, 32.60457], [-97.45305, 32.5972], [-97.45095, 32.5972], [-97.45103, 32.59053], [-97.45504, 32.5905], [-97.4564, 32.5887], [-97.45625, 32.59219], [-97.45798, 32.58898], [-97.45691, 32.59543], [-97.45833, 32.59804], [-97.46058, 32.59759]], [[-97.48094, 32.59128], [-97.47861, 32.59173], [-97.47861, 32.59358], [-97.47935, 32.59272], [-97.48094, 32.59128]]]]}}]}