{"type": "FeatureCollection", "features": [{"type": "Feature", "properties": {"id": "usace-wright-patman", "name": "Wright Patman Lake", "source": "USGS PAD-US 4.1", "padusUnit": "Wright Patman Recreation Area", "closedNames": ["Atlanta State Park"], "boundarySource": "pad-us-minus-closed"}, "geometry": {"type": "MultiPolygon", "coordinates": [[[[-94.47834, 33.24956], [-94.47833, 33.25847], [-94.48362, 33.25854], [-94.48363, 33.26798], [-94.47828, 33.26798], [-94.47829, 33.26276], [-94.47236, 33.26279], [-94.47241, 33.2516], [-94.47834, 33.24956]]], [[[-94.409, 33.32737], [-94.41081, 33.32737], [-94.41093, 33.31588], [-94.40602, 33.31586], [-94.41101, 33.30456], [-94.39642, 33.30006], [-94.39421, 33.30501], [-94.38613, 33.30239], [-94.38823, 33.29777], [-94.39518, 33.29995], [-94.39788, 33.29371], [-94.38533, 33.28984], [-94.38419, 33.29216], [-94.36161, 33.28508], [-94.36391, 33.28016], [-94.35819, 33.28035], [-94.35818, 33.28877], [-94.3706, 33.28876], [-94.37045, 33.30861], [-94.35726, 33.30879], [-94.35739, 33.30251], [-94.34599, 33.30249], [-94.34593, 33.29908], [-94.33973, 33.29926], [-94.33969, 33.29433], [-94.33381, 33.29429], [-94.3338, 33.29882], [-94.33658, 33.29927], [-94.33654, 33.30163], [-94.3274, 33.30268], [-94.32752, 33.2904], [-94.3223, 33.2904], [-94.32224, 33.29452], [-94.31561, 33.29444], [-94.31567, 33.28599], [-94.30625, 33.28593], [-94.30622, 33.28743], [-94.27489, 33.28753], [-94.27495, 33.29568], [-94.26039, 33.29614], [-94.26048, 33.30347], [-94.25378, 33.30342], [-94.25382, 33.29776], [-94.25165, 33.29775], [-94.25161, 33.29973], [-94.24148, 33.29909], [-94.24134, 33.30929], [-94.25362, 33.30937], [-94.25346, 33.32109], [-94.25677, 33.32112], [-94.25681, 33.31753], [-94.26592, 33.31686], [-94.26594, 33.31077], [-94.26821, 33.3108], [-94.26807, 33.31931], [-94.27041, 33.3193], [-94.27062, 33.31073], [-94.2844, 33.30922], [-94.28436, 33.31532], [-94.28774, 33.31546], [-94.28782, 33.32133], [-94.2846, 33.32142], [-94.2846, 33.32434], [-94.28909, 33.32436], [-94.29223, 33.32707], [-94.30197, 33.32712], [-94.30195, 33.33401], [-94.30848, 33.33402], [-94.30848, 33.33731], [-94.31338, 33.3374], [-94.31346, 33.34142], [-94.29032, 33.3378], [-94.29029, 33.34713], [-94.28075, 33.34706], [-94.28077, 33.34362], [-94.26189, 33.34351], [-94.26187, 33.34007], [-94.25237, 33.3412], [-94.25143, 33.34334], [-94.2498, 33.33478], [-94.24582, 33.33478], [-94.24573, 33.33829], [-94.23939, 33.33832], [-94.23935, 33.33492], [-94.23494, 33.33486], [-94.23506, 33.34501], [-94.21712, 33.34618], [-94.21712, 33.35184], [-94.21334, 33.35178], [-94.21329, 33.35715], [-94.21753, 33.35718], [-94.2175, 33.36097], [-94.22189, 33.361], [-94.2219, 33.36347], [-94.22527, 33.36349], [-94.22522, 33.36493], [-94.23073, 33.3664], [-94.23627, 33.3657], [-94.22698, 33.36839], [-94.22485, 33.37326], [-94.22228, 33.37104], [-94.22228, 33.36886], [-94.2182, 33.36817], [-94.21827, 33.37585], [-94.215, 33.37585], [-94.21508, 33.36963], [-94.20695, 33.37141], [-94.20764, 33.3676], [-94.19682, 33.37044], [-94.19689, 33.36335], [-94.19005, 33.36328], [-94.18997, 33.37207], [-94.18218, 33.37422], [-94.18224, 33.36877], [-94.18012, 33.36873], [-94.1802, 33.36493], [-94.1728, 33.36482], [-94.17277, 33.36191], [-94.17731, 33.36186], [-94.17726, 33.35863], [-94.15509, 33.35783], [-94.1539, 33.35678], [-94.15459, 33.35206], [-94.15031, 33.35328], [-94.15031, 33.34759], [-94.14742, 33.34759], [-94.14739, 33.34306], [-94.15285, 33.33561], [-94.15032, 33.33561], [-94.15028, 33.32927], [-94.14402, 33.32821], [-94.14419, 33.32067], [-94.14697, 33.32069], [-94.1471, 33.31494], [-94.15065, 33.31559], [-94.15085, 33.30471], [-94.14863, 33.30188], [-94.14492, 33.30122], [-94.14166, 33.29652], [-94.14426, 33.29651], [-94.14612, 33.29907], [-94.15169, 33.2991], [-94.15252, 33.29634], [-94.1548, 33.29632], [-94.15333, 33.27469], [-94.15819, 33.27473], [-94.15714, 33.27228], [-94.15349, 33.27228], [-94.16192, 33.26266], [-94.16195, 33.26144], [-94.15989, 33.26145], [-94.15931, 33.25819], [-94.16196, 33.2582], [-94.16194, 33.25542], [-94.16497, 33.25543], [-94.16497, 33.25325], [-94.16693, 33.25325], [-94.16693, 33.25183], [-94.16899, 33.25261], [-94.16895, 33.25536], [-94.17086, 33.25645], [-94.17277, 33.25453], [-94.17866, 33.2533], [-94.17868, 33.25136], [-94.18781, 33.25296], [-94.18788, 33.24636], [-94.19525, 33.24642], [-94.19519, 33.2484], [-94.19732, 33.24837], [-94.19731, 33.24988], [-94.20126, 33.24988], [-94.20134, 33.24222], [-94.21124, 33.24229], [-94.21134, 33.23127], [-94.22139, 33.23134], [-94.22156, 33.2375], [-94.22259, 33.2382], [-94.22258, 33.23759], [-94.22319, 33.23784], [-94.22338, 33.23716], [-94.22375, 33.23675], [-94.2238, 33.23707], [-94.2241, 33.23706], [-94.22421, 33.23749], [-94.22485, 33.23764], [-94.22504, 33.23775], [-94.22534, 33.23782], [-94.22547, 33.23801], [-94.22565, 33.23808], [-94.22596, 33.23859], [-94.22652, 33.23837], [-94.22687, 33.23826], [-94.22718, 33.23832], [-94.2278, 33.23883], [-94.2278, 33.23908], [-94.22842, 33.23934], [-94.2285, 33.23958], [-94.22842, 33.23985], [-94.22817, 33.2397], [-94.2279, 33.23943], [-94.22759, 33.23925], [-94.22737, 33.2392], [-94.22712, 33.23938], [-94.22671, 33.2395], [-94.22663, 33.23936], [-94.22673, 33.2392], [-94.22658, 33.23897], [-94.22628, 33.23869], [-94.22582, 33.23873], [-94.22556, 33.23861], [-94.22522, 33.23867], [-94.22526, 33.23902], [-94.22558, 33.239], [-94.22576, 33.23926], [-94.2259, 33.23953], [-94.2262, 33.23965], [-94.22633, 33.23983], [-94.22674, 33.23972], [-94.22725, 33.23979], [-94.22748, 33.24001], [-94.22692, 33.23996], [-94.22639, 33.23993], [-94.22617, 33.23996], [-94.22609, 33.24034], [-94.2263, 33.24052], [-94.22782, 33.24063], [-94.22801, 33.2408], [-94.22829, 33.24074], [-94.22874, 33.24087], [-94.22882, 33.24109], [-94.22905, 33.24113], [-94.22886, 33.24147], [-94.22828, 33.24179], [-94.22813, 33.24182], [-94.22823, 33.24143], [-94.22777, 33.24148], [-94.22751, 33.24161], [-94.22697, 33.24174], [-94.22654, 33.24203], [-94.22685, 33.24224], [-94.22731, 33.2424], [-94.22761, 33.24228], [-94.22777, 33.24217], [-94.22897, 33.24211], [-94.22951, 33.2418], [-94.22994, 33.2417], [-94.23028, 33.24153], [-94.23059, 33.24137], [-94.23085, 33.24082], [-94.23059, 33.24081], [-94.23044, 33.24104], [-94.2305, 33.24066], [-94.2303, 33.24056], [-94.23048, 33.24021], [-94.23039, 33.23978], [-94.23021, 33.23964], [-94.22971, 33.23986], [-94.22961, 33.23945], [-94.22947, 33.23921], [-94.22902, 33.23892], [-94.22867, 33.23875], [-94.2284, 33.23856], [-94.22821, 33.23837], [-94.22809, 33.2378], [-94.22789, 33.23765], [-94.22778, 33.23729], [-94.22761, 33.23709], [-94.22741, 33.23688], [-94.22716, 33.23678], [-94.22717, 33.23648], [-94.22745, 33.23622], [-94.22784, 33.23578], [-94.22823, 33.23552], [-94.22862, 33.23518], [-94.22873, 33.23502], [-94.22897, 33.23484], [-94.22915, 33.23463], [-94.22926, 33.23444], [-94.22909, 33.23396], [-94.2288, 33.23374], [-94.22833, 33.23342], [-94.22819, 33.233], [-94.22828, 33.23274], [-94.22813, 33.23261], [-94.22788, 33.23247], [-94.22804, 33.23211], [-94.22815, 33.23193], [-94.22823, 33.23172], [-94.22807, 33.23145], [-94.22782, 33.23116], [-94.22792, 33.23079], [-94.22795, 33.23047], [-94.22781, 33.23024], [-94.22799, 33.2299], [-94.22816, 33.22978], [-94.2287, 33.23019], [-94.22878, 33.23065], [-94.22864, 33.231], [-94.22878, 33.23133], [-94.22934, 33.2312], [-94.22952, 33.23084], [-94.23136, 33.23108], [-94.23158, 33.23133], [-94.23198, 33.23159], [-94.23198, 33.2321], [-94.23211, 33.23231], [-94.23256, 33.23211], [-94.23291, 33.23235], [-94.23288, 33.23261], [-94.23297, 33.23266], [-94.23285, 33.23287], [-94.23282, 33.23319], [-94.23261, 33.23346], [-94.23244, 33.23364], [-94.23172, 33.23367], [-94.23159, 33.23394], [-94.23169, 33.23406], [-94.23184, 33.23396], [-94.23189, 33.23431], [-94.23226, 33.23473], [-94.23209, 33.23493], [-94.23172, 33.23529], [-94.23151, 33.23511], [-94.23142, 33.23536], [-94.23119, 33.23558], [-94.23147, 33.23564], [-94.23167, 33.23556], [-94.23173, 33.2357], [-94.23204, 33.2357], [-94.23222, 33.2358], [-94.2324, 33.23597], [-94.23255, 33.23603], [-94.23265, 33.23621], [-94.2328, 33.23628], [-94.23297, 33.23672], [-94.23307, 33.237], [-94.23342, 33.23724], [-94.23427, 33.23711], [-94.23464, 33.23715], [-94.23493, 33.23716], [-94.23526, 33.23694], [-94.23533, 33.23711], [-94.2357, 33.23701], [-94.23588, 33.23707], [-94.23623, 33.23713], [-94.2365, 33.23714], [-94.23715, 33.23721], [-94.23711, 33.2369], [-94.23755, 33.23667], [-94.23785, 33.23616], [-94.23836, 33.23621], [-94.2386, 33.23636], [-94.23838, 33.23654], [-94.2382, 33.23676], [-94.23816, 33.237], [-94.23858, 33.23738], [-94.23841, 33.23757], [-94.23808, 33.2376], [-94.23794, 33.23794], [-94.23766, 33.23806], [-94.23725, 33.23842], [-94.2378, 33.23837], [-94.23819, 33.23847], [-94.23883, 33.23855], [-94.23942, 33.23846], [-94.23954, 33.23825], [-94.23998, 33.23813], [-94.24034, 33.2379], [-94.24093, 33.2377], [-94.24124, 33.23741], [-94.24187, 33.23733], [-94.24215, 33.2374], [-94.24226, 33.23747], [-94.24247, 33.23756], [-94.24277, 33.23765], [-94.24322, 33.23761], [-94.24387, 33.23746], [-94.24413, 33.23772], [-94.2444, 33.23801], [-94.24461, 33.23822], [-94.24517, 33.23824], [-94.24564, 33.23844], [-94.24584, 33.23865], [-94.24717, 33.23871], [-94.24752, 33.23885], [-94.24787, 33.23879], [-94.24817, 33.23874], [-94.2484, 33.23888], [-94.2486, 33.23913], [-94.24902, 33.23951], [-94.24923, 33.23976], [-94.24948, 33.23998], [-94.2497, 33.24021], [-94.25015, 33.2404], [-94.25028, 33.24088], [-94.25047, 33.24111], [-94.25075, 33.24109], [-94.25123, 33.24115], [-94.25156, 33.24106], [-94.25174, 33.241], [-94.25194, 33.24079], [-94.25231, 33.24027], [-94.25243, 33.24013], [-94.25295, 33.23941], [-94.25307, 33.2392], [-94.2528, 33.23889], [-94.25292, 33.23869], [-94.25312, 33.23862], [-94.25331, 33.23857], [-94.25364, 33.23841], [-94.25384, 33.23846], [-94.2541, 33.23857], [-94.25392, 33.23889], [-94.25422, 33.23909], [-94.2544, 33.23918], [-94.25481, 33.23923], [-94.2552, 33.23921], [-94.25543, 33.23925], [-94.25553, 33.23931], [-94.2556, 33.23923], [-94.2557, 33.23915], [-94.25609, 33.2393], [-94.25638, 33.23924], [-94.25661, 33.23908], [-94.25672, 33.23887], [-94.25678, 33.23862], [-94.25674, 33.23834], [-94.25658, 33.23802], [-94.25646, 33.23759], [-94.25633, 33.23725], [-94.2563, 33.237], [-94.25642, 33.23673], [-94.25659, 33.23651], [-94.25682, 33.23597], [-94.25695, 33.23549], [-94.25688, 33.23516], [-94.25703, 33.23491], [-94.25727, 33.23463], [-94.25735, 33.23446], [-94.25727, 33.23424], [-94.2574, 33.23416], [-94.25731, 33.23393], [-94.25734, 33.23367], [-94.25714, 33.23327], [-94.25696, 33.23303], [-94.25691, 33.2328], [-94.2565, 33.23261], [-94.25628, 33.23224], [-94.25635, 33.23177], [-94.25654, 33.23182], [-94.25672, 33.23196], [-94.25698, 33.23177], [-94.25734, 33.23156], [-94.25714, 33.23185], [-94.25697, 33.23224], [-94.25705, 33.2324], [-94.25733, 33.23244], [-94.2577, 33.2326], [-94.25794, 33.23247], [-94.25812, 33.23247], [-94.25823, 33.23257], [-94.25839, 33.23266], [-94.25853, 33.23244], [-94.2586, 33.23235], [-94.25873, 33.23228], [-94.2589, 33.23235], [-94.25897, 33.23256], [-94.25916, 33.23263], [-94.25914, 33.23283], [-94.25937, 33.23324], [-94.25937, 33.23353], [-94.25953, 33.23363], [-94.2599, 33.23464], [-94.26059, 33.23462], [-94.26107, 33.23438], [-94.26189, 33.23403], [-94.26219, 33.23404], [-94.26214, 33.23416], [-94.26226, 33.23425], [-94.26252, 33.23414], [-94.26256, 33.23427], [-94.26261, 33.2344], [-94.26328, 33.23418], [-94.26346, 33.23421], [-94.2636, 33.23429], [-94.26342, 33.23452], [-94.26294, 33.23479], [-94.26322, 33.23487], [-94.26363, 33.23478], [-94.26383, 33.23461], [-94.26444, 33.2346], [-94.26445, 33.23486], [-94.26495, 33.23468], [-94.26518, 33.23473], [-94.26541, 33.23481], [-94.2657, 33.23471], [-94.26605, 33.23498], [-94.26643, 33.23492], [-94.26651, 33.23477], [-94.2668, 33.23481], [-94.267, 33.23466], [-94.26743, 33.23452], [-94.26795, 33.23428], [-94.26812, 33.23395], [-94.26804, 33.23359], [-94.26774, 33.23352], [-94.26749, 33.23366], [-94.26727, 33.23353], [-94.26689, 33.23318], [-94.26612, 33.23281], [-94.26605, 33.23248], [-94.266, 33.23223], [-94.26603, 33.23208], [-94.26574, 33.23163], [-94.26577, 33.23134], [-94.26589, 33.23122], [-94.26609, 33.23106], [-94.26623, 33.23099], [-94.26652, 33.23088], [-94.26676, 33.23085], [-94.267, 33.23077], [-94.26698, 33.23057], [-94.2669, 33.23038], [-94.26687, 33.23018], [-94.2667, 33.22984], [-94.26654, 33.22963], [-94.26648, 33.22951], [-94.26656, 33.22935], [-94.26653, 33.22913], [-94.2664, 33.22896], [-94.26645, 33.2288], [-94.26619, 33.22867], [-94.26598, 33.22853], [-94.26604, 33.22844], [-94.26613, 33.22825], [-94.2662, 33.22802], [-94.26616, 33.22778], [-94.26603, 33.22757], [-94.26612, 33.22744], [-94.26627, 33.22753], [-94.26668, 33.22721], [-94.26675, 33.22732], [-94.26669, 33.22746], [-94.26676, 33.22755], [-94.26684, 33.22763], [-94.26723, 33.22755], [-94.2674, 33.22738], [-94.26772, 33.22722], [-94.26777, 33.22738], [-94.26784, 33.2276], [-94.26778, 33.2278], [-94.26768, 33.22799], [-94.26778, 33.22813], [-94.26792, 33.22835], [-94.26805, 33.22852], [-94.26813, 33.22871], [-94.26806, 33.22889], [-94.26802, 33.22922], [-94.26811, 33.22942], [-94.26824, 33.22957], [-94.26842, 33.22965], [-94.26854, 33.22976], [-94.26866, 33.22993], [-94.26856, 33.23015], [-94.26845, 33.23035], [-94.26836, 33.23071], [-94.26812, 33.23078], [-94.26787, 33.2309], [-94.26757, 33.23128], [-94.26745, 33.23151], [-94.26721, 33.23159], [-94.26732, 33.23172], [-94.26751, 33.2319], [-94.26763, 33.23212], [-94.26806, 33.23193], [-94.26819, 33.232], [-94.26851, 33.23183], [-94.26885, 33.23182], [-94.26886, 33.23194], [-94.2689, 33.23205], [-94.2693, 33.23198], [-94.26946, 33.2322], [-94.26949, 33.23218], [-94.26925, 33.22628], [-94.26098, 33.22649], [-94.26097, 33.22901], [-94.261, 33.22116], [-94.26442, 33.22113], [-94.26361, 33.21763], [-94.26105, 33.21764], [-94.26106, 33.21521], [-94.26435, 33.21523], [-94.26432, 33.20691], [-94.26864, 33.20691], [-94.26856, 33.21402], [-94.27036, 33.21406], [-94.2704, 33.21149], [-94.27206, 33.21141], [-94.27199, 33.21403], [-94.2737, 33.21406], [-94.27362, 33.21842], [-94.28545, 33.21855], [-94.28565, 33.21386], [-94.283, 33.21374], [-94.28297, 33.20688], [-94.28574, 33.20639], [-94.29103, 33.20762], [-94.29094, 33.21333], [-94.29382, 33.21337], [-94.29385, 33.21038], [-94.29988, 33.21044], [-94.29982, 33.21727], [-94.30536, 33.21825], [-94.30539, 33.21477], [-94.3081, 33.21477], [-94.30821, 33.2077], [-94.31002, 33.20769], [-94.31001, 33.20419], [-94.30551, 33.2042], [-94.30556, 33.19418], [-94.31464, 33.19422], [-94.31201, 33.19935], [-94.31204, 33.20688], [-94.32154, 33.2088], [-94.32135, 33.21826], [-94.31446, 33.22087], [-94.31442, 33.22273], [-94.32129, 33.22277], [-94.32567, 33.22083], [-94.32551, 33.24604], [-94.33024, 33.24603], [-94.33025, 33.24288], [-94.3414, 33.24298], [-94.34136, 33.24041], [-94.34595, 33.24043], [-94.34596, 33.23824], [-94.36254, 33.23906], [-94.36256, 33.23689], [-94.35778, 33.23688], [-94.35779, 33.23514], [-94.35469, 33.2351], [-94.35473, 33.23075], [-94.34845, 33.228], [-94.34853, 33.22404], [-94.35098, 33.22412], [-94.35101, 33.2218], [-94.35813, 33.22183], [-94.35777, 33.21524], [-94.36296, 33.21532], [-94.363, 33.21335], [-94.37043, 33.21162], [-94.3705, 33.20702], [-94.37538, 33.20705], [-94.37544, 33.20096], [-94.37983, 33.20096], [-94.37975, 33.20798], [-94.38528, 33.20797], [-94.38525, 33.20094], [-94.38661, 33.20092], [-94.38657, 33.21136], [-94.39262, 33.21138], [-94.39262, 33.20903], [-94.40381, 33.20913], [-94.40375, 33.21722], [-94.39865, 33.21716], [-94.39862, 33.21882], [-94.38422, 33.21872], [-94.37736, 33.22023], [-94.37641, 33.23694], [-94.37292, 33.23701], [-94.37552, 33.24367], [-94.38451, 33.2431], [-94.3845, 33.23697], [-94.3866, 33.23698], [-94.3865, 33.24398], [-94.38926, 33.24399], [-94.3893, 33.23699], [-94.40775, 33.23697], [-94.40779, 33.25175], [-94.40964, 33.25172], [-94.41204, 33.24756], [-94.41676, 33.24762], [-94.42069, 33.2445], [-94.41997, 33.24818], [-94.42179, 33.2508], [-94.42384, 33.24982], [-94.42143, 33.24362], [-94.43637, 33.24443], [-94.43639, 33.2419], [-94.4421, 33.23835], [-94.44215, 33.23634], [-94.4542, 33.23654], [-94.45399, 33.24306], [-94.44706, 33.24289], [-94.4469, 33.24791], [-94.44111, 33.24782], [-94.441, 33.25018], [-94.43556, 33.2501], [-94.43533, 33.25734], [-94.44222, 33.25744], [-94.44208, 33.26879], [-94.44809, 33.26888], [-94.44801, 33.26524], [-94.45033, 33.26527], [-94.45035, 33.26345], [-94.45744, 33.26349], [-94.45748, 33.26118], [-94.45997, 33.26119], [-94.45996, 33.26271], [-94.47236, 33.26279], [-94.47226, 33.26555], [-94.47494, 33.26814], [-94.4753, 33.27109], [-94.478, 33.27002], [-94.489, 33.27393], [-94.48969, 33.27196], [-94.49504, 33.27125], [-94.49638, 33.27352], [-94.49902, 33.27405], [-94.49945, 33.2723], [-94.50181, 33.27207], [-94.50185, 33.26922], [-94.51076, 33.26931], [-94.51081, 33.26614], [-94.51315, 33.26617], [-94.51924, 33.26999], [-94.5195, 33.27765], [-94.52219, 33.277], [-94.52941, 33.26797], [-94.53275, 33.26647], [-94.53525, 33.26725], [-94.53517, 33.2698], [-94.54115, 33.26937], [-94.53935, 33.26715], [-94.54048, 33.26497], [-94.54255, 33.26725], [-94.54492, 33.26606], [-94.5459, 33.26875], [-94.54919, 33.26755], [-94.54964, 33.2657], [-94.55487, 33.26927], [-94.5568, 33.26772], [-94.55557, 33.26636], [-94.55866, 33.26137], [-94.5622, 33.2621], [-94.56354, 33.26376], [-94.56345, 33.2712], [-94.57347, 33.2712], [-94.57299, 33.28245], [-94.56383, 33.28705], [-94.56378, 33.29516], [-94.56109, 33.29513], [-94.56108, 33.30361], [-94.56772, 33.30365], [-94.56791, 33.31513], [-94.56248, 33.31397], [-94.56617, 33.31141], [-94.56255, 33.31051], [-94.56302, 33.30926], [-94.56005, 33.30601], [-94.55743, 33.30686], [-94.55753, 33.3036], [-94.55488, 33.30359], [-94.55483, 33.30735], [-94.50916, 33.30602], [-94.50919, 33.30217], [-94.49823, 33.3021], [-94.49833, 33.29211], [-94.48846, 33.29204], [-94.48841, 33.29654], [-94.47091, 33.29606], [-94.4709, 33.30089], [-94.46246, 33.30087], [-94.46249, 33.29454], [-94.45709, 33.28971], [-94.44186, 33.28964], [-94.44181, 33.29689], [-94.44992, 33.29693], [-94.4499, 33.29968], [-94.45422, 33.2997], [-94.45418, 33.30528], [-94.4417, 33.30518], [-94.44166, 33.31022], [-94.42479, 33.30978], [-94.42473, 33.31689], [-94.43291, 33.31694], [-94.43304, 33.31313], [-94.43577, 33.31316], [-94.43574, 33.31594], [-94.43957, 33.31559], [-94.43953, 33.31852], [-94.44557, 33.32079], [-94.44811, 33.32409], [-94.44806, 33.32726], [-94.44148, 33.32721], [-94.44134, 33.33817], [-94.43252, 33.3381], [-94.43245, 33.34471], [-94.42578, 33.34467], [-94.42584, 33.33828], [-94.41332, 33.3382], [-94.41337, 33.32996], [-94.40894, 33.32994], [-94.409, 33.32737]]], [[[-94.22571, 33.22526], [-94.22571, 33.22525], [-94.22865, 33.22527], [-94.22865, 33.22528], [-94.22571, 33.22526]]], [[[-94.23064, 33.21701], [-94.23056, 33.22014], [-94.23056, 33.22013], [-94.23054, 33.22013], [-94.23063, 33.21701], [-94.23064, 33.21701]]], [[[-94.24081, 33.22025], [-94.24066, 33.22846], [-94.24945, 33.22878], [-94.24941, 33.22878], [-94.24833, 33.22918], [-94.24679, 33.22928], [-94.24564, 33.22926], [-94.24498, 33.22914], [-94.24471, 33.22913], [-94.24379, 33.2293], [-94.24317, 33.22921], [-94.24271, 33.22906], [-94.24143, 33.22903], [-94.241, 33.22914], [-94.24064, 33.22915], [-94.24079, 33.22025], [-94.23056, 33.22014], [-94.24081, 33.22025]]], [[[-94.25844, 33.22473], [-94.25834, 33.22893], [-94.25834, 33.22892], [-94.25832, 33.22892], [-94.25843, 33.22473], [-94.24955, 33.22461], [-94.25844, 33.22473]]], [[[-94.40916, 33.33816], [-94.41332, 33.3382], [-94.41345, 33.34696], [-94.40904, 33.34707], [-94.40916, 33.33816]]]]}}]}