{"type": "FeatureCollection", "features": [{"type": "Feature", "properties": {"id": "usace-waco", "name": "Waco Lake", "source": "USGS PAD-US 4.1", "padusUnit": "Waco Recreation Area"}, "geometry": {"type": "MultiPolygon", "coordinates": [[[[-97.28379, 31.46069], [-97.28386, 31.46078], [-97.28386, 31.46079], [-97.28379, 31.46069]]], [[[-97.28293, 31.46716], [-97.28105, 31.46773], [-97.28159, 31.47248], [-97.28019, 31.47397], [-97.27672, 31.47372], [-97.27662, 31.47521], [-97.28297, 31.47468], [-97.27427, 31.47879], [-97.27393, 31.47576], [-97.26997, 31.47654], [-97.27603, 31.47466], [-97.27508, 31.47428], [-97.27886, 31.46064], [-97.28386, 31.46079], [-97.28048, 31.46373], [-97.28293, 31.46716]]], [[[-97.29651, 31.61415], [-97.29483, 31.60622], [-97.29181, 31.60435], [-97.28255, 31.60955], [-97.28272, 31.61122], [-97.28515, 31.61114], [-97.28624, 31.61527], [-97.28482, 31.61314], [-97.28311, 31.61303], [-97.28338, 31.61446], [-97.27725, 31.61102], [-97.27802, 31.61224], [-97.27362, 31.61377], [-97.26768, 31.61153], [-97.26685, 31.61404], [-97.26619, 31.60806], [-97.26027, 31.61103], [-97.25444, 31.60242], [-97.25257, 31.60342], [-97.25353, 31.60177], [-97.25019, 31.60328], [-97.24779, 31.60774], [-97.24474, 31.60363], [-97.24242, 31.60971], [-97.24307, 31.61219], [-97.23909, 31.61424], [-97.23176, 31.60507], [-97.2315, 31.60202], [-97.22973, 31.60165], [-97.2274, 31.60517], [-97.22527, 31.60506], [-97.21604, 31.59937], [-97.20958, 31.60283], [-97.20601, 31.59741], [-97.19783, 31.60238], [-97.19429, 31.60141], [-97.19749, 31.59597], [-97.19455, 31.59387], [-97.19562, 31.58987], [-97.19199, 31.58544], [-97.19196, 31.58338], [-97.19414, 31.58153], [-97.19059, 31.57732], [-97.19343, 31.57283], [-97.1927, 31.57079], [-97.19108, 31.57172], [-97.18932, 31.56989], [-97.19215, 31.56901], [-97.19029, 31.56736], [-97.19037, 31.56421], [-97.18873, 31.56413], [-97.19022, 31.56331], [-97.18848, 31.55989], [-97.19079, 31.56297], [-97.19227, 31.5625], [-97.19329, 31.56784], [-97.19573, 31.56524], [-97.19433, 31.56938], [-97.19605, 31.57123], [-97.20163, 31.56629], [-97.20538, 31.56531], [-97.20718, 31.56275], [-97.20491, 31.5618], [-97.2065, 31.56075], [-97.20297, 31.55494], [-97.20843, 31.55909], [-97.20997, 31.55617], [-97.21031, 31.55876], [-97.21199, 31.55783], [-97.2135, 31.55349], [-97.21218, 31.55092], [-97.21341, 31.54607], [-97.20826, 31.54615], [-97.21239, 31.54535], [-97.21483, 31.54001], [-97.21803, 31.53825], [-97.22055, 31.54076], [-97.22074, 31.53712], [-97.22273, 31.53488], [-97.2216, 31.53344], [-97.2282, 31.53088], [-97.22817, 31.52799], [-97.22595, 31.52739], [-97.22373, 31.52352], [-97.22553, 31.52239], [-97.22326, 31.52085], [-97.22808, 31.52134], [-97.23528, 31.5177], [-97.23673, 31.51771], [-97.23725, 31.51997], [-97.23839, 31.51933], [-97.23795, 31.51731], [-97.2449, 31.51085], [-97.2422, 31.50803], [-97.24625, 31.50978], [-97.24752, 31.50823], [-97.24653, 31.50449], [-97.25035, 31.50184], [-97.24807, 31.5015], [-97.24821, 31.50032], [-97.25176, 31.50033], [-97.251, 31.49844], [-97.25267, 31.49987], [-97.25516, 31.49639], [-97.25391, 31.49588], [-97.25598, 31.49603], [-97.25733, 31.49419], [-97.25684, 31.49287], [-97.27007, 31.48598], [-97.26767, 31.48255], [-97.27885, 31.47679], [-97.27668, 31.4816], [-97.27422, 31.48154], [-97.27484, 31.48373], [-97.28372, 31.48262], [-97.27363, 31.48509], [-97.27143, 31.4877], [-97.27329, 31.49033], [-97.27971, 31.49075], [-97.27854, 31.49133], [-97.28306, 31.49322], [-97.28491, 31.49747], [-97.28229, 31.49377], [-97.27612, 31.49452], [-97.27458, 31.49252], [-97.27197, 31.49226], [-97.26821, 31.49342], [-97.26988, 31.49492], [-97.27298, 31.49424], [-97.27119, 31.49582], [-97.27388, 31.49616], [-97.27273, 31.49989], [-97.27379, 31.50162], [-97.26917, 31.50303], [-97.27032, 31.50545], [-97.26917, 31.50826], [-97.27082, 31.50852], [-97.27769, 31.51788], [-97.26929, 31.52079], [-97.26759, 31.51845], [-97.26237, 31.52083], [-97.26007, 31.51768], [-97.25472, 31.521], [-97.26213, 31.52917], [-97.25744, 31.53193], [-97.25485, 31.52827], [-97.2515, 31.53009], [-97.24859, 31.52578], [-97.24687, 31.52997], [-97.24414, 31.53059], [-97.25844, 31.55021], [-97.25167, 31.55386], [-97.25215, 31.55571], [-97.25677, 31.55529], [-97.25554, 31.55693], [-97.25244, 31.55702], [-97.25242, 31.56006], [-97.25424, 31.56113], [-97.24955, 31.56333], [-97.25176, 31.56667], [-97.25025, 31.56744], [-97.24796, 31.56417], [-97.24161, 31.5673], [-97.24384, 31.56797], [-97.24662, 31.57352], [-97.25009, 31.57188], [-97.253, 31.5765], [-97.26331, 31.57493], [-97.27435, 31.59071], [-97.27433, 31.58938], [-97.27653, 31.59028], [-97.27521, 31.5919], [-97.27755, 31.59407], [-97.27616, 31.59475], [-97.27657, 31.59647], [-97.28086, 31.59981], [-97.28209, 31.59752], [-97.28299, 31.59928], [-97.28765, 31.59575], [-97.29085, 31.59555], [-97.29519, 31.59718], [-97.29483, 31.59824], [-97.29876, 31.59787], [-97.29837, 31.59915], [-97.30172, 31.60078], [-97.30311, 31.59925], [-97.30451, 31.6072], [-97.30829, 31.6094], [-97.30807, 31.61407], [-97.31559, 31.61399], [-97.32941, 31.60529], [-97.33517, 31.60595], [-97.34138, 31.60914], [-97.33781, 31.60817], [-97.32585, 31.61329], [-97.32497, 31.61145], [-97.3173, 31.61567], [-97.31789, 31.61681], [-97.31083, 31.61656], [-97.30994, 31.61951], [-97.30991, 31.6182], [-97.30132, 31.61736], [-97.29651, 31.61415]]]]}}]}