{"type": "FeatureCollection", "features": [{"type": "Feature", "properties": {"id": "usace-proctor", "name": "Proctor Lake", "source": "USGS PAD-US 4.1", "padusUnit": "Proctor Recreation Area"}, "geometry": {"type": "Polygon", "coordinates": [[[-98.49272, 32.03663], [-98.49299, 32.04653], [-98.48867, 32.04915], [-98.48763, 32.05299], [-98.48875, 32.0583], [-98.49218, 32.05895], [-98.48947, 32.05654], [-98.49294, 32.05504], [-98.49719, 32.04502], [-98.49662, 32.04087], [-98.49852, 32.04018], [-98.50058, 32.03496], [-98.49941, 32.03132], [-98.49204, 32.02681], [-98.49752, 32.02476], [-98.50265, 32.03129], [-98.50543, 32.03268], [-98.51169, 32.03105], [-98.52084, 32.03838], [-98.52102, 32.04059], [-98.51832, 32.04444], [-98.52465, 32.05046], [-98.53012, 32.0524], [-98.53042, 32.05515], [-98.53816, 32.05714], [-98.53826, 32.05477], [-98.54449, 32.05691], [-98.54727, 32.05044], [-98.54575, 32.04871], [-98.54671, 32.04672], [-98.54434, 32.04658], [-98.54229, 32.0525], [-98.53723, 32.05104], [-98.54098, 32.04662], [-98.53624, 32.04259], [-98.53265, 32.04156], [-98.52872, 32.04257], [-98.53078, 32.04103], [-98.53209, 32.03206], [-98.52915, 32.0293], [-98.53005, 32.02867], [-98.5255, 32.02581], [-98.52419, 32.0264], [-98.524, 32.0229], [-98.5155, 32.02175], [-98.51245, 32.01964], [-98.51383, 32.01509], [-98.51056, 32.01466], [-98.50624, 32.00986], [-98.50156, 32.00821], [-98.49587, 32.00942], [-98.48961, 32.0065], [-98.48878, 32.0074], [-98.49334, 31.99756], [-98.4949, 31.99826], [-98.49602, 31.99619], [-98.50062, 31.99698], [-98.49939, 31.99462], [-98.50091, 31.99434], [-98.49826, 31.98886], [-98.50045, 31.98774], [-98.49667, 31.98614], [-98.4983, 31.98034], [-98.50323, 31.98179], [-98.50382, 31.97991], [-98.50659, 31.98034], [-98.50737, 31.97807], [-98.51372, 31.98], [-98.5203, 31.97716], [-98.52356, 31.97791], [-98.52261, 31.97904], [-98.52569, 31.98099], [-98.52575, 31.98315], [-98.52679, 31.98217], [-98.52939, 31.98367], [-98.52948, 31.98946], [-98.53523, 31.9912], [-98.5406, 31.99942], [-98.54482, 32.0024], [-98.55038, 32.00296], [-98.55489, 32.0077], [-98.5594, 32.00149], [-98.55686, 32.00078], [-98.55756, 31.99892], [-98.55418, 31.99535], [-98.54786, 31.99504], [-98.54607, 31.98959], [-98.54021, 31.98948], [-98.54048, 31.98705], [-98.54199, 31.98657], [-98.54024, 31.98333], [-98.54095, 31.97854], [-98.5374, 31.97664], [-98.54177, 31.97122], [-98.55167, 31.96709], [-98.55055, 31.96496], [-98.55028, 31.96651], [-98.54004, 31.96862], [-98.53232, 31.9754], [-98.52978, 31.97283], [-98.53056, 31.96911], [-98.52678, 31.97304], [-98.52397, 31.97015], [-98.51681, 31.97237], [-98.51757, 31.96816], [-98.51447, 31.97143], [-98.50879, 31.97274], [-98.51084, 31.96453], [-98.49533, 31.95994], [-98.4934, 31.96197], [-98.49011, 31.96104], [-98.48557, 31.96568], [-98.48073, 31.96387], [-98.47881, 31.96094], [-98.47287, 31.96109], [-98.47295, 31.96262], [-98.47089, 31.96258], [-98.46875, 31.96868], [-98.46397, 31.96941], [-98.4582, 31.97645], [-98.46136, 31.9806], [-98.45408, 31.99549], [-98.456, 31.99671], [-98.45413, 31.99743], [-98.45895, 31.99996], [-98.45773, 32.0067], [-98.46148, 32.00359], [-98.46169, 31.99574], [-98.46444, 31.99688], [-98.46485, 31.99952], [-98.47128, 31.99817], [-98.47043, 31.99985], [-98.47665, 32.00144], [-98.48534, 31.99617], [-98.4868, 31.99807], [-98.48449, 32.00135], [-98.48351, 32.00085], [-98.48061, 32.0121], [-98.48432, 32.01382], [-98.48597, 32.01738], [-98.49052, 32.01735], [-98.48977, 32.01934], [-98.48723, 32.01984], [-98.4861, 32.02449], [-98.48233, 32.02609], [-98.48478, 32.02726], [-98.4838, 32.03114], [-98.49455, 32.03528], [-98.49272, 32.03663]]]}}]}