{"type": "FeatureCollection", "features": [{"type": "Feature", "properties": {"id": "usace-lake-o-the-pines", "name": "Lake O' the Pines", "source": "USGS PAD-US 4.1", "padusUnit": "Lake O' The Pines Recreation Area"}, "geometry": {"type": "MultiPolygon", "coordinates": [[[[-94.55633, 32.75511], [-94.55545, 32.75514], [-94.55632, 32.75416], [-94.55633, 32.75511]]], [[[-94.65669, 32.83431], [-94.66182, 32.83065], [-94.66188, 32.83434], [-94.65669, 32.83431]]], [[[-94.75339, 32.93252], [-94.74892, 32.92737], [-94.74124, 32.9261], [-94.74393, 32.91793], [-94.7387, 32.9181], [-94.7378, 32.91602], [-94.73597, 32.91613], [-94.73688, 32.91225], [-94.72636, 32.91071], [-94.72369, 32.90772], [-94.71255, 32.90765], [-94.71249, 32.90472], [-94.70648, 32.90387], [-94.70621, 32.89922], [-94.70376, 32.89935], [-94.70267, 32.88553], [-94.69187, 32.88167], [-94.6902, 32.88073], [-94.69022, 32.87869], [-94.68435, 32.87651], [-94.68412, 32.87368], [-94.68796, 32.87031], [-94.68483, 32.86802], [-94.6859, 32.86472], [-94.68418, 32.86049], [-94.6891, 32.85483], [-94.69276, 32.85475], [-94.69278, 32.85066], [-94.68707, 32.85204], [-94.6823, 32.85117], [-94.67876, 32.857], [-94.67658, 32.85699], [-94.67657, 32.85361], [-94.66934, 32.85108], [-94.66569, 32.84568], [-94.66559, 32.84235], [-94.66198, 32.84095], [-94.66189, 32.83506], [-94.66501, 32.83508], [-94.66327, 32.83234], [-94.66457, 32.82889], [-94.66223, 32.82887], [-94.6622, 32.83018], [-94.65848, 32.83124], [-94.65531, 32.83431], [-94.65527, 32.83156], [-94.65189, 32.83034], [-94.65001, 32.83149], [-94.64996, 32.82998], [-94.64881, 32.83127], [-94.64407, 32.82701], [-94.64178, 32.83213], [-94.63996, 32.82332], [-94.63297, 32.82792], [-94.63538, 32.82522], [-94.63596, 32.82128], [-94.63292, 32.8199], [-94.63025, 32.822], [-94.63084, 32.82045], [-94.62754, 32.81841], [-94.62866, 32.8171], [-94.62743, 32.8159], [-94.62547, 32.81781], [-94.6228, 32.81765], [-94.62166, 32.82257], [-94.61916, 32.82276], [-94.62079, 32.82158], [-94.61958, 32.81686], [-94.61771, 32.81639], [-94.61794, 32.81819], [-94.61536, 32.81951], [-94.6156, 32.81666], [-94.61294, 32.81661], [-94.61408, 32.81496], [-94.6193, 32.81428], [-94.62014, 32.81217], [-94.61423, 32.80797], [-94.61043, 32.80838], [-94.61104, 32.80605], [-94.60796, 32.80543], [-94.61009, 32.80498], [-94.60934, 32.80257], [-94.60567, 32.80266], [-94.60538, 32.79839], [-94.6099, 32.79838], [-94.60767, 32.79465], [-94.60226, 32.79591], [-94.60041, 32.79812], [-94.59775, 32.7975], [-94.59956, 32.79934], [-94.59196, 32.79929], [-94.59131, 32.80234], [-94.58954, 32.80245], [-94.59145, 32.80122], [-94.58837, 32.80154], [-94.58837, 32.80467], [-94.59463, 32.80688], [-94.59359, 32.81095], [-94.59722, 32.811], [-94.59718, 32.81417], [-94.59476, 32.81422], [-94.59718, 32.81742], [-94.59224, 32.81722], [-94.59484, 32.82436], [-94.59431, 32.82716], [-94.5965, 32.82716], [-94.59597, 32.82838], [-94.59762, 32.82949], [-94.59648, 32.83333], [-94.60148, 32.83335], [-94.60144, 32.84634], [-94.60007, 32.84632], [-94.59947, 32.84025], [-94.59794, 32.83853], [-94.59817, 32.84109], [-94.59582, 32.83976], [-94.59592, 32.83811], [-94.59382, 32.83806], [-94.59253, 32.83521], [-94.59048, 32.83576], [-94.59042, 32.83233], [-94.58786, 32.83073], [-94.58594, 32.81456], [-94.58222, 32.81607], [-94.5823, 32.81837], [-94.57811, 32.8184], [-94.58021, 32.81599], [-94.57587, 32.81593], [-94.57595, 32.81462], [-94.58073, 32.81373], [-94.57799, 32.81153], [-94.57393, 32.81194], [-94.58359, 32.80621], [-94.57996, 32.80517], [-94.57494, 32.80671], [-94.57386, 32.80538], [-94.5755, 32.80291], [-94.57764, 32.80294], [-94.57775, 32.80159], [-94.57498, 32.8014], [-94.57581, 32.79763], [-94.57743, 32.79762], [-94.57683, 32.79357], [-94.57331, 32.79176], [-94.57331, 32.79494], [-94.57074, 32.79488], [-94.57068, 32.79014], [-94.55915, 32.79086], [-94.55633, 32.78513], [-94.55888, 32.78361], [-94.55516, 32.78261], [-94.55512, 32.78586], [-94.55284, 32.78584], [-94.55287, 32.79656], [-94.55525, 32.79806], [-94.55649, 32.79654], [-94.56235, 32.79724], [-94.55693, 32.7985], [-94.55891, 32.80137], [-94.55292, 32.80138], [-94.55256, 32.79982], [-94.54881, 32.80063], [-94.54866, 32.80695], [-94.55344, 32.80897], [-94.55343, 32.81086], [-94.54848, 32.81089], [-94.54851, 32.80912], [-94.54603, 32.80847], [-94.54419, 32.81261], [-94.54579, 32.81583], [-94.54301, 32.81375], [-94.5415, 32.81549], [-94.54359, 32.81717], [-94.54393, 32.82178], [-94.54767, 32.82439], [-94.54771, 32.82692], [-94.54969, 32.82689], [-94.54878, 32.82961], [-94.55025, 32.8313], [-94.54847, 32.83237], [-94.54081, 32.8221], [-94.5346, 32.82221], [-94.53453, 32.81994], [-94.53699, 32.82037], [-94.53964, 32.81796], [-94.53247, 32.81313], [-94.53464, 32.8129], [-94.53448, 32.80688], [-94.53753, 32.80922], [-94.54077, 32.80919], [-94.54084, 32.80212], [-94.5437, 32.80325], [-94.5437, 32.79908], [-94.5464, 32.79771], [-94.5459, 32.79532], [-94.54184, 32.79526], [-94.54186, 32.79351], [-94.54453, 32.79311], [-94.54021, 32.79144], [-94.53794, 32.78618], [-94.53386, 32.78784], [-94.53395, 32.78179], [-94.53151, 32.78088], [-94.52752, 32.78541], [-94.52362, 32.78299], [-94.52371, 32.78029], [-94.52162, 32.78024], [-94.52137, 32.78779], [-94.52351, 32.78883], [-94.51754, 32.78909], [-94.5164, 32.79439], [-94.51851, 32.79678], [-94.51576, 32.79678], [-94.51483, 32.80461], [-94.51207, 32.79983], [-94.50718, 32.80548], [-94.51, 32.80801], [-94.50598, 32.80665], [-94.50495, 32.80907], [-94.50199, 32.80891], [-94.50379, 32.80649], [-94.50134, 32.80422], [-94.50563, 32.80433], [-94.50689, 32.79971], [-94.50906, 32.7985], [-94.50232, 32.7951], [-94.50232, 32.7933], [-94.50767, 32.79238], [-94.50874, 32.79584], [-94.51155, 32.79488], [-94.51265, 32.78822], [-94.5064, 32.78581], [-94.49884, 32.78548], [-94.49917, 32.78166], [-94.50419, 32.78005], [-94.50419, 32.77872], [-94.50815, 32.77869], [-94.5112, 32.78201], [-94.51528, 32.78193], [-94.51519, 32.77873], [-94.51347, 32.77876], [-94.51344, 32.77418], [-94.51654, 32.77136], [-94.51572, 32.77015], [-94.51092, 32.77027], [-94.51073, 32.76592], [-94.50903, 32.76595], [-94.50898, 32.77093], [-94.50029, 32.77253], [-94.50466, 32.77023], [-94.50549, 32.76788], [-94.50113, 32.76805], [-94.50116, 32.76642], [-94.50589, 32.76543], [-94.5061, 32.76315], [-94.50475, 32.76317], [-94.49782, 32.76542], [-94.49741, 32.77024], [-94.4935, 32.76653], [-94.49191, 32.7719], [-94.48671, 32.7726], [-94.48876, 32.77164], [-94.48754, 32.7693], [-94.48952, 32.77168], [-94.49198, 32.76716], [-94.48771, 32.76431], [-94.49232, 32.76603], [-94.49622, 32.76362], [-94.49617, 32.76223], [-94.48679, 32.76233], [-94.48678, 32.74975], [-94.49191, 32.7471], [-94.49195, 32.73887], [-94.49389, 32.73964], [-94.49408, 32.7367], [-94.49726, 32.73865], [-94.49732, 32.73757], [-94.52009, 32.7382], [-94.52015, 32.73562], [-94.52963, 32.73426], [-94.53219, 32.73172], [-94.53759, 32.7317], [-94.5376, 32.7337], [-94.53939, 32.73359], [-94.53941, 32.73681], [-94.54298, 32.73679], [-94.54148, 32.7384], [-94.54419, 32.74369], [-94.54484, 32.73906], [-94.54688, 32.74065], [-94.54897, 32.73918], [-94.54904, 32.73311], [-94.54654, 32.72904], [-94.55106, 32.7331], [-94.55309, 32.73781], [-94.55615, 32.73774], [-94.55881, 32.73302], [-94.56289, 32.73241], [-94.56232, 32.7274], [-94.56415, 32.72743], [-94.56773, 32.72381], [-94.5656, 32.72893], [-94.57118, 32.73042], [-94.56759, 32.73019], [-94.56386, 32.73419], [-94.56047, 32.73427], [-94.55963, 32.73846], [-94.55745, 32.739], [-94.55856, 32.74086], [-94.55556, 32.74137], [-94.55532, 32.74338], [-94.565, 32.74474], [-94.55874, 32.74554], [-94.55857, 32.74746], [-94.55492, 32.74559], [-94.55077, 32.74665], [-94.55308, 32.74667], [-94.55191, 32.74835], [-94.55587, 32.75124], [-94.55254, 32.75054], [-94.55282, 32.75375], [-94.5554, 32.75514], [-94.55445, 32.75641], [-94.55577, 32.75894], [-94.55232, 32.76211], [-94.55684, 32.76595], [-94.55943, 32.7646], [-94.56187, 32.76575], [-94.56127, 32.76448], [-94.56315, 32.76527], [-94.56493, 32.76376], [-94.5651, 32.75662], [-94.56578, 32.7581], [-94.56761, 32.75684], [-94.56623, 32.76007], [-94.56756, 32.76014], [-94.56754, 32.76299], [-94.56947, 32.76305], [-94.56932, 32.76454], [-94.56126, 32.76674], [-94.5676, 32.76897], [-94.57469, 32.76872], [-94.57831, 32.77178], [-94.57965, 32.77052], [-94.57976, 32.76577], [-94.58273, 32.76577], [-94.58267, 32.76862], [-94.58487, 32.76731], [-94.58586, 32.76965], [-94.58768, 32.76703], [-94.58553, 32.76534], [-94.58828, 32.76538], [-94.58623, 32.76361], [-94.58815, 32.75964], [-94.59121, 32.75948], [-94.59352, 32.76155], [-94.59166, 32.75709], [-94.59321, 32.75793], [-94.59511, 32.75595], [-94.59475, 32.74885], [-94.59678, 32.74881], [-94.59693, 32.75182], [-94.59841, 32.7519], [-94.60081, 32.7502], [-94.60007, 32.74868], [-94.60374, 32.74867], [-94.60477, 32.74676], [-94.60923, 32.74588], [-94.60929, 32.74368], [-94.61136, 32.74373], [-94.61136, 32.7466], [-94.60472, 32.75086], [-94.60728, 32.75164], [-94.60306, 32.75344], [-94.60312, 32.75804], [-94.61221, 32.75867], [-94.61445, 32.76146], [-94.62033, 32.75839], [-94.62021, 32.75431], [-94.62475, 32.75427], [-94.63328, 32.74944], [-94.6333, 32.75268], [-94.62762, 32.75682], [-94.62845, 32.75873], [-94.63065, 32.75798], [-94.62966, 32.76201], [-94.63067, 32.76302], [-94.62776, 32.76502], [-94.62032, 32.76467], [-94.61572, 32.76677], [-94.61235, 32.76525], [-94.60922, 32.76655], [-94.60913, 32.76988], [-94.61239, 32.76973], [-94.61437, 32.7672], [-94.61703, 32.76846], [-94.60917, 32.7717], [-94.61074, 32.77195], [-94.60976, 32.77502], [-94.61575, 32.77757], [-94.61724, 32.77992], [-94.62156, 32.78055], [-94.62222, 32.78242], [-94.62525, 32.78016], [-94.62694, 32.78543], [-94.62996, 32.78717], [-94.63012, 32.79091], [-94.63558, 32.79], [-94.63536, 32.79294], [-94.63845, 32.79308], [-94.6383, 32.79677], [-94.64377, 32.79693], [-94.64378, 32.80026], [-94.65904, 32.79977], [-94.65771, 32.79785], [-94.66076, 32.79846], [-94.66047, 32.79645], [-94.66249, 32.79688], [-94.66572, 32.79289], [-94.66354, 32.78932], [-94.6672, 32.789], [-94.66982, 32.79309], [-94.66822, 32.79263], [-94.66375, 32.79889], [-94.66458, 32.80018], [-94.66148, 32.8017], [-94.66262, 32.80337], [-94.66069, 32.80424], [-94.66342, 32.80826], [-94.66477, 32.80527], [-94.66833, 32.80842], [-94.67206, 32.80663], [-94.6711, 32.81086], [-94.67493, 32.81056], [-94.67559, 32.81154], [-94.67358, 32.81251], [-94.6771, 32.81421], [-94.67916, 32.81821], [-94.68161, 32.81933], [-94.68102, 32.81684], [-94.68212, 32.81937], [-94.68505, 32.82073], [-94.68711, 32.81949], [-94.68608, 32.81811], [-94.68757, 32.8174], [-94.68863, 32.81896], [-94.69115, 32.81776], [-94.69072, 32.81651], [-94.69386, 32.81501], [-94.69303, 32.8138], [-94.69482, 32.81301], [-94.69622, 32.81427], [-94.69666, 32.81149], [-94.70056, 32.80886], [-94.70302, 32.80776], [-94.70439, 32.81002], [-94.70907, 32.80982], [-94.70868, 32.81166], [-94.706, 32.81039], [-94.70003, 32.81152], [-94.70105, 32.81302], [-94.69586, 32.81798], [-94.69696, 32.8196], [-94.70004, 32.81977], [-94.69218, 32.82584], [-94.69622, 32.82494], [-94.68902, 32.82741], [-94.69279, 32.83006], [-94.69344, 32.83468], [-94.69575, 32.83615], [-94.69926, 32.83378], [-94.70132, 32.83487], [-94.70413, 32.83353], [-94.70549, 32.83549], [-94.70093, 32.83754], [-94.70008, 32.84127], [-94.70799, 32.84323], [-94.70945, 32.8461], [-94.7079, 32.84801], [-94.71125, 32.84947], [-94.71321, 32.85607], [-94.71719, 32.85883], [-94.71533, 32.86061], [-94.72152, 32.86596], [-94.71686, 32.8667], [-94.7148, 32.86868], [-94.71352, 32.8668], [-94.70844, 32.86681], [-94.709, 32.8684], [-94.71345, 32.8687], [-94.71466, 32.87233], [-94.71261, 32.8739], [-94.71567, 32.87389], [-94.715, 32.87689], [-94.71661, 32.87886], [-94.71957, 32.87745], [-94.72638, 32.88736], [-94.73098, 32.88511], [-94.73169, 32.8876], [-94.73376, 32.88736], [-94.73181, 32.88992], [-94.73389, 32.89274], [-94.73614, 32.89192], [-94.73772, 32.89358], [-94.73342, 32.89845], [-94.73718, 32.89955], [-94.73616, 32.90328], [-94.73314, 32.90277], [-94.73382, 32.90435], [-94.73192, 32.90415], [-94.73276, 32.90534], [-94.73637, 32.90462], [-94.73805, 32.90167], [-94.74063, 32.90418], [-94.74048, 32.90604], [-94.74223, 32.90483], [-94.74384, 32.90617], [-94.74223, 32.9073], [-94.74779, 32.90724], [-94.74784, 32.91066], [-94.75457, 32.91162], [-94.75539, 32.90996], [-94.76068, 32.91698], [-94.75724, 32.91635], [-94.75775, 32.91779], [-94.76678, 32.91774], [-94.76733, 32.91898], [-94.76447, 32.91984], [-94.76365, 32.92204], [-94.77617, 32.92661], [-94.7757, 32.93183], [-94.7778, 32.93438], [-94.76892, 32.9371], [-94.76836, 32.93582], [-94.76391, 32.93955], [-94.76119, 32.93739], [-94.75864, 32.93988], [-94.76343, 32.94496], [-94.75928, 32.94493], [-94.75544, 32.93765], [-94.75491, 32.9325], [-94.75339, 32.93252]]]]}}]}