{"type": "FeatureCollection", "features": [{"type": "Feature", "properties": {"id": "usace-somerville", "name": "Somerville Lake", "source": "USGS PAD-US 4.1", "padusUnit": "Somerville Recreation Area"}, "geometry": {"type": "Polygon", "coordinates": [[[-96.55783, 30.36483], [-96.5604, 30.36609], [-96.56257, 30.36507], [-96.56009, 30.36244], [-96.56246, 30.35977], [-96.56078, 30.35864], [-96.56101, 30.35682], [-96.56382, 30.3551], [-96.56112, 30.35352], [-96.56241, 30.3511], [-96.56132, 30.34945], [-96.56408, 30.34691], [-96.5642, 30.35193], [-96.5663, 30.35366], [-96.57278, 30.34674], [-96.57392, 30.34949], [-96.57275, 30.35223], [-96.57768, 30.35087], [-96.5755, 30.35815], [-96.57884, 30.35851], [-96.57939, 30.36243], [-96.58257, 30.35977], [-96.58348, 30.35597], [-96.582, 30.35337], [-96.58325, 30.35048], [-96.58684, 30.35284], [-96.58438, 30.35534], [-96.58681, 30.35533], [-96.5871, 30.35742], [-96.58993, 30.3552], [-96.59189, 30.36152], [-96.6018, 30.35268], [-96.59493, 30.34889], [-96.59425, 30.34743], [-96.59741, 30.34337], [-96.59023, 30.34387], [-96.58894, 30.34275], [-96.58816, 30.34398], [-96.58719, 30.34127], [-96.58569, 30.3421], [-96.58876, 30.33915], [-96.58497, 30.33814], [-96.58607, 30.33636], [-96.58084, 30.33375], [-96.58424, 30.33084], [-96.58397, 30.33355], [-96.58586, 30.33424], [-96.59122, 30.33267], [-96.59402, 30.3339], [-96.5927, 30.33039], [-96.59403, 30.32917], [-96.59532, 30.3305], [-96.59738, 30.32788], [-96.59913, 30.33293], [-96.59788, 30.33405], [-96.59948, 30.33548], [-96.60617, 30.32887], [-96.60596, 30.33156], [-96.6083, 30.33508], [-96.60984, 30.33183], [-96.6127, 30.33216], [-96.61287, 30.32887], [-96.61448, 30.33017], [-96.61858, 30.32822], [-96.62282, 30.33215], [-96.62426, 30.32874], [-96.62155, 30.32622], [-96.62628, 30.32619], [-96.62655, 30.33142], [-96.62781, 30.33058], [-96.63119, 30.33356], [-96.63392, 30.3338], [-96.64106, 30.32742], [-96.63568, 30.32506], [-96.63735, 30.32232], [-96.63491, 30.32297], [-96.63042, 30.3212], [-96.62949, 30.3188], [-96.6209, 30.31835], [-96.64549, 30.30486], [-96.64722, 30.31081], [-96.64877, 30.31141], [-96.6506, 30.30949], [-96.65216, 30.31055], [-96.65295, 30.31571], [-96.65141, 30.3213], [-96.66293, 30.31258], [-96.66538, 30.3122], [-96.66958, 30.31572], [-96.6658, 30.3215], [-96.66697, 30.32261], [-96.66771, 30.3207], [-96.67008, 30.32014], [-96.67224, 30.32124], [-96.67269, 30.31547], [-96.67661, 30.31261], [-96.6794, 30.31268], [-96.67969, 30.31403], [-96.67608, 30.3173], [-96.67622, 30.31963], [-96.6784, 30.32079], [-96.67816, 30.3227], [-96.67954, 30.32136], [-96.68087, 30.32335], [-96.68335, 30.3221], [-96.68465, 30.32754], [-96.68744, 30.32506], [-96.69131, 30.32752], [-96.69541, 30.32793], [-96.70335, 30.32642], [-96.70882, 30.32853], [-96.71031, 30.33249], [-96.71243, 30.32705], [-96.71462, 30.32636], [-96.71536, 30.32952], [-96.71329, 30.33132], [-96.71564, 30.33609], [-96.71574, 30.33336], [-96.71791, 30.33342], [-96.71785, 30.33513], [-96.72001, 30.33298], [-96.72041, 30.33488], [-96.7221, 30.33378], [-96.71657, 30.33114], [-96.71738, 30.32767], [-96.72244, 30.32318], [-96.72632, 30.32718], [-96.72963, 30.32717], [-96.72787, 30.32496], [-96.73217, 30.32472], [-96.73373, 30.32698], [-96.73864, 30.32419], [-96.7365, 30.32259], [-96.74219, 30.31991], [-96.74352, 30.32098], [-96.74135, 30.32295], [-96.74331, 30.3262], [-96.74618, 30.32322], [-96.74986, 30.3262], [-96.74754, 30.32835], [-96.74853, 30.33076], [-96.74518, 30.33681], [-96.74582, 30.34466], [-96.75335, 30.35011], [-96.75975, 30.35065], [-96.76075, 30.35238], [-96.76566, 30.3535], [-96.76916, 30.35013], [-96.76511, 30.34567], [-96.7611, 30.34429], [-96.76169, 30.3412], [-96.76046, 30.33978], [-96.75517, 30.34032], [-96.75452, 30.33899], [-96.76396, 30.33056], [-96.76822, 30.33412], [-96.77014, 30.33256], [-96.77337, 30.33454], [-96.77731, 30.33108], [-96.77408, 30.32837], [-96.77606, 30.32555], [-96.77834, 30.3257], [-96.77825, 30.32241], [-96.77976, 30.32296], [-96.77972, 30.32142], [-96.77795, 30.32222], [-96.77772, 30.32474], [-96.77247, 30.32705], [-96.77645, 30.32138], [-96.76968, 30.31876], [-96.76626, 30.32177], [-96.7629, 30.31895], [-96.76657, 30.31514], [-96.76509, 30.3163], [-96.76187, 30.31428], [-96.76033, 30.31648], [-96.75962, 30.314], [-96.75081, 30.31175], [-96.75181, 30.31084], [-96.74803, 30.31345], [-96.74584, 30.3116], [-96.74861, 30.3086], [-96.74347, 30.30649], [-96.73522, 30.30903], [-96.73332, 30.30748], [-96.73199, 30.30922], [-96.72805, 30.30787], [-96.72344, 30.31111], [-96.72004, 30.30554], [-96.72585, 30.30031], [-96.72253, 30.29751], [-96.71619, 30.3028], [-96.71521, 30.30639], [-96.7113, 30.30304], [-96.72466, 30.29116], [-96.71082, 30.30287], [-96.71516, 30.30657], [-96.71215, 30.3095], [-96.70651, 30.30886], [-96.70494, 30.30515], [-96.70187, 30.30459], [-96.70022, 30.29809], [-96.69192, 30.29641], [-96.6954, 30.29586], [-96.69496, 30.29295], [-96.69739, 30.29151], [-96.69892, 30.2928], [-96.70473, 30.29207], [-96.70346, 30.29131], [-96.70709, 30.28626], [-96.70412, 30.28382], [-96.70795, 30.28292], [-96.71362, 30.27794], [-96.71882, 30.27738], [-96.72022, 30.2758], [-96.72274, 30.27786], [-96.72621, 30.27733], [-96.72676, 30.27446], [-96.72869, 30.27468], [-96.72618, 30.27207], [-96.72788, 30.2735], [-96.73318, 30.27035], [-96.73506, 30.2723], [-96.73595, 30.27152], [-96.7307, 30.2672], [-96.7312, 30.26566], [-96.73272, 30.26584], [-96.73652, 30.26938], [-96.73808, 30.26877], [-96.73976, 30.26428], [-96.742, 30.26279], [-96.74013, 30.26117], [-96.74195, 30.25794], [-96.73963, 30.25601], [-96.73989, 30.26116], [-96.72181, 30.26366], [-96.72106, 30.26785], [-96.71895, 30.26889], [-96.71673, 30.26783], [-96.71247, 30.27274], [-96.70649, 30.27445], [-96.69997, 30.281], [-96.69184, 30.28235], [-96.6899, 30.28533], [-96.6873, 30.28615], [-96.68686, 30.28873], [-96.67935, 30.28908], [-96.67759, 30.29242], [-96.67774, 30.29078], [-96.67437, 30.2879], [-96.67214, 30.28986], [-96.67293, 30.29209], [-96.67139, 30.29426], [-96.66779, 30.29053], [-96.67084, 30.2886], [-96.66631, 30.28323], [-96.6703, 30.28256], [-96.66821, 30.2783], [-96.67104, 30.28035], [-96.67232, 30.27764], [-96.67102, 30.27717], [-96.67731, 30.27717], [-96.67567, 30.27522], [-96.67903, 30.27312], [-96.67703, 30.26539], [-96.67012, 30.25879], [-96.66349, 30.26133], [-96.66189, 30.2659], [-96.65439, 30.27214], [-96.6513, 30.26836], [-96.64236, 30.27388], [-96.64487, 30.27502], [-96.6434, 30.27657], [-96.64793, 30.28164], [-96.64539, 30.28322], [-96.64476, 30.2812], [-96.64053, 30.27995], [-96.64116, 30.28128], [-96.63852, 30.28095], [-96.64044, 30.28384], [-96.63624, 30.28538], [-96.63725, 30.2866], [-96.63159, 30.28527], [-96.63294, 30.28805], [-96.63504, 30.28839], [-96.63243, 30.2917], [-96.63058, 30.29098], [-96.63083, 30.28951], [-96.62858, 30.29145], [-96.62712, 30.28809], [-96.62441, 30.29212], [-96.62432, 30.28877], [-96.6197, 30.28708], [-96.61941, 30.28404], [-96.61267, 30.28611], [-96.61443, 30.28445], [-96.61313, 30.2828], [-96.61095, 30.28404], [-96.60978, 30.28263], [-96.60631, 30.28578], [-96.60127, 30.28157], [-96.59876, 30.28639], [-96.59558, 30.28724], [-96.59787, 30.28077], [-96.59672, 30.27801], [-96.59465, 30.27901], [-96.59535, 30.27353], [-96.59333, 30.27115], [-96.59063, 30.27305], [-96.58908, 30.27693], [-96.59081, 30.27811], [-96.58896, 30.27732], [-96.58909, 30.28015], [-96.58543, 30.27986], [-96.58373, 30.28139], [-96.58297, 30.28632], [-96.58629, 30.28853], [-96.58601, 30.29072], [-96.58404, 30.29182], [-96.58306, 30.29004], [-96.58155, 30.29199], [-96.57755, 30.29179], [-96.57662, 30.29017], [-96.57881, 30.29026], [-96.57937, 30.28483], [-96.56891, 30.28418], [-96.57046, 30.27951], [-96.56664, 30.27448], [-96.56906, 30.27282], [-96.5687, 30.27122], [-96.56128, 30.26975], [-96.55975, 30.27826], [-96.55667, 30.2806], [-96.55933, 30.28353], [-96.55902, 30.28705], [-96.55369, 30.28935], [-96.55282, 30.29187], [-96.55154, 30.28915], [-96.54696, 30.28792], [-96.54938, 30.28588], [-96.54808, 30.28402], [-96.54463, 30.28639], [-96.53957, 30.28394], [-96.53785, 30.28629], [-96.54379, 30.29131], [-96.54273, 30.29197], [-96.54449, 30.29431], [-96.54256, 30.29607], [-96.5385, 30.29264], [-96.53328, 30.29587], [-96.52834, 30.29485], [-96.52706, 30.29596], [-96.52395, 30.2911], [-96.52136, 30.29347], [-96.522, 30.29599], [-96.5191, 30.2982], [-96.51872, 30.29586], [-96.51715, 30.29723], [-96.51555, 30.29591], [-96.51371, 30.29997], [-96.50931, 30.29832], [-96.51423, 30.30338], [-96.51015, 30.30511], [-96.51287, 30.30925], [-96.51243, 30.31874], [-96.5079, 30.31921], [-96.50869, 30.32279], [-96.51097, 30.32337], [-96.51256, 30.3263], [-96.52036, 30.32896], [-96.51859, 30.33067], [-96.51997, 30.33247], [-96.52447, 30.33306], [-96.52778, 30.33094], [-96.5306, 30.33336], [-96.53366, 30.33279], [-96.54268, 30.33864], [-96.5515, 30.35826], [-96.54673, 30.3642], [-96.55027, 30.3651], [-96.5573, 30.3626], [-96.55783, 30.36483]]]}}]}