{"type": "FeatureCollection", "features": [{"type": "Feature", "properties": {"id": "usace-lewisville", "name": "Lewisville Lake", "source": "USGS PAD-US 4.1", "padusUnit": "Lewisville Recreation Area"}, "geometry": {"type": "MultiPolygon", "coordinates": [[[[-96.87171, 33.11564], [-96.87328, 33.11521], [-96.87288, 33.11551], [-96.87171, 33.11564]]], [[[-96.86919, 33.11911], [-96.86545, 33.12057], [-96.86316, 33.11916], [-96.86639, 33.11553], [-96.86447, 33.11241], [-96.86931, 33.11464], [-96.8693, 33.11591], [-96.87171, 33.11564], [-96.87004, 33.1161], [-96.86919, 33.11911]]], [[[-96.95077, 33.17659], [-96.95041, 33.17865], [-96.95239, 33.17762], [-96.95229, 33.17912], [-96.95415, 33.17939], [-96.95475, 33.18421], [-96.95648, 33.18397], [-96.9573, 33.1867], [-96.95982, 33.18692], [-96.95797, 33.1887], [-96.96248, 33.18675], [-96.96155, 33.18865], [-96.96529, 33.19044], [-96.96162, 33.19041], [-96.96158, 33.19175], [-96.96516, 33.19554], [-96.95789, 33.1954], [-96.95798, 33.1984], [-96.96027, 33.20112], [-96.95958, 33.20276], [-96.9613, 33.20381], [-96.96025, 33.20521], [-96.9621, 33.20463], [-96.96205, 33.20738], [-96.96445, 33.20817], [-96.96002, 33.20839], [-96.95992, 33.20984], [-96.96197, 33.21072], [-96.95881, 33.21019], [-96.9565, 33.21453], [-96.95391, 33.21443], [-96.95293, 33.21706], [-96.95003, 33.21724], [-96.94726, 33.22177], [-96.94786, 33.22378], [-96.95078, 33.222], [-96.94826, 33.22513], [-96.94852, 33.2281], [-96.95269, 33.23191], [-96.95442, 33.23641], [-96.9506, 33.23295], [-96.93556, 33.23468], [-96.93293, 33.23889], [-96.9358, 33.23932], [-96.93366, 33.24118], [-96.9355, 33.24285], [-96.93099, 33.24459], [-96.92946, 33.24699], [-96.93292, 33.24942], [-96.93213, 33.25456], [-96.93071, 33.25306], [-96.93137, 33.24981], [-96.92658, 33.24684], [-96.92269, 33.25038], [-96.9245, 33.25605], [-96.92345, 33.25778], [-96.92096, 33.25212], [-96.92316, 33.24806], [-96.92064, 33.24796], [-96.92757, 33.23971], [-96.9285, 33.23444], [-96.92684, 33.23274], [-96.93003, 33.23422], [-96.93246, 33.23345], [-96.92998, 33.23071], [-96.93239, 33.23178], [-96.93085, 33.23016], [-96.93248, 33.2277], [-96.93485, 33.23085], [-96.93744, 33.22957], [-96.93639, 33.22878], [-96.93736, 33.22817], [-96.93948, 33.22916], [-96.93941, 33.2259], [-96.93802, 33.22502], [-96.9401, 33.22522], [-96.94071, 33.22708], [-96.94397, 33.22706], [-96.94562, 33.22921], [-96.94512, 33.22476], [-96.94184, 33.22445], [-96.94392, 33.2229], [-96.9443, 33.22029], [-96.94192, 33.21957], [-96.94475, 33.21809], [-96.94466, 33.21259], [-96.94651, 33.20841], [-96.94952, 33.20796], [-96.95063, 33.21067], [-96.95003, 33.20672], [-96.95455, 33.20567], [-96.95169, 33.20143], [-96.95006, 33.20126], [-96.95254, 33.19799], [-96.95076, 33.19655], [-96.94999, 33.19847], [-96.94778, 33.19133], [-96.94974, 33.18954], [-96.94971, 33.18683], [-96.94643, 33.18612], [-96.94583, 33.18857], [-96.94506, 33.18607], [-96.94085, 33.18668], [-96.94332, 33.1965], [-96.93857, 33.19465], [-96.93696, 33.19896], [-96.93773, 33.20295], [-96.93538, 33.19952], [-96.93501, 33.20279], [-96.93168, 33.20278], [-96.92964, 33.20624], [-96.92743, 33.20363], [-96.92374, 33.20343], [-96.92379, 33.20191], [-96.91911, 33.20182], [-96.91772, 33.20662], [-96.91416, 33.20984], [-96.91505, 33.21298], [-96.91227, 33.21232], [-96.91103, 33.21461], [-96.91122, 33.20972], [-96.91031, 33.21298], [-96.90719, 33.21171], [-96.90104, 33.21598], [-96.90094, 33.21386], [-96.89785, 33.21415], [-96.89191, 33.21815], [-96.89156, 33.21595], [-96.89372, 33.21362], [-96.90425, 33.20794], [-96.9165, 33.19826], [-96.92191, 33.19633], [-96.92857, 33.19886], [-96.93008, 33.19251], [-96.93347, 33.18956], [-96.93115, 33.18812], [-96.93136, 33.18594], [-96.92778, 33.18919], [-96.92267, 33.19035], [-96.91992, 33.19448], [-96.906, 33.19568], [-96.9045, 33.19944], [-96.90012, 33.19969], [-96.89547, 33.20472], [-96.89308, 33.20362], [-96.88775, 33.20576], [-96.88999, 33.20345], [-96.89547, 33.20346], [-96.89743, 33.19447], [-96.91022, 33.1902], [-96.90941, 33.18914], [-96.91325, 33.18979], [-96.91395, 33.18641], [-96.91122, 33.18342], [-96.91405, 33.18464], [-96.91631, 33.18379], [-96.91605, 33.18592], [-96.91747, 33.18605], [-96.92038, 33.1819], [-96.92036, 33.18339], [-96.92166, 33.18205], [-96.92228, 33.18393], [-96.9264, 33.18185], [-96.92503, 33.17874], [-96.92907, 33.17759], [-96.92837, 33.17459], [-96.92962, 33.17575], [-96.93174, 33.17147], [-96.93381, 33.17218], [-96.93485, 33.16976], [-96.93674, 33.17056], [-96.93893, 33.16907], [-96.93767, 33.16638], [-96.93919, 33.16693], [-96.94279, 33.16385], [-96.94302, 33.15744], [-96.93527, 33.16213], [-96.94633, 33.15487], [-96.95049, 33.15569], [-96.95144, 33.15374], [-96.95318, 33.15416], [-96.9527, 33.14971], [-96.94971, 33.14902], [-96.95152, 33.14633], [-96.94301, 33.14634], [-96.94302, 33.14915], [-96.93735, 33.14907], [-96.93644, 33.15033], [-96.93813, 33.15149], [-96.93613, 33.1529], [-96.93727, 33.16059], [-96.93518, 33.16049], [-96.92906, 33.16495], [-96.92746, 33.16445], [-96.92464, 33.16858], [-96.92017, 33.16872], [-96.92039, 33.16726], [-96.91756, 33.16895], [-96.90877, 33.16844], [-96.91103, 33.16553], [-96.91698, 33.16601], [-96.91779, 33.16458], [-96.91104, 33.16277], [-96.90896, 33.16021], [-96.89954, 33.1592], [-96.90075, 33.15764], [-96.90536, 33.15877], [-96.91057, 33.15784], [-96.92256, 33.16288], [-96.9264, 33.15903], [-96.92516, 33.15688], [-96.93154, 33.15555], [-96.92949, 33.15404], [-96.9304, 33.15137], [-96.92809, 33.15385], [-96.92727, 33.14857], [-96.91728, 33.15106], [-96.91413, 33.14862], [-96.91956, 33.1474], [-96.92284, 33.14186], [-96.92282, 33.139], [-96.92543, 33.14043], [-96.92393, 33.14043], [-96.92528, 33.14361], [-96.93437, 33.14303], [-96.93509, 33.14038], [-96.93984, 33.13913], [-96.94163, 33.13703], [-96.93689, 33.13698], [-96.93693, 33.13338], [-96.92842, 33.1333], [-96.92541, 33.13549], [-96.92564, 33.13438], [-96.9232, 33.13368], [-96.92763, 33.12944], [-96.92395, 33.12831], [-96.92098, 33.12913], [-96.91739, 33.13282], [-96.91634, 33.13084], [-96.91238, 33.13217], [-96.91204, 33.1375], [-96.9106, 33.13079], [-96.906, 33.13154], [-96.90884, 33.12937], [-96.90338, 33.12888], [-96.89551, 33.13292], [-96.89437, 33.13227], [-96.89967, 33.12867], [-96.89912, 33.12699], [-96.90058, 33.12759], [-96.90189, 33.12445], [-96.90438, 33.12604], [-96.90397, 33.12379], [-96.90684, 33.12532], [-96.90738, 33.12359], [-96.91273, 33.12657], [-96.91115, 33.12434], [-96.91771, 33.12059], [-96.91929, 33.12133], [-96.92131, 33.11842], [-96.92546, 33.11647], [-96.92773, 33.11882], [-96.92698, 33.12227], [-96.92922, 33.12441], [-96.93065, 33.12445], [-96.92963, 33.12014], [-96.9339, 33.12263], [-96.93515, 33.1214], [-96.93442, 33.11895], [-96.92963, 33.11799], [-96.92954, 33.11081], [-96.93457, 33.10785], [-96.93301, 33.10777], [-96.93311, 33.102], [-96.92438, 33.10197], [-96.92396, 33.10573], [-96.92258, 33.10218], [-96.92114, 33.10233], [-96.92179, 33.10345], [-96.91836, 33.10222], [-96.91667, 33.1035], [-96.91755, 33.1055], [-96.9154, 33.10489], [-96.9163, 33.10761], [-96.91408, 33.10596], [-96.91252, 33.10797], [-96.91073, 33.10773], [-96.90739, 33.11113], [-96.90763, 33.11353], [-96.90586, 33.11182], [-96.90951, 33.11746], [-96.90945, 33.12001], [-96.9071, 33.11853], [-96.90584, 33.12009], [-96.90578, 33.11859], [-96.90278, 33.11924], [-96.90332, 33.1155], [-96.89997, 33.11684], [-96.89998, 33.12006], [-96.89914, 33.11906], [-96.89533, 33.12009], [-96.89464, 33.12165], [-96.89153, 33.12002], [-96.89152, 33.11821], [-96.88772, 33.11877], [-96.89154, 33.11635], [-96.89155, 33.11094], [-96.88799, 33.11178], [-96.88116, 33.11821], [-96.88106, 33.11549], [-96.8758, 33.11653], [-96.87328, 33.11521], [-96.87426, 33.11448], [-96.87338, 33.11283], [-96.87754, 33.11403], [-96.88112, 33.11248], [-96.88114, 33.10999], [-96.88821, 33.10838], [-96.88653, 33.10545], [-96.8819, 33.10545], [-96.88192, 33.1028], [-96.88391, 33.10154], [-96.88265, 33.09921], [-96.8849, 33.10096], [-96.88479, 33.10304], [-96.88939, 33.10389], [-96.88872, 33.10545], [-96.89136, 33.1072], [-96.89447, 33.10561], [-96.8944, 33.10738], [-96.90081, 33.10867], [-96.90088, 33.10527], [-96.9026, 33.10413], [-96.90382, 33.1056], [-96.90568, 33.10343], [-96.90358, 33.10023], [-96.9065, 33.10009], [-96.91064, 33.09721], [-96.91261, 33.09804], [-96.91688, 33.09467], [-96.91702, 33.09129], [-96.91507, 33.09131], [-96.91783, 33.08922], [-96.91897, 33.08315], [-96.91455, 33.08657], [-96.91317, 33.0866], [-96.913, 33.08402], [-96.90945, 33.08631], [-96.90944, 33.08513], [-96.90423, 33.0905], [-96.89902, 33.09161], [-96.89631, 33.09199], [-96.89625, 33.08871], [-96.89179, 33.08711], [-96.89484, 33.08672], [-96.89721, 33.08334], [-96.89622, 33.0806], [-96.89414, 33.0805], [-96.89497, 33.07678], [-96.89709, 33.0754], [-96.89994, 33.07685], [-96.90154, 33.07464], [-96.90485, 33.07463], [-96.90548, 33.07292], [-96.90278, 33.07185], [-96.90867, 33.07254], [-96.90859, 33.06714], [-96.90567, 33.0669], [-96.9057, 33.06404], [-96.91712, 33.06511], [-96.91863, 33.05494], [-96.92228, 33.05445], [-96.92061, 33.05236], [-96.92638, 33.05295], [-96.92334, 33.0513], [-96.92878, 33.04998], [-96.9423, 33.05198], [-96.94391, 33.05026], [-96.94141, 33.04977], [-96.94299, 33.04825], [-96.96251, 33.04592], [-96.96677, 33.04999], [-96.97153, 33.05821], [-96.99261, 33.05859], [-96.99237, 33.06222], [-97.00581, 33.06603], [-97.00468, 33.06431], [-97.01235, 33.06814], [-97.01227, 33.07172], [-97.00876, 33.07194], [-97.00751, 33.0758], [-97.00986, 33.07693], [-97.01041, 33.07421], [-97.0124, 33.07798], [-97.01084, 33.07837], [-97.01161, 33.07993], [-97.01485, 33.07987], [-97.01725, 33.07761], [-97.017, 33.08104], [-97.01569, 33.08104], [-97.01807, 33.0824], [-97.02226, 33.07489], [-97.02696, 33.08239], [-97.02762, 33.0871], [-97.0307, 33.08593], [-97.03224, 33.08311], [-97.03662, 33.0822], [-97.03265, 33.0855], [-97.03377, 33.08658], [-97.02995, 33.08885], [-97.03055, 33.09339], [-97.03977, 33.09446], [-97.03878, 33.09164], [-97.04183, 33.09011], [-97.0438, 33.09107], [-97.04313, 33.09394], [-97.04871, 33.09714], [-97.04981, 33.09545], [-97.0498, 33.09773], [-97.05393, 33.09528], [-97.05355, 33.09412], [-97.05489, 33.09546], [-97.05667, 33.09416], [-97.05528, 33.09085], [-97.05702, 33.09307], [-97.0602, 33.08815], [-97.06057, 33.0847], [-97.06234, 33.08629], [-97.06001, 33.0912], [-97.06509, 33.08744], [-97.05758, 33.09637], [-97.06009, 33.09669], [-97.06362, 33.09295], [-97.06155, 33.09728], [-97.06577, 33.09778], [-97.0673, 33.09602], [-97.0676, 33.09785], [-97.06919, 33.09717], [-97.06806, 33.09213], [-97.0703, 33.09057], [-97.07046, 33.09401], [-97.07274, 33.09224], [-97.07198, 33.09396], [-97.07582, 33.09458], [-97.07213, 33.09676], [-97.07516, 33.10215], [-97.07778, 33.10307], [-97.07742, 33.10441], [-97.08023, 33.10161], [-97.08172, 33.10281], [-97.08606, 33.10188], [-97.08598, 33.09785], [-97.08714, 33.09834], [-97.08751, 33.10603], [-97.08175, 33.10568], [-97.08217, 33.1078], [-97.07657, 33.11007], [-97.07233, 33.10852], [-97.07938, 33.11721], [-97.08158, 33.11667], [-97.0809, 33.11464], [-97.08542, 33.11281], [-97.08558, 33.11405], [-97.08901, 33.11456], [-97.09007, 33.11227], [-97.09089, 33.11463], [-97.09729, 33.11409], [-97.09733, 33.12052], [-97.10599, 33.12291], [-97.10801, 33.12496], [-97.11819, 33.12509], [-97.11802, 33.12751], [-97.12218, 33.13133], [-97.12111, 33.1343], [-97.12397, 33.13352], [-97.12146, 33.13517], [-97.1221, 33.13639], [-97.13246, 33.13959], [-97.13209, 33.14117], [-97.13483, 33.14456], [-97.12886, 33.13927], [-97.12871, 33.14133], [-97.12618, 33.14085], [-97.12575, 33.14303], [-97.12307, 33.14258], [-97.12161, 33.13974], [-97.11827, 33.13957], [-97.10956, 33.13223], [-97.10952, 33.13512], [-97.10797, 33.13636], [-97.10285, 33.12801], [-97.09685, 33.12889], [-97.09801, 33.13201], [-97.09558, 33.13208], [-97.09391, 33.12797], [-97.0899, 33.12701], [-97.0866, 33.12406], [-97.08437, 33.1244], [-97.08478, 33.12591], [-97.08166, 33.12403], [-97.0819, 33.12625], [-97.08445, 33.12817], [-97.08168, 33.12738], [-97.08015, 33.13106], [-97.07734, 33.1272], [-97.07898, 33.1241], [-97.07514, 33.12298], [-97.0743, 33.12127], [-97.07268, 33.12323], [-97.07252, 33.12111], [-97.06907, 33.12304], [-97.06705, 33.12211], [-97.06813, 33.12468], [-97.06629, 33.12469], [-97.06576, 33.12187], [-97.06411, 33.1246], [-97.06342, 33.12054], [-97.06109, 33.1207], [-97.06294, 33.11963], [-97.06427, 33.11488], [-97.06111, 33.11417], [-97.0645, 33.11221], [-97.06181, 33.11223], [-97.05838, 33.10687], [-97.05781, 33.10825], [-97.0559, 33.10756], [-97.0568, 33.11559], [-97.05463, 33.11546], [-97.05336, 33.11029], [-97.05209, 33.1119], [-97.05061, 33.11017], [-97.04837, 33.11111], [-97.04892, 33.1127], [-97.04677, 33.11475], [-97.04738, 33.11902], [-97.04403, 33.11629], [-97.03898, 33.119], [-97.04055, 33.11651], [-97.03737, 33.11127], [-97.03889, 33.10918], [-97.03643, 33.10913], [-97.03663, 33.10677], [-97.03399, 33.10745], [-97.03487, 33.11057], [-97.03283, 33.11456], [-97.03099, 33.11289], [-97.03322, 33.1103], [-97.03162, 33.10821], [-97.0288, 33.10814], [-97.02886, 33.10937], [-97.02772, 33.10781], [-97.02671, 33.11092], [-97.02394, 33.10893], [-97.02287, 33.11085], [-97.02045, 33.10836], [-97.02189, 33.10598], [-97.01793, 33.10599], [-97.01806, 33.09994], [-97.01397, 33.1012], [-97.01495, 33.09683], [-97.00933, 33.09681], [-97.00929, 33.10033], [-97.00688, 33.10032], [-97.00786, 33.11342], [-97.01098, 33.11282], [-97.01162, 33.11638], [-97.01414, 33.11546], [-97.01542, 33.11156], [-97.01755, 33.11137], [-97.01898, 33.11362], [-97.01707, 33.11316], [-97.0152, 33.119], [-97.02016, 33.12788], [-97.01882, 33.12861], [-97.0193, 33.13226], [-97.01696, 33.13375], [-97.01387, 33.13314], [-97.01279, 33.13591], [-97.01486, 33.13448], [-97.01846, 33.13641], [-97.0198, 33.13331], [-97.02396, 33.13468], [-97.02125, 33.13904], [-97.02499, 33.13585], [-97.02982, 33.13814], [-97.02818, 33.1413], [-97.02894, 33.14499], [-97.02736, 33.14597], [-97.03603, 33.14832], [-97.0329, 33.15028], [-97.0377, 33.15125], [-97.03396, 33.15275], [-97.03761, 33.15579], [-97.03438, 33.15447], [-97.03168, 33.15659], [-97.02777, 33.15618], [-97.02475, 33.15174], [-97.0218, 33.15158], [-97.02341, 33.15001], [-97.02229, 33.14828], [-97.02036, 33.15166], [-97.01604, 33.15385], [-97.01719, 33.15666], [-97.02652, 33.15474], [-97.0256, 33.15592], [-97.0287, 33.1584], [-97.02746, 33.16292], [-97.0296, 33.16406], [-97.02855, 33.16693], [-97.03163, 33.1666], [-97.03173, 33.17171], [-97.03441, 33.1726], [-97.03232, 33.17325], [-97.03574, 33.17636], [-97.05144, 33.17707], [-97.05627, 33.17336], [-97.05616, 33.17601], [-97.05111, 33.17971], [-97.05596, 33.18489], [-97.06576, 33.18695], [-97.06051, 33.18876], [-97.05055, 33.18865], [-97.05047, 33.18642], [-97.05337, 33.18525], [-97.05219, 33.18378], [-97.05005, 33.1829], [-97.04775, 33.18423], [-97.04896, 33.1825], [-97.04761, 33.18201], [-97.04333, 33.18317], [-97.04333, 33.18649], [-97.04576, 33.19068], [-97.0466, 33.20191], [-97.0471, 33.19916], [-97.0516, 33.19966], [-97.05118, 33.20714], [-97.05543, 33.21126], [-97.05454, 33.21449], [-97.04979, 33.21061], [-97.05079, 33.2194], [-97.05493, 33.22087], [-97.05486, 33.22231], [-97.04983, 33.22208], [-97.05098, 33.22972], [-97.05434, 33.22987], [-97.05413, 33.23348], [-97.04901, 33.23324], [-97.04657, 33.23536], [-97.04894, 33.24215], [-97.04733, 33.24166], [-97.0458, 33.24625], [-97.05774, 33.24807], [-97.04511, 33.25099], [-97.05363, 33.25612], [-97.05811, 33.2566], [-97.05819, 33.2546], [-97.06102, 33.25473], [-97.0609, 33.25643], [-97.06322, 33.25652], [-97.06316, 33.25864], [-97.06571, 33.25873], [-97.0654, 33.2644], [-97.06071, 33.26414], [-97.05676, 33.27148], [-97.05532, 33.27145], [-97.05595, 33.27356], [-97.05262, 33.27358], [-97.05356, 33.27706], [-97.04982, 33.27471], [-97.04922, 33.27593], [-97.04905, 33.26374], [-97.04787, 33.2867], [-97.03453, 33.28624], [-97.04497, 33.27263], [-97.04504, 33.27524], [-97.04496, 33.27213], [-97.03369, 33.27266], [-97.03401, 33.26864], [-97.03136, 33.26803], [-97.02952, 33.26511], [-97.02195, 33.26498], [-97.02727, 33.25953], [-97.02076, 33.25925], [-97.02077, 33.2474], [-97.02243, 33.24594], [-97.01938, 33.24641], [-97.02236, 33.24399], [-97.02376, 33.23201], [-97.0177, 33.228], [-97.01596, 33.22317], [-97.01204, 33.22291], [-97.01242, 33.21675], [-97.01529, 33.21684], [-97.01456, 33.21479], [-97.01272, 33.21463], [-97.01634, 33.21135], [-97.0068, 33.21219], [-97.00709, 33.20684], [-97.01788, 33.20721], [-97.01839, 33.19945], [-97.016, 33.19824], [-97.01581, 33.20407], [-97.01291, 33.20154], [-97.01307, 33.19933], [-97.0114, 33.20339], [-97.0101, 33.20136], [-97.00747, 33.20224], [-97.00733, 33.20486], [-97.0042, 33.2079], [-97.00207, 33.20607], [-96.99987, 33.20926], [-96.997, 33.207], [-96.99064, 33.20913], [-96.99332, 33.2047], [-96.99805, 33.20485], [-97.00414, 33.20257], [-97.00358, 33.19915], [-97.00553, 33.2007], [-97.00803, 33.20008], [-97.00738, 33.19427], [-97.01055, 33.19725], [-97.0115, 33.19568], [-97.01002, 33.19427], [-97.00991, 33.18918], [-97.0124, 33.1854], [-97.01119, 33.18371], [-97.00821, 33.18679], [-97.00668, 33.18601], [-97.00688, 33.1837], [-97.00368, 33.18498], [-97.0041, 33.18241], [-97.0097, 33.18143], [-97.00899, 33.17859], [-97.01131, 33.17699], [-97.00429, 33.17803], [-97.0021, 33.17702], [-97.00477, 33.17535], [-97.00949, 33.17615], [-97.00986, 33.17182], [-97.00744, 33.17236], [-97.00669, 33.17001], [-97.00397, 33.17038], [-97.00506, 33.16809], [-97.0007, 33.16605], [-97.00045, 33.16733], [-96.99645, 33.15914], [-96.99405, 33.15761], [-96.99193, 33.16061], [-96.99171, 33.16964], [-96.98981, 33.16694], [-96.98725, 33.16685], [-96.98772, 33.15877], [-96.99114, 33.15497], [-96.99005, 33.15306], [-96.98527, 33.15294], [-96.98522, 33.15562], [-96.97977, 33.15549], [-96.97971, 33.15113], [-96.98379, 33.15078], [-96.9838, 33.1438], [-96.98794, 33.14288], [-96.99193, 33.13676], [-96.98936, 33.13663], [-96.98852, 33.13185], [-96.98682, 33.1319], [-96.98647, 33.1367], [-96.98669, 33.13071], [-96.98496, 33.13012], [-96.98313, 33.13162], [-96.98423, 33.13531], [-96.98209, 33.13934], [-96.98101, 33.13758], [-96.97786, 33.13842], [-96.98141, 33.13424], [-96.97744, 33.13417], [-96.98028, 33.13222], [-96.98032, 33.12924], [-96.97505, 33.12922], [-96.97601, 33.13139], [-96.97239, 33.1315], [-96.97143, 33.13578], [-96.96979, 33.13425], [-96.96859, 33.13585], [-96.96984, 33.13965], [-96.96697, 33.13801], [-96.96473, 33.14286], [-96.96812, 33.14479], [-96.96571, 33.14553], [-96.96511, 33.14792], [-96.96412, 33.14686], [-96.96323, 33.15027], [-96.96996, 33.14841], [-96.96883, 33.15027], [-96.96973, 33.15188], [-96.96778, 33.15077], [-96.96677, 33.15188], [-96.96834, 33.15627], [-96.96474, 33.15305], [-96.9616, 33.15284], [-96.96236, 33.15475], [-96.96094, 33.15499], [-96.96058, 33.15648], [-96.96348, 33.15698], [-96.96582, 33.16124], [-96.95956, 33.15841], [-96.95759, 33.15846], [-96.95944, 33.16143], [-96.95573, 33.16059], [-96.95894, 33.16436], [-96.96066, 33.1637], [-96.96095, 33.16783], [-96.96225, 33.16896], [-96.96367, 33.16809], [-96.96343, 33.17019], [-96.96586, 33.17015], [-96.96364, 33.17064], [-96.96558, 33.1724], [-96.96299, 33.17398], [-96.96336, 33.17186], [-96.95865, 33.17047], [-96.95758, 33.17256], [-96.95699, 33.16956], [-96.95471, 33.16851], [-96.95565, 33.16587], [-96.95435, 33.16425], [-96.95146, 33.16746], [-96.9533, 33.16981], [-96.95124, 33.17031], [-96.95369, 33.17608], [-96.95077, 33.17659]], [[-96.90338, 33.11548], [-96.90334, 33.11541], [-96.90332, 33.1155], [-96.90338, 33.11548]], [[-96.90371, 33.11284], [-96.90251, 33.11416], [-96.90334, 33.11541], [-96.90371, 33.11284]], [[-97.05492, 33.27012], [-97.0548, 33.27144], [-97.05532, 33.27145], [-97.05492, 33.27012]], [[-97.05197, 33.26388], [-97.04927, 33.26375], [-97.04927, 33.26375], [-97.05197, 33.26388]], [[-96.95817, 33.21125], [-96.95806, 33.2108], [-96.95763, 33.21153], [-96.95817, 33.21125]], [[-97.04464, 33.27843], [-97.04476, 33.27781], [-97.04463, 33.27614], [-97.04464, 33.27843]], [[-97.04202, 33.27792], [-97.04172, 33.2786], [-97.04226, 33.28115], [-97.04202, 33.27792]], [[-97.04173, 33.28235], [-97.04194, 33.28204], [-97.04139, 33.2828], [-97.04173, 33.28235]], [[-97.03974, 33.28271], [-97.04016, 33.28302], [-97.03907, 33.28218], [-97.03974, 33.28271]], [[-97.0563, 33.26408], [-97.05655, 33.26559], [-97.05682, 33.26517], [-97.0563, 33.26408]], [[-97.05714, 33.26561], [-97.05727, 33.26705], [-97.05761, 33.26629], [-97.05714, 33.26561]], [[-97.05492, 33.26821], [-97.0551, 33.26915], [-97.05518, 33.26762], [-97.05492, 33.26821]], [[-97.02945, 33.09311], [-97.02901, 33.09139], [-97.02822, 33.09025], [-97.02945, 33.09311]], [[-97.01654, 33.21425], [-97.01535, 33.21558], [-97.01744, 33.21459], [-97.01654, 33.21425]]], [[[-96.96278, 33.17169], [-96.96259, 33.17227], [-96.96211, 33.17188], [-96.96278, 33.17169]]], [[[-96.96658, 33.17264], [-96.96603, 33.17304], [-96.96559, 33.17241], [-96.96658, 33.17264]]], [[[-96.96689, 33.17483], [-96.96603, 33.17304], [-96.96739, 33.17429], [-96.96689, 33.17483]]], [[[-96.96529, 33.19146], [-96.96162, 33.19041], [-96.9653, 33.19045], [-96.96529, 33.19146]]], [[[-96.88662, 33.20702], [-96.88665, 33.20616], [-96.88776, 33.20576], [-96.88662, 33.20702]]], [[[-96.94388, 33.23399], [-96.94158, 33.23535], [-96.93906, 33.23483], [-96.94388, 33.23399]]]]}}]}