{"type": "FeatureCollection", "features": [{"type": "Feature", "properties": {"id": "usace-stillhouse-hollow", "name": "Stillhouse Hollow Lake", "source": "USGS PAD-US 4.1", "padusUnit": "Stillhouse Recreation Area"}, "geometry": {"type": "Polygon", "coordinates": [[[-97.53176, 31.04475], [-97.53374, 31.04868], [-97.53456, 31.04582], [-97.53881, 31.04808], [-97.53947, 31.04631], [-97.53788, 31.0437], [-97.54062, 31.04412], [-97.54207, 31.04744], [-97.54275, 31.04534], [-97.54572, 31.04636], [-97.54413, 31.04155], [-97.54829, 31.04259], [-97.54931, 31.03898], [-97.55031, 31.04137], [-97.55375, 31.04006], [-97.55497, 31.04388], [-97.55707, 31.04103], [-97.55866, 31.04148], [-97.55975, 31.03606], [-97.56192, 31.0367], [-97.56161, 31.04231], [-97.56596, 31.04416], [-97.57265, 31.0406], [-97.57227, 31.03811], [-97.57418, 31.03619], [-97.57551, 31.03977], [-97.57748, 31.03841], [-97.57875, 31.04135], [-97.58301, 31.0434], [-97.5846, 31.0416], [-97.58664, 31.04538], [-97.59064, 31.04253], [-97.59188, 31.03796], [-97.60013, 31.04458], [-97.60258, 31.03704], [-97.60489, 31.03903], [-97.60766, 31.03627], [-97.60502, 31.03294], [-97.61433, 31.03084], [-97.62293, 31.0346], [-97.62884, 31.03346], [-97.63191, 31.03962], [-97.63382, 31.03716], [-97.63254, 31.03345], [-97.63658, 31.03281], [-97.63054, 31.02677], [-97.63725, 31.0262], [-97.63866, 31.0228], [-97.63594, 31.02043], [-97.63614, 31.01778], [-97.63976, 31.01815], [-97.64096, 31.02352], [-97.64377, 31.02263], [-97.64357, 31.0188], [-97.64658, 31.01848], [-97.65074, 31.02358], [-97.6513, 31.01878], [-97.65355, 31.02109], [-97.65384, 31.01694], [-97.65728, 31.0149], [-97.65854, 31.01708], [-97.65721, 31.02116], [-97.66094, 31.02452], [-97.65801, 31.02728], [-97.65872, 31.02941], [-97.66375, 31.02789], [-97.66321, 31.02656], [-97.66658, 31.02522], [-97.66502, 31.02474], [-97.66653, 31.0227], [-97.66202, 31.02028], [-97.66481, 31.01522], [-97.66195, 31.01349], [-97.66115, 31.01022], [-97.66461, 31.01219], [-97.66529, 31.00965], [-97.6614, 31.00626], [-97.66259, 31.00507], [-97.66165, 31.00358], [-97.65924, 31.00497], [-97.65425, 31.00198], [-97.6666, 31.00287], [-97.66783, 31.00106], [-97.66599, 30.99917], [-97.67117, 30.99458], [-97.68004, 30.99881], [-97.68084, 31.00078], [-97.68307, 30.99835], [-97.69115, 31.00108], [-97.68731, 30.99578], [-97.68946, 30.99476], [-97.69237, 30.99782], [-97.69914, 30.99861], [-97.69829, 30.99635], [-97.69567, 30.99583], [-97.69678, 30.99056], [-97.69182, 30.99053], [-97.69267, 30.98772], [-97.69032, 30.98223], [-97.69187, 30.98376], [-97.69365, 30.98317], [-97.69221, 30.97905], [-97.69424, 30.97772], [-97.69802, 30.98038], [-97.7045, 30.98094], [-97.70286, 30.97929], [-97.70799, 30.97637], [-97.70798, 30.97417], [-97.70573, 30.97372], [-97.70598, 30.96912], [-97.70451, 30.96992], [-97.70242, 30.96485], [-97.70421, 30.96417], [-97.70251, 30.96291], [-97.70306, 30.95649], [-97.70122, 30.95602], [-97.69942, 30.95767], [-97.69877, 30.95595], [-97.69786, 30.95765], [-97.69714, 30.96712], [-97.70017, 30.97291], [-97.6989, 30.97359], [-97.69919, 30.97234], [-97.69245, 30.96669], [-97.68825, 30.96617], [-97.68808, 30.96437], [-97.68423, 30.96211], [-97.68665, 30.9661], [-97.6842, 30.96891], [-97.68152, 30.96693], [-97.68089, 30.96839], [-97.6832, 30.97058], [-97.68118, 30.97714], [-97.67856, 30.97688], [-97.68094, 30.98169], [-97.67918, 30.9842], [-97.6729, 30.98669], [-97.66935, 30.98529], [-97.67081, 30.98333], [-97.66861, 30.98241], [-97.66773, 30.98359], [-97.66434, 30.98216], [-97.66407, 30.98562], [-97.65898, 30.98362], [-97.65917, 30.98785], [-97.66098, 30.98829], [-97.6602, 30.99305], [-97.6575, 30.9931], [-97.65698, 30.99101], [-97.65515, 30.9928], [-97.65277, 30.99095], [-97.64439, 30.99434], [-97.64242, 30.9932], [-97.64372, 30.99702], [-97.64185, 31.00122], [-97.64332, 31.00355], [-97.64006, 31.006], [-97.63845, 31.00472], [-97.63652, 30.99695], [-97.63291, 30.99802], [-97.63194, 31.00154], [-97.63312, 31.00452], [-97.62934, 31.00347], [-97.62722, 31.00614], [-97.62061, 31.00232], [-97.61977, 31.00036], [-97.60633, 31.00024], [-97.60281, 31.00128], [-97.5988, 31.00506], [-97.59261, 31.00136], [-97.59264, 30.99552], [-97.5816, 30.99452], [-97.58082, 30.99944], [-97.57749, 30.99737], [-97.57561, 31.00297], [-97.57269, 30.99933], [-97.57148, 31.00256], [-97.56533, 31.00063], [-97.56483, 31.00289], [-97.5617, 31.00247], [-97.56554, 31.00718], [-97.55997, 31.00399], [-97.55884, 31.00709], [-97.55641, 31.00671], [-97.55375, 31.00871], [-97.55413, 31.00674], [-97.54946, 31.0072], [-97.54952, 31.00267], [-97.55386, 31.00286], [-97.55161, 31.00155], [-97.55442, 31.00028], [-97.55191, 30.99888], [-97.55383, 30.99355], [-97.55009, 30.99234], [-97.54897, 30.99478], [-97.54758, 30.99398], [-97.54617, 30.99555], [-97.54769, 30.99695], [-97.54689, 30.99867], [-97.54494, 30.99906], [-97.53423, 30.99504], [-97.53373, 30.99919], [-97.53721, 31.00615], [-97.5342, 31.00567], [-97.53384, 31.00818], [-97.52346, 31.01781], [-97.5147, 31.0208], [-97.51491, 31.02198], [-97.52377, 31.02375], [-97.52592, 31.03113], [-97.52901, 31.03197], [-97.52591, 31.03778], [-97.52714, 31.03724], [-97.52733, 31.03879], [-97.52539, 31.04032], [-97.52566, 31.0431], [-97.52759, 31.04362], [-97.53031, 31.04029], [-97.52991, 31.04755], [-97.53176, 31.04475]]]}}]}