{"type": "FeatureCollection", "features": [{"type": "Feature", "properties": {"id": "usace-georgetown", "name": "Lake Georgetown", "source": "USGS PAD-US 4.1", "padusUnit": "Georgetown Recreation Area"}, "geometry": {"type": "Polygon", "coordinates": [[[-97.82568, 30.69951], [-97.82855, 30.70361], [-97.82999, 30.69973], [-97.83283, 30.69868], [-97.83268, 30.69695], [-97.83582, 30.69745], [-97.83805, 30.70189], [-97.84018, 30.70123], [-97.84047, 30.69972], [-97.83606, 30.69697], [-97.84109, 30.69438], [-97.83494, 30.69053], [-97.82975, 30.69515], [-97.82905, 30.6935], [-97.82471, 30.69504], [-97.82316, 30.69361], [-97.82336, 30.68922], [-97.81779, 30.68723], [-97.81488, 30.68869], [-97.81178, 30.6884], [-97.81046, 30.68643], [-97.80466, 30.68886], [-97.80024, 30.68819], [-97.79643, 30.68582], [-97.80039, 30.68211], [-97.79714, 30.68202], [-97.79206, 30.67916], [-97.79221, 30.67756], [-97.78893, 30.67662], [-97.7856, 30.66862], [-97.77368, 30.67022], [-97.77147, 30.66718], [-97.76833, 30.66817], [-97.76546, 30.66155], [-97.7614, 30.66278], [-97.75907, 30.66679], [-97.75624, 30.66672], [-97.75741, 30.66347], [-97.75281, 30.66494], [-97.75118, 30.66395], [-97.75109, 30.66019], [-97.74738, 30.66528], [-97.74925, 30.66628], [-97.74002, 30.66915], [-97.73587, 30.65987], [-97.72911, 30.658], [-97.7264, 30.66229], [-97.72421, 30.65703], [-97.71465, 30.66181], [-97.70832, 30.6591], [-97.70678, 30.66105], [-97.71707, 30.66453], [-97.71603, 30.67301], [-97.71985, 30.67858], [-97.71731, 30.68267], [-97.71953, 30.68017], [-97.72193, 30.68301], [-97.73088, 30.68026], [-97.73261, 30.68148], [-97.72904, 30.68402], [-97.73072, 30.68657], [-97.73314, 30.68655], [-97.73198, 30.68959], [-97.73549, 30.69123], [-97.73939, 30.68995], [-97.74114, 30.69278], [-97.74167, 30.68926], [-97.74998, 30.68662], [-97.75312, 30.69048], [-97.75608, 30.68824], [-97.76094, 30.69116], [-97.76447, 30.69115], [-97.76193, 30.68927], [-97.76243, 30.68626], [-97.76013, 30.68655], [-97.75788, 30.68417], [-97.75458, 30.68443], [-97.75302, 30.68301], [-97.7639, 30.67901], [-97.7635, 30.68093], [-97.76793, 30.67946], [-97.77089, 30.68122], [-97.76971, 30.68344], [-97.77366, 30.68341], [-97.77412, 30.68702], [-97.77741, 30.69156], [-97.78262, 30.69294], [-97.78985, 30.68992], [-97.79927, 30.6936], [-97.80241, 30.69918], [-97.8054, 30.69955], [-97.81682, 30.69549], [-97.82193, 30.69957], [-97.82568, 30.69951]]]}}]}