{"type": "FeatureCollection", "features": [{"type": "Feature", "properties": {"id": "usace-sam-rayburn", "name": "Sam Rayburn Reservoir", "source": "USGS PAD-US 4.1", "padusUnit": "Sam Rayburn Recreation Area"}, "geometry": {"type": "MultiPolygon", "coordinates": [[[[-94.26614, 31.11531], [-94.26652, 31.11223], [-94.26705, 31.11271], [-94.26614, 31.11531]]], [[[-94.27249, 31.10919], [-94.27313, 31.11477], [-94.2717, 31.11476], [-94.27076, 31.11833], [-94.26686, 31.12158], [-94.26614, 31.11531], [-94.26879, 31.11842], [-94.27249, 31.10919]]], [[[-94.26782, 31.14634], [-94.26808, 31.14393], [-94.26969, 31.1461], [-94.26782, 31.14634]]], [[[-94.37403, 31.18034], [-94.37377, 31.17736], [-94.37588, 31.1764], [-94.37403, 31.18034]]], [[[-94.35283, 31.19158], [-94.35156, 31.1926], [-94.35066, 31.19074], [-94.35283, 31.19158]]], [[[-94.30457, 31.25662], [-94.30612, 31.25667], [-94.30457, 31.25693], [-94.30531, 31.25809], [-94.30438, 31.25854], [-94.30209, 31.25386], [-94.30159, 31.25877], [-94.2998, 31.25637], [-94.3033, 31.24985], [-94.30532, 31.24992], [-94.30287, 31.25089], [-94.30385, 31.2515], [-94.30271, 31.25281], [-94.30468, 31.25317], [-94.30344, 31.25404], [-94.30457, 31.25662]]], [[[-94.51119, 31.39137], [-94.51269, 31.39024], [-94.51292, 31.39507], [-94.5148, 31.39531], [-94.51531, 31.39112], [-94.51625, 31.39417], [-94.51898, 31.39216], [-94.51797, 31.39475], [-94.52773, 31.39402], [-94.52808, 31.39504], [-94.53295, 31.38972], [-94.5354, 31.39374], [-94.53688, 31.39348], [-94.54019, 31.38688], [-94.54485, 31.3848], [-94.5479, 31.38709], [-94.54635, 31.38747], [-94.54634, 31.3899], [-94.54956, 31.39107], [-94.54656, 31.39256], [-94.54696, 31.39477], [-94.54349, 31.39627], [-94.54273, 31.39921], [-94.54757, 31.40051], [-94.542, 31.40075], [-94.54301, 31.40442], [-94.54916, 31.41073], [-94.55804, 31.40836], [-94.55471, 31.41301], [-94.54922, 31.41524], [-94.54803, 31.41838], [-94.54974, 31.41949], [-94.54776, 31.41907], [-94.54753, 31.42361], [-94.56639, 31.42909], [-94.56587, 31.42749], [-94.57085, 31.42405], [-94.57061, 31.42234], [-94.5733, 31.42004], [-94.57281, 31.42681], [-94.57592, 31.42826], [-94.56998, 31.42771], [-94.56923, 31.42976], [-94.57122, 31.43121], [-94.57816, 31.43087], [-94.57754, 31.43209], [-94.58221, 31.43238], [-94.58105, 31.43315], [-94.58092, 31.44571], [-94.57873, 31.4455], [-94.57406, 31.44924], [-94.56958, 31.44939], [-94.56889, 31.44808], [-94.57522, 31.44805], [-94.57296, 31.44246], [-94.57036, 31.44162], [-94.56768, 31.44378], [-94.56689, 31.44727], [-94.56537, 31.44607], [-94.56164, 31.44754], [-94.56055, 31.44519], [-94.56415, 31.44615], [-94.56794, 31.44114], [-94.56592, 31.43935], [-94.55822, 31.43808], [-94.55029, 31.43413], [-94.5453, 31.43696], [-94.54614, 31.44045], [-94.54153, 31.43678], [-94.54425, 31.43481], [-94.5414, 31.43303], [-94.53637, 31.43275], [-94.53318, 31.42709], [-94.53844, 31.42304], [-94.53582, 31.42299], [-94.53683, 31.42153], [-94.53981, 31.42126], [-94.54066, 31.41693], [-94.53767, 31.40605], [-94.52992, 31.40701], [-94.5287, 31.40782], [-94.53006, 31.41074], [-94.52814, 31.41028], [-94.52795, 31.40813], [-94.52327, 31.41031], [-94.51793, 31.40845], [-94.51298, 31.41149], [-94.51371, 31.41381], [-94.51529, 31.41313], [-94.51322, 31.4152], [-94.51527, 31.41971], [-94.51561, 31.42774], [-94.51453, 31.42859], [-94.51964, 31.43171], [-94.51533, 31.44054], [-94.52196, 31.44684], [-94.51909, 31.45473], [-94.51398, 31.45455], [-94.51494, 31.45256], [-94.51339, 31.45405], [-94.51211, 31.45314], [-94.50891, 31.44737], [-94.51097, 31.44302], [-94.5089, 31.43553], [-94.51233, 31.43266], [-94.51156, 31.43105], [-94.5099, 31.43208], [-94.51039, 31.42868], [-94.50859, 31.42801], [-94.50992, 31.42571], [-94.50453, 31.4212], [-94.50249, 31.41538], [-94.49791, 31.41345], [-94.49675, 31.40879], [-94.48696, 31.40793], [-94.48768, 31.41586], [-94.49178, 31.41571], [-94.49405, 31.41908], [-94.49397, 31.42325], [-94.48964, 31.42252], [-94.48964, 31.41998], [-94.48659, 31.41814], [-94.4853, 31.41456], [-94.48395, 31.41461], [-94.48334, 31.41734], [-94.48049, 31.41558], [-94.48198, 31.40624], [-94.48555, 31.40153], [-94.48473, 31.39554], [-94.48036, 31.39522], [-94.47405, 31.39204], [-94.47457, 31.39478], [-94.47103, 31.39539], [-94.47101, 31.399], [-94.46923, 31.39855], [-94.46572, 31.4023], [-94.46549, 31.40589], [-94.46346, 31.40585], [-94.46377, 31.40215], [-94.46699, 31.3967], [-94.46557, 31.39547], [-94.46834, 31.393], [-94.46632, 31.39195], [-94.46993, 31.38994], [-94.46767, 31.38492], [-94.46499, 31.38335], [-94.46148, 31.38659], [-94.46129, 31.3854], [-94.45942, 31.38611], [-94.46328, 31.38222], [-94.46072, 31.3805], [-94.45925, 31.37424], [-94.45683, 31.37435], [-94.4623, 31.37372], [-94.46009, 31.37261], [-94.4612, 31.37037], [-94.45941, 31.37067], [-94.45826, 31.36744], [-94.46145, 31.36919], [-94.46215, 31.36291], [-94.45748, 31.36023], [-94.4589, 31.35974], [-94.45831, 31.35429], [-94.45492, 31.35358], [-94.45662, 31.35772], [-94.45535, 31.35817], [-94.45457, 31.35586], [-94.45354, 31.3584], [-94.45189, 31.35623], [-94.44966, 31.35794], [-94.45102, 31.36196], [-94.44921, 31.36196], [-94.45141, 31.36345], [-94.44902, 31.36301], [-94.44782, 31.36565], [-94.45037, 31.36631], [-94.45123, 31.37285], [-94.44998, 31.37141], [-94.44834, 31.37218], [-94.44593, 31.37758], [-94.44521, 31.3768], [-94.44275, 31.3791], [-94.44323, 31.38081], [-94.44029, 31.38033], [-94.43787, 31.3821], [-94.43884, 31.38045], [-94.43682, 31.38025], [-94.43801, 31.37893], [-94.43442, 31.37803], [-94.43788, 31.37412], [-94.43787, 31.37123], [-94.44058, 31.36921], [-94.4407, 31.36545], [-94.43901, 31.36419], [-94.44048, 31.3591], [-94.43692, 31.35934], [-94.4345, 31.36328], [-94.43353, 31.36082], [-94.43544, 31.3576], [-94.44178, 31.35568], [-94.4445, 31.35326], [-94.44068, 31.34823], [-94.43654, 31.35229], [-94.43538, 31.34976], [-94.43841, 31.34637], [-94.43521, 31.34357], [-94.42873, 31.3438], [-94.42621, 31.34536], [-94.42492, 31.3486], [-94.42317, 31.3486], [-94.42154, 31.34545], [-94.42583, 31.34287], [-94.42654, 31.34084], [-94.42406, 31.34031], [-94.4251, 31.33811], [-94.42154, 31.3386], [-94.42331, 31.33761], [-94.42229, 31.33622], [-94.41836, 31.33704], [-94.42022, 31.33413], [-94.42019, 31.33196], [-94.41782, 31.33281], [-94.41847, 31.33119], [-94.41683, 31.33031], [-94.41823, 31.33032], [-94.41698, 31.32897], [-94.41845, 31.32655], [-94.41124, 31.32498], [-94.40885, 31.33018], [-94.40758, 31.32935], [-94.40802, 31.32551], [-94.40342, 31.32727], [-94.39939, 31.32116], [-94.39777, 31.32279], [-94.39794, 31.32628], [-94.39653, 31.3242], [-94.39443, 31.32593], [-94.39723, 31.31752], [-94.39259, 31.32018], [-94.39059, 31.31939], [-94.39234, 31.31806], [-94.38184, 31.31282], [-94.37589, 31.30641], [-94.3745, 31.30747], [-94.3746, 31.31429], [-94.37581, 31.3153], [-94.374, 31.31534], [-94.37441, 31.3228], [-94.36922, 31.3176], [-94.36995, 31.31558], [-94.36772, 31.30796], [-94.36613, 31.30825], [-94.36656, 31.3037], [-94.36437, 31.30192], [-94.36683, 31.30012], [-94.3656, 31.29849], [-94.36655, 31.29665], [-94.36727, 31.29783], [-94.36975, 31.29718], [-94.36908, 31.2941], [-94.36653, 31.29209], [-94.36924, 31.29215], [-94.36769, 31.28844], [-94.36922, 31.2889], [-94.37284, 31.28321], [-94.369, 31.28531], [-94.37082, 31.28176], [-94.36913, 31.27755], [-94.36447, 31.27562], [-94.36115, 31.27765], [-94.36296, 31.27515], [-94.35763, 31.2676], [-94.35385, 31.26586], [-94.3531, 31.26997], [-94.3523, 31.26596], [-94.35111, 31.26712], [-94.35359, 31.27411], [-94.35011, 31.27947], [-94.3513, 31.28212], [-94.34986, 31.28306], [-94.35177, 31.28529], [-94.35092, 31.28879], [-94.34667, 31.29184], [-94.34365, 31.29137], [-94.34431, 31.29389], [-94.35116, 31.29386], [-94.35193, 31.29565], [-94.34291, 31.29669], [-94.34482, 31.29909], [-94.34409, 31.30063], [-94.34234, 31.30033], [-94.34539, 31.30208], [-94.34451, 31.30324], [-94.34011, 31.30278], [-94.34061, 31.29969], [-94.33914, 31.29977], [-94.33982, 31.30085], [-94.33618, 31.30024], [-94.3416, 31.30878], [-94.34421, 31.3096], [-94.34234, 31.31027], [-94.3432, 31.31136], [-94.33752, 31.30719], [-94.3369, 31.30468], [-94.33198, 31.30366], [-94.33307, 31.30776], [-94.33211, 31.31134], [-94.33349, 31.31249], [-94.33214, 31.31281], [-94.3338, 31.31392], [-94.33142, 31.31357], [-94.33198, 31.31562], [-94.32899, 31.31309], [-94.32695, 31.31426], [-94.32694, 31.31591], [-94.32768, 31.31446], [-94.32891, 31.31538], [-94.3267, 31.31868], [-94.32536, 31.31727], [-94.32594, 31.31419], [-94.32457, 31.3144], [-94.32412, 31.31705], [-94.32488, 31.31878], [-94.3302, 31.3207], [-94.32823, 31.321], [-94.32915, 31.32222], [-94.32574, 31.32223], [-94.32575, 31.32376], [-94.32841, 31.32519], [-94.33383, 31.32316], [-94.33452, 31.32137], [-94.34041, 31.32117], [-94.35152, 31.32656], [-94.35174, 31.32845], [-94.34936, 31.32994], [-94.33955, 31.32476], [-94.33608, 31.32548], [-94.33614, 31.3266], [-94.33546, 31.32571], [-94.33569, 31.32786], [-94.33401, 31.32572], [-94.32995, 31.32787], [-94.32574, 31.32684], [-94.32702, 31.32985], [-94.32561, 31.33066], [-94.3262, 31.33208], [-94.33173, 31.33204], [-94.33246, 31.33031], [-94.33538, 31.33031], [-94.335, 31.33186], [-94.33812, 31.33266], [-94.34102, 31.33615], [-94.34393, 31.33545], [-94.3406, 31.33655], [-94.3358, 31.33353], [-94.33584, 31.33516], [-94.33436, 31.33481], [-94.33521, 31.33314], [-94.33398, 31.33225], [-94.33063, 31.33365], [-94.33101, 31.33619], [-94.32844, 31.33726], [-94.33148, 31.34484], [-94.33701, 31.34289], [-94.33574, 31.34576], [-94.33436, 31.34442], [-94.33204, 31.34566], [-94.33184, 31.35045], [-94.33306, 31.35311], [-94.33684, 31.35112], [-94.33978, 31.35269], [-94.33726, 31.35288], [-94.33767, 31.35425], [-94.33544, 31.35449], [-94.33573, 31.35551], [-94.33245, 31.35529], [-94.33061, 31.35867], [-94.33391, 31.36015], [-94.33538, 31.35935], [-94.33669, 31.36154], [-94.34054, 31.36145], [-94.33726, 31.36267], [-94.33565, 31.37022], [-94.33633, 31.37174], [-94.34208, 31.37198], [-94.33788, 31.37554], [-94.34086, 31.37993], [-94.33902, 31.38146], [-94.32782, 31.38243], [-94.32995, 31.38352], [-94.32851, 31.38526], [-94.3295, 31.38641], [-94.32721, 31.38616], [-94.32785, 31.38796], [-94.32538, 31.39095], [-94.31329, 31.39424], [-94.31587, 31.3922], [-94.30783, 31.39379], [-94.31326, 31.38973], [-94.31408, 31.38533], [-94.31737, 31.38487], [-94.317, 31.38101], [-94.31246, 31.38077], [-94.30584, 31.38538], [-94.29877, 31.38415], [-94.30663, 31.37649], [-94.30632, 31.37498], [-94.31335, 31.3736], [-94.31256, 31.37064], [-94.31619, 31.36962], [-94.31292, 31.36913], [-94.31385, 31.3681], [-94.31048, 31.36617], [-94.30943, 31.36394], [-94.31322, 31.35851], [-94.31033, 31.35795], [-94.32063, 31.35191], [-94.3161, 31.35159], [-94.31854, 31.34576], [-94.31536, 31.34056], [-94.31033, 31.34298], [-94.30945, 31.3459], [-94.29916, 31.33564], [-94.30133, 31.33187], [-94.29656, 31.33183], [-94.29779, 31.33002], [-94.29182, 31.33068], [-94.28914, 31.32896], [-94.28845, 31.33012], [-94.28526, 31.32574], [-94.29035, 31.32299], [-94.29411, 31.3235], [-94.29324, 31.32485], [-94.30268, 31.32594], [-94.30199, 31.3232], [-94.30505, 31.32481], [-94.30629, 31.32251], [-94.30838, 31.32215], [-94.30807, 31.31835], [-94.3105, 31.31386], [-94.30963, 31.31094], [-94.30302, 31.31242], [-94.30845, 31.30814], [-94.30832, 31.30541], [-94.31223, 31.30459], [-94.31168, 31.30299], [-94.30938, 31.3035], [-94.31036, 31.30129], [-94.3064, 31.29901], [-94.31198, 31.29938], [-94.31142, 31.29574], [-94.31426, 31.29484], [-94.31057, 31.29265], [-94.31378, 31.29232], [-94.31385, 31.29074], [-94.31065, 31.28897], [-94.30957, 31.29039], [-94.30956, 31.28852], [-94.31396, 31.28677], [-94.31463, 31.28895], [-94.31621, 31.28778], [-94.31626, 31.2905], [-94.3194, 31.29043], [-94.3191, 31.28939], [-94.32383, 31.29036], [-94.31957, 31.28725], [-94.32081, 31.28526], [-94.31874, 31.28454], [-94.31766, 31.28147], [-94.31925, 31.27993], [-94.31722, 31.28003], [-94.31742, 31.28614], [-94.30951, 31.28637], [-94.30952, 31.27095], [-94.31153, 31.27087], [-94.31104, 31.26058], [-94.313, 31.25865], [-94.31622, 31.25862], [-94.31542, 31.25713], [-94.31763, 31.25726], [-94.31717, 31.2534], [-94.31371, 31.25472], [-94.31551, 31.25238], [-94.3141, 31.2502], [-94.30967, 31.25188], [-94.31087, 31.25004], [-94.30924, 31.25004], [-94.31331, 31.24761], [-94.30877, 31.23964], [-94.30956, 31.23813], [-94.29406, 31.22949], [-94.29172, 31.22421], [-94.28976, 31.22366], [-94.28395, 31.23284], [-94.28619, 31.23312], [-94.28414, 31.23688], [-94.28172, 31.23693], [-94.27773, 31.24359], [-94.27414, 31.24314], [-94.27062, 31.24522], [-94.26358, 31.25656], [-94.26669, 31.2578], [-94.2619, 31.25866], [-94.26496, 31.26143], [-94.26176, 31.26279], [-94.26282, 31.26177], [-94.26102, 31.25963], [-94.25878, 31.26116], [-94.26084, 31.26191], [-94.25828, 31.26174], [-94.25801, 31.26442], [-94.25962, 31.26529], [-94.25791, 31.26571], [-94.25871, 31.26912], [-94.25645, 31.27023], [-94.25701, 31.27162], [-94.25483, 31.27054], [-94.25348, 31.27229], [-94.25206, 31.27078], [-94.2523, 31.26475], [-94.24896, 31.26401], [-94.25137, 31.26277], [-94.24931, 31.25953], [-94.25101, 31.25785], [-94.24785, 31.25684], [-94.24739, 31.255], [-94.24571, 31.25614], [-94.2479, 31.25338], [-94.25408, 31.25414], [-94.25327, 31.24784], [-94.25819, 31.24896], [-94.25458, 31.24389], [-94.25811, 31.24225], [-94.25466, 31.24045], [-94.25774, 31.23925], [-94.26001, 31.24042], [-94.25973, 31.2371], [-94.2614, 31.23719], [-94.26226, 31.23396], [-94.26617, 31.23654], [-94.26403, 31.23307], [-94.26704, 31.23239], [-94.26641, 31.22732], [-94.2651, 31.22529], [-94.26497, 31.2297], [-94.26275, 31.23211], [-94.26227, 31.22752], [-94.26386, 31.22192], [-94.26677, 31.22353], [-94.27015, 31.22033], [-94.27074, 31.21714], [-94.26904, 31.21595], [-94.26563, 31.21984], [-94.26796, 31.21316], [-94.26702, 31.20822], [-94.26572, 31.20966], [-94.26541, 31.20821], [-94.26211, 31.20721], [-94.26045, 31.20787], [-94.26067, 31.20956], [-94.25593, 31.21054], [-94.25482, 31.216], [-94.25431, 31.21443], [-94.2519, 31.21398], [-94.25477, 31.20798], [-94.2595, 31.20548], [-94.25803, 31.20217], [-94.25877, 31.1992], [-94.25684, 31.19748], [-94.25475, 31.20107], [-94.2519, 31.19991], [-94.24964, 31.20239], [-94.24954, 31.19978], [-94.24664, 31.19976], [-94.24613, 31.2043], [-94.24796, 31.20582], [-94.24599, 31.20642], [-94.2469, 31.20877], [-94.24432, 31.20869], [-94.24473, 31.21223], [-94.2433, 31.21279], [-94.2424, 31.21674], [-94.24208, 31.2122], [-94.23886, 31.21357], [-94.23688, 31.21777], [-94.23765, 31.2127], [-94.24202, 31.20904], [-94.24271, 31.20582], [-94.23658, 31.20713], [-94.24136, 31.20215], [-94.24116, 31.20092], [-94.23918, 31.20128], [-94.23913, 31.19958], [-94.23671, 31.19977], [-94.23696, 31.20171], [-94.23478, 31.20182], [-94.23181, 31.20491], [-94.23296, 31.20703], [-94.22994, 31.20824], [-94.23173, 31.21047], [-94.23037, 31.21296], [-94.23039, 31.21082], [-94.22806, 31.20924], [-94.22251, 31.21135], [-94.22516, 31.21391], [-94.22322, 31.21916], [-94.22267, 31.21426], [-94.22173, 31.21498], [-94.21935, 31.21173], [-94.21692, 31.21181], [-94.22178, 31.20794], [-94.21914, 31.20775], [-94.22026, 31.20568], [-94.22594, 31.20395], [-94.22698, 31.20041], [-94.22378, 31.19916], [-94.22692, 31.19829], [-94.22534, 31.19633], [-94.22709, 31.19719], [-94.22913, 31.19545], [-94.22717, 31.19295], [-94.22796, 31.19145], [-94.22047, 31.18508], [-94.22041, 31.18237], [-94.21787, 31.18149], [-94.21616, 31.18334], [-94.21393, 31.17862], [-94.2103, 31.17937], [-94.20835, 31.18306], [-94.20949, 31.18574], [-94.20845, 31.18695], [-94.20989, 31.18826], [-94.21161, 31.18749], [-94.2108, 31.18889], [-94.21274, 31.19297], [-94.20907, 31.18996], [-94.20938, 31.19684], [-94.2077, 31.19219], [-94.20548, 31.19555], [-94.20311, 31.19465], [-94.2061, 31.19053], [-94.20528, 31.18696], [-94.20289, 31.18881], [-94.20479, 31.18537], [-94.20386, 31.18379], [-94.20145, 31.18822], [-94.19962, 31.18753], [-94.19584, 31.19416], [-94.18593, 31.19013], [-94.1814, 31.198], [-94.17601, 31.19582], [-94.17711, 31.19135], [-94.17591, 31.19052], [-94.17972, 31.18647], [-94.17628, 31.18369], [-94.18127, 31.1844], [-94.1843, 31.1792], [-94.17326, 31.17814], [-94.17512, 31.17681], [-94.17422, 31.17409], [-94.17615, 31.17441], [-94.17721, 31.17711], [-94.18226, 31.1764], [-94.18292, 31.17429], [-94.17819, 31.17334], [-94.18133, 31.17173], [-94.17829, 31.17024], [-94.18028, 31.16971], [-94.17956, 31.16795], [-94.18364, 31.17095], [-94.18375, 31.16697], [-94.18657, 31.16789], [-94.1849, 31.16492], [-94.18617, 31.16537], [-94.18625, 31.16321], [-94.19108, 31.16775], [-94.19202, 31.16553], [-94.18938, 31.16309], [-94.19467, 31.16337], [-94.19276, 31.16015], [-94.19293, 31.16146], [-94.19089, 31.16192], [-94.18677, 31.15971], [-94.18959, 31.15892], [-94.18658, 31.15877], [-94.18789, 31.15488], [-94.18437, 31.15459], [-94.186, 31.15381], [-94.18414, 31.15347], [-94.18244, 31.14963], [-94.18383, 31.1469], [-94.18311, 31.1443], [-94.18315, 31.14699], [-94.18182, 31.14752], [-94.18155, 31.14573], [-94.17997, 31.14667], [-94.1805, 31.14439], [-94.17925, 31.14459], [-94.18055, 31.14156], [-94.17419, 31.14187], [-94.17403, 31.13633], [-94.16513, 31.13705], [-94.16557, 31.15343], [-94.1644, 31.15207], [-94.16194, 31.15257], [-94.16411, 31.15142], [-94.16425, 31.14907], [-94.16237, 31.14644], [-94.16018, 31.14732], [-94.16122, 31.14122], [-94.15868, 31.13879], [-94.1542, 31.14125], [-94.15323, 31.14383], [-94.15274, 31.14274], [-94.15036, 31.14375], [-94.15503, 31.13819], [-94.15347, 31.13818], [-94.15342, 31.13507], [-94.14943, 31.13631], [-94.14842, 31.13458], [-94.14505, 31.13671], [-94.14581, 31.13925], [-94.14116, 31.14144], [-94.14041, 31.14584], [-94.13721, 31.14491], [-94.13932, 31.14424], [-94.14082, 31.14009], [-94.13714, 31.13862], [-94.13971, 31.13653], [-94.13891, 31.13417], [-94.1412, 31.13324], [-94.14513, 31.12685], [-94.14504, 31.12439], [-94.14233, 31.12267], [-94.13681, 31.12163], [-94.13163, 31.12269], [-94.12786, 31.13185], [-94.12731, 31.13063], [-94.12593, 31.13146], [-94.12593, 31.13478], [-94.12825, 31.13862], [-94.12646, 31.14293], [-94.12697, 31.13884], [-94.12392, 31.13576], [-94.12214, 31.13947], [-94.12092, 31.13866], [-94.12209, 31.13679], [-94.12085, 31.13214], [-94.11727, 31.13299], [-94.11515, 31.13621], [-94.11535, 31.1314], [-94.11198, 31.12933], [-94.11224, 31.12798], [-94.11592, 31.13032], [-94.12378, 31.12976], [-94.12789, 31.1232], [-94.12799, 31.11908], [-94.12454, 31.11435], [-94.12126, 31.11493], [-94.12007, 31.11863], [-94.11812, 31.11778], [-94.11939, 31.11314], [-94.11758, 31.1125], [-94.11648, 31.10933], [-94.12026, 31.11228], [-94.12143, 31.11064], [-94.11996, 31.1083], [-94.11434, 31.10786], [-94.11329, 31.10332], [-94.11229, 31.10382], [-94.11361, 31.11415], [-94.10671, 31.11056], [-94.10384, 31.11169], [-94.10482, 31.11335], [-94.10183, 31.11209], [-94.09876, 31.11365], [-94.09903, 31.11767], [-94.10294, 31.12089], [-94.09699, 31.12015], [-94.09728, 31.11486], [-94.09404, 31.11457], [-94.09258, 31.11638], [-94.09375, 31.12089], [-94.09265, 31.12216], [-94.09575, 31.125], [-94.09378, 31.12488], [-94.08929, 31.11741], [-94.09063, 31.11446], [-94.08837, 31.11347], [-94.08446, 31.12113], [-94.08245, 31.12199], [-94.08308, 31.12454], [-94.0862, 31.12363], [-94.08604, 31.12623], [-94.08361, 31.12823], [-94.08687, 31.12665], [-94.08673, 31.12799], [-94.08993, 31.12702], [-94.09365, 31.12914], [-94.09279, 31.13039], [-94.09605, 31.12932], [-94.09294, 31.1306], [-94.09529, 31.13374], [-94.10351, 31.13739], [-94.10135, 31.13772], [-94.10308, 31.1396], [-94.0977, 31.13824], [-94.09656, 31.13885], [-94.0978, 31.13992], [-94.09468, 31.14039], [-94.09405, 31.14135], [-94.09789, 31.14378], [-94.09074, 31.1434], [-94.09848, 31.14599], [-94.1004, 31.14281], [-94.10189, 31.14494], [-94.10069, 31.14632], [-94.10336, 31.14634], [-94.10282, 31.14804], [-94.10839, 31.14708], [-94.10728, 31.14903], [-94.10194, 31.14939], [-94.10402, 31.15131], [-94.10321, 31.15315], [-94.10776, 31.15692], [-94.1028, 31.1551], [-94.10264, 31.1562], [-94.10076, 31.15184], [-94.09932, 31.15335], [-94.09776, 31.14996], [-94.09717, 31.15153], [-94.09205, 31.14829], [-94.09017, 31.14975], [-94.09251, 31.15014], [-94.09134, 31.15143], [-94.09242, 31.1535], [-94.09414, 31.15285], [-94.09247, 31.15524], [-94.09439, 31.15731], [-94.09236, 31.15656], [-94.09213, 31.15796], [-94.08975, 31.15542], [-94.09047, 31.15378], [-94.08714, 31.15225], [-94.08482, 31.15738], [-94.09072, 31.16085], [-94.09257, 31.1594], [-94.09884, 31.16222], [-94.09627, 31.16239], [-94.09743, 31.16596], [-94.09397, 31.16356], [-94.09258, 31.16528], [-94.09394, 31.17084], [-94.09848, 31.17236], [-94.10085, 31.16692], [-94.10131, 31.1729], [-94.10481, 31.17189], [-94.10364, 31.1743], [-94.10474, 31.17536], [-94.10117, 31.17547], [-94.10151, 31.1779], [-94.09741, 31.18004], [-94.0978, 31.1811], [-94.09908, 31.18204], [-94.10492, 31.17812], [-94.10967, 31.17972], [-94.10649, 31.18154], [-94.10761, 31.1824], [-94.11131, 31.18241], [-94.1106, 31.18389], [-94.11435, 31.18533], [-94.10875, 31.18509], [-94.10456, 31.18915], [-94.10987, 31.19535], [-94.11288, 31.19636], [-94.11356, 31.19389], [-94.11482, 31.1948], [-94.11529, 31.19332], [-94.11563, 31.19485], [-94.11833, 31.19457], [-94.1179, 31.19274], [-94.11944, 31.1941], [-94.12104, 31.19125], [-94.12111, 31.1941], [-94.12701, 31.1899], [-94.12664, 31.19114], [-94.1304, 31.19161], [-94.12715, 31.19224], [-94.12552, 31.19653], [-94.12273, 31.19652], [-94.12259, 31.19796], [-94.11922, 31.19721], [-94.11514, 31.19891], [-94.11372, 31.20122], [-94.11515, 31.20127], [-94.11519, 31.20325], [-94.11322, 31.206], [-94.11549, 31.20995], [-94.10608, 31.20747], [-94.10821, 31.21228], [-94.11145, 31.21488], [-94.11695, 31.21545], [-94.12065, 31.21237], [-94.13038, 31.21154], [-94.13486, 31.21043], [-94.13764, 31.2074], [-94.13879, 31.20841], [-94.13704, 31.21096], [-94.13969, 31.21324], [-94.13389, 31.21275], [-94.13247, 31.21442], [-94.12564, 31.21568], [-94.13177, 31.21649], [-94.12799, 31.218], [-94.12918, 31.21801], [-94.12772, 31.21928], [-94.12949, 31.22294], [-94.12627, 31.22117], [-94.12553, 31.22313], [-94.13351, 31.23149], [-94.13751, 31.23432], [-94.1394, 31.23381], [-94.14018, 31.23708], [-94.14788, 31.23875], [-94.14345, 31.2381], [-94.14521, 31.24087], [-94.14043, 31.23992], [-94.13517, 31.24245], [-94.13476, 31.23986], [-94.13122, 31.23972], [-94.13199, 31.23825], [-94.1275, 31.23876], [-94.12863, 31.23545], [-94.12693, 31.23565], [-94.12335, 31.23118], [-94.12076, 31.23764], [-94.12317, 31.241], [-94.12536, 31.24153], [-94.12264, 31.2447], [-94.12539, 31.24968], [-94.12802, 31.2513], [-94.12626, 31.25174], [-94.12666, 31.25593], [-94.12885, 31.25763], [-94.13238, 31.25622], [-94.13269, 31.2581], [-94.12923, 31.261], [-94.13099, 31.26297], [-94.12968, 31.26406], [-94.13126, 31.26518], [-94.13006, 31.26766], [-94.12824, 31.26654], [-94.12862, 31.26291], [-94.12565, 31.26343], [-94.12725, 31.26185], [-94.12494, 31.25993], [-94.12154, 31.26126], [-94.12125, 31.26442], [-94.11868, 31.2653], [-94.11961, 31.26662], [-94.12152, 31.2655], [-94.12295, 31.26655], [-94.12453, 31.27091], [-94.11933, 31.26954], [-94.11823, 31.27097], [-94.1099, 31.27013], [-94.11148, 31.26585], [-94.1092, 31.26347], [-94.11082, 31.26319], [-94.11039, 31.2616], [-94.11287, 31.25825], [-94.10875, 31.25821], [-94.10889, 31.25067], [-94.11115, 31.24785], [-94.11104, 31.24558], [-94.10852, 31.24503], [-94.1091, 31.24127], [-94.10686, 31.23744], [-94.10636, 31.24403], [-94.10609, 31.24203], [-94.10252, 31.24072], [-94.10071, 31.237], [-94.10262, 31.23451], [-94.09744, 31.23387], [-94.09517, 31.23152], [-94.09141, 31.23228], [-94.09361, 31.22963], [-94.10004, 31.22765], [-94.10179, 31.22487], [-94.10413, 31.2243], [-94.10327, 31.21903], [-94.10153, 31.21884], [-94.09716, 31.22541], [-94.0954, 31.22544], [-94.09566, 31.22413], [-94.08976, 31.22744], [-94.09346, 31.22244], [-94.09764, 31.22066], [-94.09763, 31.21765], [-94.09513, 31.21673], [-94.09708, 31.2158], [-94.0963, 31.21408], [-94.09385, 31.21512], [-94.09428, 31.21287], [-94.09165, 31.21226], [-94.08839, 31.21922], [-94.08944, 31.21248], [-94.08808, 31.21021], [-94.08693, 31.21023], [-94.0874, 31.21201], [-94.08506, 31.21158], [-94.08369, 31.21422], [-94.08459, 31.21745], [-94.08181, 31.21654], [-94.08079, 31.22049], [-94.07904, 31.21725], [-94.07761, 31.21829], [-94.0776, 31.22193], [-94.07375, 31.21951], [-94.0765, 31.21508], [-94.07413, 31.21584], [-94.07427, 31.21446], [-94.07725, 31.212], [-94.07978, 31.21241], [-94.08066, 31.20961], [-94.07918, 31.2101], [-94.07869, 31.20801], [-94.07226, 31.21017], [-94.07194, 31.20921], [-94.07685, 31.20564], [-94.07305, 31.20454], [-94.07149, 31.19565], [-94.07525, 31.19527], [-94.07545, 31.19274], [-94.07361, 31.19179], [-94.07699, 31.19051], [-94.07541, 31.18915], [-94.07565, 31.18524], [-94.07405, 31.18512], [-94.07215, 31.18777], [-94.07409, 31.18929], [-94.07147, 31.18915], [-94.06889, 31.19355], [-94.06591, 31.19389], [-94.06537, 31.19715], [-94.06667, 31.19717], [-94.06694, 31.20083], [-94.06505, 31.19999], [-94.06782, 31.20347], [-94.06522, 31.20439], [-94.06657, 31.2045], [-94.06513, 31.20674], [-94.06697, 31.208], [-94.0646, 31.20751], [-94.06336, 31.20903], [-94.06463, 31.21027], [-94.06201, 31.21424], [-94.06056, 31.20701], [-94.06189, 31.20188], [-94.05867, 31.20168], [-94.05771, 31.20417], [-94.05619, 31.20119], [-94.0536, 31.20786], [-94.05032, 31.20838], [-94.04859, 31.21159], [-94.04479, 31.21254], [-94.04505, 31.21473], [-94.04303, 31.21438], [-94.04183, 31.21217], [-94.04269, 31.21047], [-94.03981, 31.20845], [-94.04144, 31.20855], [-94.04167, 31.2069], [-94.0388, 31.20616], [-94.04371, 31.20366], [-94.04134, 31.20197], [-94.04251, 31.20056], [-94.04084, 31.19921], [-94.04591, 31.20107], [-94.04543, 31.19755], [-94.04928, 31.19652], [-94.04759, 31.19432], [-94.05254, 31.19339], [-94.05325, 31.19246], [-94.05117, 31.19055], [-94.05405, 31.19095], [-94.0523, 31.1886], [-94.05617, 31.18844], [-94.05579, 31.18258], [-94.05736, 31.18287], [-94.06049, 31.17645], [-94.05795, 31.17573], [-94.05557, 31.17834], [-94.0535, 31.17543], [-94.04876, 31.17787], [-94.04854, 31.1755], [-94.05653, 31.17173], [-94.05709, 31.17021], [-94.04944, 31.16851], [-94.06122, 31.16524], [-94.0558, 31.16357], [-94.05984, 31.16239], [-94.05556, 31.15991], [-94.0521, 31.1624], [-94.05487, 31.1587], [-94.05415, 31.15736], [-94.04769, 31.15873], [-94.04687, 31.15722], [-94.05278, 31.15511], [-94.04876, 31.15294], [-94.05038, 31.14953], [-94.04684, 31.14888], [-94.04568, 31.15327], [-94.0406, 31.15465], [-94.04012, 31.15934], [-94.03804, 31.15828], [-94.03796, 31.161], [-94.03647, 31.15958], [-94.03468, 31.16191], [-94.03606, 31.16286], [-94.03383, 31.16344], [-94.03412, 31.16519], [-94.03831, 31.16626], [-94.03324, 31.16641], [-94.03793, 31.1688], [-94.03505, 31.17914], [-94.03128, 31.17473], [-94.02849, 31.17878], [-94.03036, 31.17161], [-94.02943, 31.17034], [-94.02562, 31.17147], [-94.02872, 31.16912], [-94.02788, 31.16804], [-94.02428, 31.16826], [-94.02474, 31.17053], [-94.02226, 31.17278], [-94.02096, 31.17153], [-94.01675, 31.17376], [-94.01914, 31.17377], [-94.01761, 31.17473], [-94.01962, 31.17556], [-94.02012, 31.17872], [-94.01427, 31.17439], [-94.01351, 31.17675], [-94.01163, 31.17662], [-94.01056, 31.17961], [-94.01509, 31.18161], [-94.01343, 31.18125], [-94.01039, 31.18431], [-94.01147, 31.18616], [-94.00879, 31.18674], [-94.01452, 31.19057], [-94.0115, 31.19218], [-94.01402, 31.19715], [-94.01096, 31.20116], [-94.01336, 31.20354], [-94.00825, 31.20269], [-94.00642, 31.20058], [-94.00412, 31.20584], [-94.00245, 31.2024], [-94.0004, 31.20269], [-94.00065, 31.20072], [-93.99804, 31.19958], [-93.99856, 31.19497], [-93.9954, 31.19432], [-93.99605, 31.19593], [-93.98703, 31.20062], [-93.9886, 31.19379], [-93.9847, 31.19459], [-93.98395, 31.19036], [-93.981, 31.19037], [-93.98424, 31.18559], [-93.97838, 31.18757], [-93.9782, 31.1901], [-93.97644, 31.19107], [-93.97735, 31.19569], [-93.97575, 31.19067], [-93.97299, 31.19139], [-93.97681, 31.18681], [-93.97866, 31.18703], [-93.97979, 31.18309], [-93.98299, 31.18249], [-93.97691, 31.17731], [-93.97934, 31.17474], [-93.97775, 31.1744], [-93.97833, 31.17236], [-93.98122, 31.17204], [-93.97999, 31.17083], [-93.9827, 31.17181], [-93.98394, 31.17012], [-93.98185, 31.16878], [-93.97919, 31.16944], [-93.98134, 31.16187], [-93.97909, 31.1617], [-93.97714, 31.16425], [-93.97791, 31.16263], [-93.97595, 31.16189], [-93.97727, 31.16032], [-93.98538, 31.16022], [-93.98205, 31.15953], [-93.97982, 31.15658], [-93.98595, 31.15741], [-93.98495, 31.15551], [-93.98702, 31.15333], [-93.9859, 31.15206], [-93.98838, 31.15048], [-93.98964, 31.15177], [-93.98853, 31.15863], [-93.99195, 31.15725], [-93.9923, 31.15509], [-93.98982, 31.15523], [-93.99184, 31.15395], [-93.98757, 31.14903], [-93.99284, 31.15467], [-93.99406, 31.15282], [-93.99509, 31.15354], [-93.99351, 31.15758], [-93.99878, 31.1578], [-93.99706, 31.15632], [-93.99816, 31.15449], [-93.99515, 31.15377], [-93.99511, 31.1522], [-94.00156, 31.15419], [-94.00539, 31.14967], [-93.99904, 31.14672], [-93.9989, 31.13718], [-94.00108, 31.1385], [-94.00028, 31.14232], [-94.00208, 31.14522], [-94.00874, 31.14669], [-94.01125, 31.15039], [-94.01329, 31.14959], [-94.01308, 31.14711], [-94.01139, 31.14704], [-94.01289, 31.14432], [-94.00961, 31.14118], [-94.01131, 31.13863], [-94.00946, 31.13802], [-94.01256, 31.13356], [-94.00848, 31.13318], [-94.0102, 31.1318], [-94.00797, 31.13137], [-94.00471, 31.12667], [-94.00582, 31.12658], [-94.00512, 31.12389], [-94.00617, 31.12588], [-94.00773, 31.12399], [-94.00973, 31.12834], [-94.01211, 31.12709], [-94.01154, 31.12541], [-94.01723, 31.12968], [-94.01788, 31.13119], [-94.01487, 31.13681], [-94.01805, 31.13577], [-94.01734, 31.13934], [-94.01899, 31.14301], [-94.02198, 31.14358], [-94.02311, 31.13977], [-94.02132, 31.1389], [-94.02089, 31.13524], [-94.02264, 31.1343], [-94.02082, 31.13241], [-94.02702, 31.13131], [-94.02416, 31.1311], [-94.02491, 31.12766], [-94.02544, 31.12902], [-94.02942, 31.12931], [-94.02678, 31.12486], [-94.02955, 31.12645], [-94.02859, 31.12387], [-94.03132, 31.12371], [-94.02948, 31.12269], [-94.03302, 31.12161], [-94.02833, 31.12144], [-94.02934, 31.1199], [-94.02754, 31.11901], [-94.02594, 31.12003], [-94.02687, 31.11728], [-94.03235, 31.11717], [-94.0372, 31.11356], [-94.03641, 31.10987], [-94.03801, 31.10866], [-94.03403, 31.11139], [-94.03681, 31.10721], [-94.03128, 31.10919], [-94.03084, 31.11206], [-94.02923, 31.10877], [-94.02938, 31.11018], [-94.02784, 31.10951], [-94.02311, 31.11297], [-94.01697, 31.11291], [-94.01796, 31.11396], [-94.01519, 31.11503], [-94.01332, 31.11017], [-94.00974, 31.11268], [-94.00697, 31.10745], [-94.0096, 31.10673], [-94.00866, 31.10307], [-94.00992, 31.1044], [-94.01062, 31.10222], [-94.01312, 31.10494], [-94.01892, 31.10544], [-94.01994, 31.10203], [-94.01596, 31.10049], [-94.01435, 31.09625], [-94.0207, 31.09884], [-94.02196, 31.0957], [-94.02564, 31.10074], [-94.02911, 31.10051], [-94.02682, 31.09972], [-94.02672, 31.09556], [-94.02523, 31.09479], [-94.02629, 31.0932], [-94.0236, 31.09255], [-94.02264, 31.08946], [-94.02797, 31.09185], [-94.03087, 31.09062], [-94.0303, 31.09497], [-94.03646, 31.09362], [-94.03408, 31.09342], [-94.03225, 31.0902], [-94.03612, 31.09036], [-94.03674, 31.08717], [-94.03424, 31.0876], [-94.03475, 31.08562], [-94.03243, 31.08643], [-94.03366, 31.08485], [-94.02994, 31.08571], [-94.03013, 31.0822], [-94.03401, 31.08105], [-94.04171, 31.08504], [-94.04415, 31.09063], [-94.04854, 31.08476], [-94.05179, 31.0834], [-94.04998, 31.08249], [-94.05165, 31.08061], [-94.04897, 31.0813], [-94.04888, 31.07611], [-94.04747, 31.0775], [-94.04811, 31.08134], [-94.04529, 31.08474], [-94.04559, 31.0819], [-94.04366, 31.08147], [-94.04453, 31.07903], [-94.04171, 31.07867], [-94.04233, 31.08165], [-94.04043, 31.08165], [-94.0397, 31.07836], [-94.03662, 31.08006], [-94.03831, 31.0769], [-94.03528, 31.07614], [-94.03399, 31.07793], [-94.03468, 31.0755], [-94.03206, 31.07494], [-94.03321, 31.07417], [-94.03188, 31.07318], [-94.03632, 31.07476], [-94.03384, 31.07111], [-94.03578, 31.07302], [-94.03685, 31.07192], [-94.03765, 31.0742], [-94.03881, 31.07249], [-94.03996, 31.07407], [-94.04087, 31.07281], [-94.04197, 31.07463], [-94.04468, 31.07437], [-94.04434, 31.07263], [-94.04655, 31.07148], [-94.04562, 31.07083], [-94.03776, 31.07029], [-94.03805, 31.06788], [-94.04022, 31.06934], [-94.04447, 31.06876], [-94.04217, 31.06459], [-94.04762, 31.06976], [-94.04868, 31.06625], [-94.05438, 31.06776], [-94.06402, 31.06218], [-94.07806, 31.0634], [-94.09412, 31.06179], [-94.09951, 31.05884], [-94.10085, 31.05461], [-94.10854, 31.05469], [-94.11429, 31.06001], [-94.12334, 31.05918], [-94.13165, 31.05529], [-94.13295, 31.05836], [-94.13515, 31.05624], [-94.14024, 31.05601], [-94.14044, 31.05754], [-94.13613, 31.0576], [-94.13388, 31.06055], [-94.13636, 31.06649], [-94.12391, 31.07272], [-94.1256, 31.07613], [-94.12401, 31.07657], [-94.12713, 31.07968], [-94.14057, 31.08154], [-94.14239, 31.08307], [-94.14365, 31.08145], [-94.14453, 31.08339], [-94.14764, 31.08325], [-94.14835, 31.08121], [-94.15049, 31.08411], [-94.15236, 31.08141], [-94.15279, 31.08445], [-94.15467, 31.08216], [-94.15798, 31.08224], [-94.15556, 31.08753], [-94.15807, 31.09019], [-94.16132, 31.08416], [-94.16139, 31.09118], [-94.16321, 31.09041], [-94.16205, 31.08873], [-94.16489, 31.08899], [-94.16555, 31.08587], [-94.16951, 31.08822], [-94.16934, 31.0905], [-94.17105, 31.08915], [-94.17425, 31.09106], [-94.17082, 31.09402], [-94.17336, 31.09478], [-94.17213, 31.09616], [-94.17304, 31.09709], [-94.17474, 31.09604], [-94.17486, 31.09344], [-94.17628, 31.09381], [-94.17656, 31.09244], [-94.17846, 31.09358], [-94.17685, 31.09796], [-94.17984, 31.10323], [-94.18145, 31.10288], [-94.18163, 31.10086], [-94.1798, 31.09851], [-94.18276, 31.09877], [-94.18295, 31.09998], [-94.18343, 31.09656], [-94.18629, 31.09827], [-94.1843, 31.10337], [-94.18969, 31.1049], [-94.19443, 31.10144], [-94.19481, 31.09634], [-94.197, 31.09951], [-94.19914, 31.0977], [-94.19906, 31.10116], [-94.20094, 31.10231], [-94.2089, 31.09955], [-94.20317, 31.106], [-94.20872, 31.10802], [-94.21061, 31.10586], [-94.20989, 31.10419], [-94.21141, 31.1043], [-94.21454, 31.09946], [-94.21398, 31.10415], [-94.21707, 31.10122], [-94.22047, 31.10404], [-94.21642, 31.10547], [-94.21355, 31.10915], [-94.21375, 31.11196], [-94.22123, 31.1082], [-94.21643, 31.11167], [-94.21728, 31.11383], [-94.22211, 31.11339], [-94.22377, 31.11481], [-94.22686, 31.11214], [-94.23021, 31.11586], [-94.23481, 31.1143], [-94.23129, 31.11944], [-94.2356, 31.1188], [-94.23668, 31.12169], [-94.24195, 31.1175], [-94.23972, 31.12282], [-94.24791, 31.12352], [-94.24671, 31.12529], [-94.24831, 31.12656], [-94.25472, 31.12616], [-94.25462, 31.1277], [-94.25823, 31.1243], [-94.26424, 31.12401], [-94.26541, 31.12574], [-94.25933, 31.12565], [-94.25403, 31.13249], [-94.25349, 31.13502], [-94.25942, 31.13973], [-94.2467, 31.13405], [-94.23109, 31.14723], [-94.23145, 31.14929], [-94.2298, 31.14831], [-94.22506, 31.15231], [-94.23059, 31.1523], [-94.23053, 31.15461], [-94.2374, 31.15517], [-94.23503, 31.1536], [-94.23958, 31.14999], [-94.24482, 31.14931], [-94.23903, 31.15521], [-94.24078, 31.15554], [-94.24714, 31.15054], [-94.25328, 31.15615], [-94.25798, 31.15593], [-94.25893, 31.15323], [-94.26298, 31.15588], [-94.2666, 31.15415], [-94.26749, 31.15606], [-94.27042, 31.15538], [-94.27262, 31.15236], [-94.27288, 31.15451], [-94.26662, 31.16015], [-94.26583, 31.16393], [-94.27281, 31.1663], [-94.2715, 31.1703], [-94.27348, 31.17387], [-94.28612, 31.17005], [-94.29395, 31.17764], [-94.29818, 31.17504], [-94.29859, 31.17904], [-94.30208, 31.17818], [-94.29927, 31.18103], [-94.30062, 31.18213], [-94.29703, 31.18353], [-94.30532, 31.18634], [-94.30603, 31.18908], [-94.31309, 31.18769], [-94.30937, 31.18946], [-94.3127, 31.19047], [-94.30904, 31.19332], [-94.29581, 31.19636], [-94.29815, 31.20113], [-94.29589, 31.20306], [-94.29694, 31.20493], [-94.29242, 31.20637], [-94.2989, 31.20995], [-94.30163, 31.20945], [-94.29583, 31.20647], [-94.30742, 31.20828], [-94.31129, 31.20533], [-94.31416, 31.20709], [-94.32038, 31.19966], [-94.32338, 31.20388], [-94.32517, 31.20237], [-94.32198, 31.19823], [-94.32577, 31.19728], [-94.3249, 31.19592], [-94.32652, 31.19647], [-94.3276, 31.19443], [-94.32918, 31.19548], [-94.33232, 31.19277], [-94.33308, 31.194], [-94.3343, 31.19111], [-94.33701, 31.19106], [-94.33886, 31.18751], [-94.33854, 31.19016], [-94.34019, 31.19001], [-94.33719, 31.19359], [-94.34065, 31.1953], [-94.33617, 31.19534], [-94.33682, 31.19621], [-94.33306, 31.19914], [-94.33577, 31.19947], [-94.33516, 31.20104], [-94.33816, 31.19905], [-94.34077, 31.20111], [-94.33595, 31.20414], [-94.33035, 31.20323], [-94.33083, 31.20502], [-94.33615, 31.2065], [-94.33057, 31.20686], [-94.33361, 31.21048], [-94.33668, 31.20651], [-94.33482, 31.20958], [-94.34364, 31.21392], [-94.34765, 31.21095], [-94.34334, 31.20699], [-94.34695, 31.2039], [-94.34275, 31.20028], [-94.34465, 31.19875], [-94.34399, 31.19661], [-94.34611, 31.19786], [-94.35393, 31.19317], [-94.347, 31.19772], [-94.35056, 31.20079], [-94.35293, 31.19877], [-94.35388, 31.20257], [-94.35514, 31.19993], [-94.35837, 31.19863], [-94.35819, 31.19413], [-94.36174, 31.19626], [-94.36185, 31.19164], [-94.35858, 31.1883], [-94.36233, 31.18806], [-94.35906, 31.18526], [-94.36109, 31.18398], [-94.36464, 31.18609], [-94.36667, 31.18356], [-94.36631, 31.18712], [-94.36857, 31.18902], [-94.36909, 31.18664], [-94.37146, 31.18873], [-94.37523, 31.18877], [-94.37539, 31.19395], [-94.37716, 31.1925], [-94.38013, 31.1944], [-94.38787, 31.19397], [-94.38891, 31.19274], [-94.39058, 31.19482], [-94.39764, 31.19642], [-94.39626, 31.19926], [-94.39949, 31.20084], [-94.39784, 31.20229], [-94.38731, 31.2025], [-94.38733, 31.20572], [-94.38326, 31.20244], [-94.37924, 31.20438], [-94.38001, 31.20702], [-94.37735, 31.20924], [-94.37914, 31.21085], [-94.37762, 31.21212], [-94.37997, 31.21412], [-94.37883, 31.2151], [-94.37581, 31.21361], [-94.36977, 31.21979], [-94.37031, 31.22405], [-94.37501, 31.22639], [-94.37792, 31.23346], [-94.38376, 31.23414], [-94.38133, 31.23605], [-94.37858, 31.23533], [-94.37797, 31.23683], [-94.38002, 31.23796], [-94.37796, 31.23876], [-94.38376, 31.24416], [-94.38932, 31.24211], [-94.39255, 31.24315], [-94.39352, 31.24129], [-94.39141, 31.24074], [-94.3932, 31.23942], [-94.39174, 31.23886], [-94.39551, 31.2373], [-94.39725, 31.23855], [-94.39527, 31.2401], [-94.39607, 31.24195], [-94.39697, 31.24108], [-94.3967, 31.24407], [-94.39941, 31.2415], [-94.4016, 31.24225], [-94.39777, 31.2465], [-94.39991, 31.24749], [-94.40046, 31.25036], [-94.40417, 31.24835], [-94.40554, 31.24565], [-94.40987, 31.24936], [-94.40401, 31.25055], [-94.40282, 31.25222], [-94.40552, 31.25363], [-94.40175, 31.2531], [-94.40084, 31.25682], [-94.39745, 31.25961], [-94.40651, 31.25718], [-94.40658, 31.25579], [-94.40936, 31.25675], [-94.40639, 31.25821], [-94.40792, 31.25935], [-94.40454, 31.25837], [-94.40059, 31.26], [-94.40384, 31.2622], [-94.39712, 31.26146], [-94.39868, 31.267], [-94.40049, 31.26539], [-94.40049, 31.2667], [-94.40622, 31.26809], [-94.41104, 31.26701], [-94.40262, 31.27498], [-94.40482, 31.27688], [-94.40428, 31.27905], [-94.40943, 31.27691], [-94.41158, 31.27878], [-94.41161, 31.27595], [-94.41543, 31.27406], [-94.41717, 31.26631], [-94.41954, 31.26559], [-94.42043, 31.2718], [-94.41882, 31.27183], [-94.41769, 31.27479], [-94.42065, 31.27491], [-94.4139, 31.27905], [-94.41588, 31.28134], [-94.41854, 31.28148], [-94.41763, 31.28295], [-94.41917, 31.28267], [-94.41956, 31.28483], [-94.41829, 31.28677], [-94.42238, 31.28882], [-94.42462, 31.28693], [-94.42274, 31.28535], [-94.4239, 31.28431], [-94.42313, 31.28184], [-94.42952, 31.27916], [-94.43002, 31.27534], [-94.43533, 31.27288], [-94.43615, 31.26913], [-94.44423, 31.26825], [-94.44262, 31.27307], [-94.43919, 31.27611], [-94.43975, 31.27893], [-94.43583, 31.27937], [-94.43511, 31.27806], [-94.43369, 31.27927], [-94.43627, 31.2802], [-94.43628, 31.28169], [-94.43224, 31.28259], [-94.43273, 31.2867], [-94.43138, 31.28744], [-94.43353, 31.28697], [-94.43288, 31.28941], [-94.43564, 31.28901], [-94.4349, 31.28594], [-94.43704, 31.28443], [-94.43741, 31.28861], [-94.43959, 31.28562], [-94.44014, 31.28762], [-94.44705, 31.28843], [-94.43776, 31.292], [-94.43745, 31.29512], [-94.44163, 31.29398], [-94.44712, 31.29616], [-94.4455, 31.29713], [-94.45049, 31.29736], [-94.45206, 31.29898], [-94.45078, 31.301], [-94.44626, 31.30074], [-94.44332, 31.30323], [-94.44494, 31.30359], [-94.44205, 31.30495], [-94.44488, 31.30733], [-94.44573, 31.30604], [-94.44719, 31.30682], [-94.44752, 31.30482], [-94.45111, 31.30796], [-94.45237, 31.30747], [-94.45223, 31.3106], [-94.45563, 31.31004], [-94.45211, 31.31343], [-94.45475, 31.31358], [-94.45427, 31.31636], [-94.45617, 31.31493], [-94.45493, 31.31741], [-94.45589, 31.31895], [-94.45837, 31.31693], [-94.46071, 31.31875], [-94.46384, 31.31721], [-94.46458, 31.31915], [-94.45814, 31.32], [-94.45847, 31.3218], [-94.46052, 31.32202], [-94.45815, 31.32429], [-94.46238, 31.32269], [-94.46296, 31.32368], [-94.46336, 31.32198], [-94.46489, 31.32358], [-94.46539, 31.32186], [-94.47235, 31.32393], [-94.47285, 31.32236], [-94.47462, 31.32309], [-94.47324, 31.3203], [-94.47609, 31.32185], [-94.4767, 31.32006], [-94.47747, 31.32124], [-94.47939, 31.31907], [-94.48495, 31.31732], [-94.48429, 31.31821], [-94.48707, 31.3185], [-94.48676, 31.31984], [-94.47827, 31.32514], [-94.4809, 31.32769], [-94.47771, 31.32764], [-94.47913, 31.32825], [-94.47864, 31.33101], [-94.48462, 31.33183], [-94.48399, 31.33517], [-94.48846, 31.33573], [-94.49291, 31.3319], [-94.49494, 31.33372], [-94.49812, 31.33355], [-94.50053, 31.33099], [-94.50968, 31.33337], [-94.50775, 31.33583], [-94.50913, 31.33734], [-94.50281, 31.34032], [-94.50411, 31.34117], [-94.50236, 31.34361], [-94.49753, 31.34266], [-94.49904, 31.34468], [-94.49651, 31.34742], [-94.49481, 31.34336], [-94.49107, 31.34211], [-94.48925, 31.34313], [-94.48967, 31.34641], [-94.4885, 31.34355], [-94.48713, 31.34473], [-94.48545, 31.34378], [-94.48515, 31.347], [-94.48402, 31.34257], [-94.48275, 31.34359], [-94.47953, 31.3424], [-94.47743, 31.34528], [-94.4767, 31.34273], [-94.47425, 31.34373], [-94.47522, 31.34627], [-94.47989, 31.34857], [-94.48123, 31.34754], [-94.48083, 31.34931], [-94.4822, 31.35008], [-94.48114, 31.35087], [-94.4824, 31.35321], [-94.48396, 31.35291], [-94.48181, 31.35442], [-94.48113, 31.36124], [-94.48448, 31.36363], [-94.48434, 31.36724], [-94.48734, 31.36694], [-94.48869, 31.36877], [-94.48472, 31.37034], [-94.483, 31.36933], [-94.48124, 31.37245], [-94.48715, 31.37487], [-94.48744, 31.37653], [-94.48491, 31.37685], [-94.48369, 31.3794], [-94.48841, 31.38004], [-94.49239, 31.376], [-94.49458, 31.37997], [-94.49138, 31.3787], [-94.4902, 31.38055], [-94.5012, 31.38367], [-94.50415, 31.38267], [-94.50601, 31.38363], [-94.50496, 31.38429], [-94.50598, 31.38517], [-94.5043, 31.38963], [-94.50544, 31.39068], [-94.50413, 31.39026], [-94.50326, 31.39275], [-94.50694, 31.39213], [-94.51129, 31.39402], [-94.51119, 31.39137]]], [[[-94.29656, 31.33183], [-94.29576, 31.33301], [-94.2962, 31.33183], [-94.29656, 31.33183]]], [[[-94.49459, 31.38], [-94.49458, 31.37997], [-94.49795, 31.38132], [-94.49459, 31.38]]], [[[-94.50614, 31.3837], [-94.50601, 31.38363], [-94.50815, 31.38228], [-94.50614, 31.3837]]], [[[-94.7297, 31.46233], [-94.72706, 31.46158], [-94.72861, 31.46085], [-94.7297, 31.46233]]], [[[-94.03013, 31.0822], [-94.03006, 31.08222], [-94.03025, 31.08002], [-94.03013, 31.0822]]], [[[-94.2271, 31.11193], [-94.22973, 31.11004], [-94.22884, 31.11185], [-94.2271, 31.11193]]], [[[-94.17692, 31.14397], [-94.17585, 31.14352], [-94.17695, 31.14333], [-94.17692, 31.14397]]], [[[-94.18021, 31.14986], [-94.17547, 31.1483], [-94.17528, 31.14458], [-94.18021, 31.14986]]], [[[-94.17001, 31.15304], [-94.17121, 31.15484], [-94.17382, 31.15439], [-94.17006, 31.15558], [-94.17001, 31.15304]]], [[[-94.17661, 31.15681], [-94.17482, 31.15916], [-94.17457, 31.15781], [-94.17661, 31.15681]]], [[[-94.17482, 31.15916], [-94.1749, 31.1596], [-94.17467, 31.15936], [-94.17482, 31.15916]]], [[[-94.17623, 31.16093], [-94.1783, 31.16048], [-94.17706, 31.16165], [-94.17872, 31.16352], [-94.17625, 31.16226], [-94.17599, 31.1649], [-94.1749, 31.1596], [-94.17623, 31.16093]]], [[[-94.16516, 31.16899], [-94.1623, 31.16663], [-94.16341, 31.16223], [-94.16142, 31.1613], [-94.16512, 31.16158], [-94.16627, 31.15984], [-94.16357, 31.15868], [-94.16714, 31.15773], [-94.16723, 31.1637], [-94.17104, 31.1645], [-94.16628, 31.16425], [-94.16516, 31.16899]]], [[[-94.12519, 31.20123], [-94.12356, 31.20177], [-94.12353, 31.20108], [-94.12519, 31.20123]]]]}}]}