{"type": "FeatureCollection", "features": [{"type": "Feature", "properties": {"id": "usace-navarro-mills", "name": "Navarro Mills Lake", "source": "USGS PAD-US 4.1", "padusUnit": "Navarro Mills Recreation Area"}, "geometry": {"type": "Polygon", "coordinates": [[[-96.72589, 31.97737], [-96.72814, 31.98096], [-96.72753, 31.98514], [-96.72976, 31.97802], [-96.73166, 31.97694], [-96.73323, 31.9805], [-96.73641, 31.98164], [-96.73592, 31.97631], [-96.73247, 31.97148], [-96.73535, 31.97003], [-96.73699, 31.97277], [-96.7383, 31.96972], [-96.73729, 31.96913], [-96.74789, 31.96395], [-96.75089, 31.96698], [-96.75766, 31.96983], [-96.75754, 31.97346], [-96.75894, 31.97017], [-96.75316, 31.96236], [-96.75819, 31.95922], [-96.76062, 31.95949], [-96.76163, 31.96199], [-96.76383, 31.96085], [-96.76615, 31.96343], [-96.76997, 31.96409], [-96.77206, 31.96733], [-96.77459, 31.96614], [-96.7736, 31.96049], [-96.77861, 31.96331], [-96.7902, 31.96572], [-96.79205, 31.97248], [-96.79569, 31.96987], [-96.8093, 31.97795], [-96.80951, 31.97507], [-96.81411, 31.9729], [-96.79648, 31.95658], [-96.797, 31.95498], [-96.80068, 31.95405], [-96.79152, 31.95425], [-96.79103, 31.95122], [-96.78909, 31.95005], [-96.79286, 31.94813], [-96.79163, 31.94621], [-96.7962, 31.94512], [-96.79535, 31.94385], [-96.79657, 31.9428], [-96.80472, 31.94218], [-96.80781, 31.94035], [-96.8141, 31.94499], [-96.82704, 31.94389], [-96.82923, 31.94806], [-96.83192, 31.94759], [-96.82944, 31.947], [-96.82758, 31.94269], [-96.83132, 31.94092], [-96.82106, 31.93684], [-96.82053, 31.93329], [-96.82428, 31.93319], [-96.82726, 31.93034], [-96.82756, 31.92645], [-96.83129, 31.92592], [-96.83011, 31.92188], [-96.826, 31.92019], [-96.82818, 31.91803], [-96.82929, 31.91968], [-96.83093, 31.91368], [-96.82642, 31.91205], [-96.82234, 31.91459], [-96.81767, 31.915], [-96.82013, 31.91585], [-96.81794, 31.91678], [-96.81393, 31.91536], [-96.80924, 31.91887], [-96.80027, 31.91893], [-96.79306, 31.92248], [-96.78402, 31.92444], [-96.77909, 31.92301], [-96.77688, 31.92515], [-96.77712, 31.9278], [-96.77167, 31.92949], [-96.77008, 31.93289], [-96.76456, 31.93055], [-96.75827, 31.93408], [-96.75356, 31.93245], [-96.75103, 31.93315], [-96.74514, 31.93663], [-96.74428, 31.94033], [-96.73421, 31.94302], [-96.7298, 31.94839], [-96.72552, 31.9462], [-96.72255, 31.94759], [-96.72141, 31.94579], [-96.71655, 31.9457], [-96.71266, 31.94007], [-96.70247, 31.945], [-96.69696, 31.95002], [-96.6941, 31.94543], [-96.68789, 31.94269], [-96.68658, 31.94062], [-96.68332, 31.94216], [-96.68553, 31.94702], [-96.68284, 31.94835], [-96.68331, 31.95455], [-96.68781, 31.95825], [-96.68613, 31.96087], [-96.69052, 31.96752], [-96.6922, 31.96676], [-96.69467, 31.97043], [-96.69712, 31.96921], [-96.69911, 31.97223], [-96.69906, 31.96576], [-96.70542, 31.9673], [-96.70051, 31.96327], [-96.70236, 31.96145], [-96.70395, 31.9625], [-96.7042, 31.96053], [-96.70621, 31.96086], [-96.70632, 31.96356], [-96.71099, 31.96388], [-96.71071, 31.96549], [-96.71319, 31.96555], [-96.71185, 31.9671], [-96.71355, 31.9666], [-96.71603, 31.96861], [-96.71706, 31.97528], [-96.71771, 31.97091], [-96.71936, 31.9697], [-96.71856, 31.96854], [-96.72243, 31.96651], [-96.72554, 31.97099], [-96.72405, 31.97175], [-96.72594, 31.97446], [-96.72721, 31.97405], [-96.72589, 31.97737]]]}}]}