{"type": "FeatureCollection", "features": [{"type": "Feature", "properties": {"id": "usace-bardwell", "name": "Bardwell Lake", "source": "USGS PAD-US 4.1", "padusUnit": "Bardwell Recreation Area"}, "geometry": {"type": "Polygon", "coordinates": [[[-96.69048, 32.34242], [-96.69224, 32.34092], [-96.69373, 32.34175], [-96.69236, 32.33977], [-96.69542, 32.33833], [-96.69181, 32.33498], [-96.6898, 32.32359], [-96.68745, 32.32183], [-96.68272, 32.30965], [-96.68422, 32.3085], [-96.68225, 32.30699], [-96.68626, 32.30492], [-96.69199, 32.30762], [-96.7007, 32.30708], [-96.70546, 32.3093], [-96.70697, 32.31299], [-96.70957, 32.31387], [-96.70846, 32.30679], [-96.70971, 32.30632], [-96.71419, 32.3073], [-96.71649, 32.30625], [-96.7174, 32.30846], [-96.7181, 32.3057], [-96.72501, 32.30857], [-96.72522, 32.30727], [-96.73325, 32.30577], [-96.7375, 32.30981], [-96.73943, 32.30905], [-96.74125, 32.31189], [-96.74617, 32.31313], [-96.74054, 32.30311], [-96.7232, 32.29296], [-96.71036, 32.29719], [-96.70626, 32.29493], [-96.69966, 32.29601], [-96.69816, 32.29323], [-96.6933, 32.29359], [-96.68431, 32.28996], [-96.68146, 32.29133], [-96.67981, 32.28883], [-96.67693, 32.28858], [-96.67321, 32.28305], [-96.67121, 32.28338], [-96.66901, 32.27976], [-96.67006, 32.27887], [-96.66492, 32.27477], [-96.66473, 32.2722], [-96.66683, 32.27116], [-96.66769, 32.27242], [-96.67258, 32.27003], [-96.67543, 32.27017], [-96.67721, 32.27289], [-96.6843, 32.27128], [-96.68247, 32.26936], [-96.68167, 32.27035], [-96.67872, 32.26916], [-96.67839, 32.26445], [-96.6772, 32.26574], [-96.67629, 32.26425], [-96.67542, 32.26595], [-96.6726, 32.26174], [-96.66631, 32.26048], [-96.6643, 32.25716], [-96.66772, 32.2544], [-96.66598, 32.25176], [-96.66231, 32.25301], [-96.64982, 32.24457], [-96.64609, 32.24456], [-96.64049, 32.23896], [-96.63681, 32.246], [-96.63387, 32.24741], [-96.63503, 32.24929], [-96.63203, 32.2508], [-96.6335, 32.25949], [-96.63741, 32.26968], [-96.63902, 32.26892], [-96.64244, 32.27393], [-96.64508, 32.27275], [-96.64659, 32.2749], [-96.64393, 32.27622], [-96.64504, 32.278], [-96.64379, 32.27951], [-96.64738, 32.27965], [-96.64418, 32.28534], [-96.64812, 32.28932], [-96.65039, 32.28836], [-96.65202, 32.29051], [-96.65013, 32.29222], [-96.65389, 32.2905], [-96.65844, 32.29901], [-96.65346, 32.30221], [-96.65643, 32.30386], [-96.65541, 32.30719], [-96.65404, 32.30729], [-96.65698, 32.30991], [-96.65774, 32.31339], [-96.6632, 32.31146], [-96.66428, 32.30711], [-96.66896, 32.30475], [-96.6704, 32.30695], [-96.66848, 32.30795], [-96.6705, 32.30976], [-96.67187, 32.30859], [-96.67393, 32.31273], [-96.67335, 32.31611], [-96.67882, 32.32282], [-96.67783, 32.32805], [-96.67904, 32.3291], [-96.68104, 32.32729], [-96.68467, 32.33769], [-96.69048, 32.34242]]]}}]}