{"type": "FeatureCollection", "features": [{"type": "Feature", "properties": {"id": "usace-grapevine", "name": "Grapevine Lake", "source": "USGS PAD-US 4.1", "padusUnit": "Grapevine Recreation Area"}, "geometry": {"type": "MultiPolygon", "coordinates": [[[[-97.10537, 32.95482], [-97.10511, 32.95243], [-97.10559, 32.95493], [-97.10537, 32.95482]]], [[[-97.14199, 32.97682], [-97.14292, 32.97751], [-97.14207, 32.97818], [-97.14199, 32.97682]]], [[[-97.10392, 32.96691], [-97.10206, 32.96681], [-97.10104, 32.97025], [-97.09664, 32.96992], [-97.09793, 32.97177], [-97.09587, 32.97109], [-97.09788, 32.97561], [-97.09685, 32.97748], [-97.10528, 32.97748], [-97.10711, 32.97487], [-97.10829, 32.97683], [-97.11001, 32.97564], [-97.11073, 32.97966], [-97.11256, 32.97799], [-97.11234, 32.97144], [-97.11416, 32.97216], [-97.1171, 32.97038], [-97.11577, 32.97549], [-97.117, 32.97586], [-97.11581, 32.97796], [-97.11692, 32.97881], [-97.11508, 32.9797], [-97.12255, 32.98046], [-97.12254, 32.98179], [-97.12601, 32.98003], [-97.12628, 32.9858], [-97.12937, 32.98644], [-97.13031, 32.98257], [-97.13164, 32.98252], [-97.13162, 32.98697], [-97.13294, 32.98737], [-97.13395, 32.98556], [-97.13361, 32.98737], [-97.13729, 32.98912], [-97.14043, 32.98761], [-97.13936, 32.98509], [-97.14148, 32.98538], [-97.13957, 32.9813], [-97.1412, 32.9813], [-97.14199, 32.97874], [-97.14209, 32.98307], [-97.14382, 32.9831], [-97.14484, 32.9865], [-97.14655, 32.98433], [-97.14904, 32.98626], [-97.15601, 32.98214], [-97.15804, 32.9851], [-97.16394, 32.98508], [-97.16242, 32.98784], [-97.15793, 32.98895], [-97.15775, 32.98626], [-97.15611, 32.9862], [-97.15366, 32.98738], [-97.15495, 32.98903], [-97.15143, 32.98902], [-97.15273, 32.99357], [-97.14821, 32.99216], [-97.14705, 32.99028], [-97.14705, 32.992], [-97.14452, 32.99176], [-97.14439, 32.99562], [-97.1427, 32.9936], [-97.13484, 32.99401], [-97.13668, 32.99691], [-97.14175, 32.99835], [-97.14414, 32.99754], [-97.14378, 33.00089], [-97.14555, 33.0021], [-97.15092, 33.00016], [-97.15316, 33.00443], [-97.16011, 33.00461], [-97.16616, 32.9985], [-97.1672, 33.00055], [-97.1647, 33.00635], [-97.16727, 33.00644], [-97.16726, 33.00805], [-97.17049, 33.0091], [-97.1705, 33.00791], [-97.17491, 33.0079], [-97.17708, 33.00462], [-97.17776, 33.00787], [-97.18346, 33.00785], [-97.18362, 33.00326], [-97.18472, 33.00501], [-97.18876, 33.00312], [-97.19405, 33.00394], [-97.19287, 33.00526], [-97.18781, 33.00444], [-97.18843, 33.00645], [-97.18465, 33.01045], [-97.18463, 33.01355], [-97.17762, 33.01416], [-97.179, 33.01516], [-97.18017, 33.02487], [-97.18219, 33.02061], [-97.18498, 33.01949], [-97.18969, 33.0179], [-97.19208, 33.01892], [-97.19373, 33.01769], [-97.19357, 33.01892], [-97.19656, 33.01931], [-97.2001, 33.01787], [-97.19935, 33.01924], [-97.20241, 33.02099], [-97.20433, 33.02558], [-97.20845, 33.02561], [-97.20938, 33.02298], [-97.21197, 33.02429], [-97.21452, 33.02155], [-97.21304, 33.024], [-97.2148, 33.0266], [-97.22134, 33.02485], [-97.22259, 33.02271], [-97.22204, 33.02588], [-97.22488, 33.02609], [-97.22512, 33.02818], [-97.23014, 33.02883], [-97.2335, 33.02755], [-97.23789, 33.02242], [-97.23664, 33.01789], [-97.23945, 33.02159], [-97.24815, 33.02021], [-97.24667, 33.02208], [-97.23792, 33.02352], [-97.23705, 33.02791], [-97.24005, 33.02722], [-97.23827, 33.0307], [-97.24219, 33.03156], [-97.23305, 33.03147], [-97.24306, 33.03879], [-97.24338, 33.02998], [-97.24913, 33.03001], [-97.25384, 33.03432], [-97.25371, 33.04458], [-97.25908, 33.0446], [-97.2555, 33.04585], [-97.25271, 33.05081], [-97.25264, 33.05449], [-97.25518, 33.05921], [-97.26234, 33.06165], [-97.26232, 33.06578], [-97.25869, 33.06302], [-97.25356, 33.06204], [-97.25305, 33.06427], [-97.2507, 33.06358], [-97.25104, 33.06144], [-97.25375, 33.05967], [-97.2516, 33.05015], [-97.24274, 33.04862], [-97.2393, 33.04992], [-97.24033, 33.04754], [-97.23922, 33.04464], [-97.244, 33.04462], [-97.24502, 33.0409], [-97.24053, 33.04078], [-97.23326, 33.03551], [-97.23072, 33.03531], [-97.22861, 33.03169], [-97.2195, 33.0432], [-97.21393, 33.04457], [-97.21438, 33.04717], [-97.21169, 33.04576], [-97.21921, 33.05299], [-97.21889, 33.05572], [-97.22281, 33.05948], [-97.22011, 33.06025], [-97.21667, 33.05398], [-97.21448, 33.05195], [-97.21197, 33.05344], [-97.21019, 33.04904], [-97.20757, 33.04846], [-97.20756, 33.04714], [-97.20281, 33.05189], [-97.20598, 33.04469], [-97.20211, 33.04401], [-97.19957, 33.04174], [-97.19762, 33.04259], [-97.19854, 33.04092], [-97.19618, 33.03715], [-97.19762, 33.03385], [-97.19327, 33.03266], [-97.19236, 33.02741], [-97.18928, 33.02712], [-97.1873, 33.02939], [-97.18921, 33.03089], [-97.18652, 33.03457], [-97.18895, 33.03461], [-97.18647, 33.03755], [-97.18718, 33.04282], [-97.18547, 33.0433], [-97.18709, 33.04523], [-97.18604, 33.04804], [-97.18411, 33.04584], [-97.18224, 33.04785], [-97.18489, 33.04937], [-97.18323, 33.05089], [-97.18515, 33.054], [-97.18265, 33.05397], [-97.17851, 33.05967], [-97.18238, 33.05298], [-97.17976, 33.04763], [-97.17793, 33.0476], [-97.18007, 33.04644], [-97.17969, 33.04511], [-97.17774, 33.04541], [-97.17629, 33.03983], [-97.16996, 33.03592], [-97.16993, 33.03848], [-97.16753, 33.03847], [-97.16549, 33.04359], [-97.1658, 33.0392], [-97.16466, 33.03919], [-97.16581, 33.03804], [-97.16034, 33.03479], [-97.15834, 33.03689], [-97.15975, 33.03471], [-97.1584, 33.02984], [-97.15508, 33.02744], [-97.15209, 33.0294], [-97.1536, 33.02512], [-97.15126, 33.02074], [-97.14859, 33.01949], [-97.14603, 33.02132], [-97.14476, 33.01998], [-97.14361, 33.02512], [-97.14522, 33.02793], [-97.14463, 33.03369], [-97.14255, 33.03369], [-97.1395, 33.03929], [-97.13909, 33.03508], [-97.14152, 33.03074], [-97.14057, 33.02875], [-97.14269, 33.02693], [-97.14146, 33.02407], [-97.13869, 33.02545], [-97.13936, 33.02233], [-97.14187, 33.0206], [-97.13794, 33.01748], [-97.13784, 33.01428], [-97.13519, 33.01426], [-97.13429, 33.01601], [-97.13567, 33.01851], [-97.13292, 33.01871], [-97.13092, 33.02286], [-97.12753, 33.024], [-97.12852, 33.02144], [-97.12501, 33.02023], [-97.12607, 33.01808], [-97.12885, 33.01785], [-97.12667, 33.01598], [-97.12962, 33.01223], [-97.12827, 33.01151], [-97.12838, 33.01318], [-97.12622, 33.01031], [-97.12409, 33.01485], [-97.12321, 33.0091], [-97.11999, 33.00767], [-97.11837, 33.00985], [-97.11802, 33.00869], [-97.11579, 33.00976], [-97.11632, 33.00673], [-97.11364, 33.00474], [-97.11161, 33.00712], [-97.11204, 33.00355], [-97.10692, 32.99986], [-97.11016, 33.00392], [-97.10821, 33.00548], [-97.10908, 33.01029], [-97.11156, 33.0102], [-97.11114, 33.01361], [-97.11271, 33.01472], [-97.10862, 33.01633], [-97.10928, 33.02112], [-97.10674, 33.02127], [-97.10622, 33.01637], [-97.10361, 33.01414], [-97.10637, 33.01234], [-97.10653, 33.00845], [-97.10311, 33.00836], [-97.1018, 33.00985], [-97.10175, 33.01631], [-97.09901, 33.01637], [-97.099, 33.01018], [-97.09655, 33.01295], [-97.09226, 33.01362], [-97.09227, 33.01161], [-97.09681, 33.00959], [-97.09717, 33.00477], [-97.09291, 33.00606], [-97.09285, 33.00282], [-97.09086, 33.0028], [-97.08908, 32.99916], [-97.08747, 32.99916], [-97.08747, 33.00061], [-97.08363, 32.99967], [-97.08267, 33.00497], [-97.07951, 33.00492], [-97.07953, 33.00089], [-97.07314, 32.99941], [-97.07276, 32.99682], [-97.0775, 32.99666], [-97.0756, 32.99208], [-97.07108, 32.99365], [-97.07212, 32.98854], [-97.06908, 32.98856], [-97.06767, 32.98186], [-97.06468, 32.98481], [-97.04099, 32.98456], [-97.04054, 32.97952], [-97.04273, 32.97766], [-97.04476, 32.96982], [-97.04702, 32.96988], [-97.0471, 32.9647], [-97.05021, 32.96469], [-97.05027, 32.95882], [-97.05256, 32.95739], [-97.0526, 32.9514], [-97.05798, 32.94747], [-97.06025, 32.94925], [-97.06174, 32.94791], [-97.0605, 32.94431], [-97.06191, 32.94309], [-97.06333, 32.9492], [-97.06616, 32.94726], [-97.06665, 32.94931], [-97.06539, 32.95238], [-97.06457, 32.9508], [-97.06178, 32.955], [-97.06364, 32.95612], [-97.06382, 32.96004], [-97.06618, 32.95413], [-97.06754, 32.95847], [-97.07269, 32.95994], [-97.07146, 32.95256], [-97.07312, 32.95487], [-97.08023, 32.95501], [-97.08406, 32.94736], [-97.08375, 32.9542], [-97.08695, 32.95467], [-97.0907, 32.94738], [-97.08837, 32.95371], [-97.09063, 32.95396], [-97.08797, 32.95598], [-97.09044, 32.95803], [-97.08438, 32.95742], [-97.08602, 32.96097], [-97.08186, 32.96213], [-97.08184, 32.96594], [-97.08792, 32.96349], [-97.09054, 32.96488], [-97.09503, 32.96304], [-97.09503, 32.96058], [-97.09784, 32.96058], [-97.1028, 32.95668], [-97.1028, 32.95902], [-97.10579, 32.95717], [-97.10416, 32.95534], [-97.10702, 32.95562], [-97.11289, 32.95167], [-97.10861, 32.95625], [-97.11016, 32.95669], [-97.1098, 32.96014], [-97.103, 32.9653], [-97.10392, 32.96691]], [[-97.09047, 32.96952], [-97.09222, 32.96712], [-97.09354, 32.96587], [-97.09053, 32.96579], [-97.09047, 32.96952]]], [[[-97.2538, 33.0136], [-97.25716, 33.01361], [-97.2609, 33.00815], [-97.25965, 33.0154], [-97.25435, 33.01542], [-97.2519, 33.01709], [-97.2538, 33.0136]]], [[[-97.2519, 33.01709], [-97.25158, 33.01767], [-97.25067, 33.01792], [-97.2519, 33.01709]]], [[[-97.24792, 33.01979], [-97.24895, 33.01839], [-97.25067, 33.01792], [-97.24792, 33.01979]]], [[[-97.14481, 33.03369], [-97.14545, 33.03532], [-97.14463, 33.03369], [-97.14481, 33.03369]]], [[[-97.18557, 33.054], [-97.18676, 33.05661], [-97.18515, 33.054], [-97.18557, 33.054]]]]}}]}