{"type": "FeatureCollection", "features": [{"type": "Feature", "properties": {"id": "usace-town-bluff", "name": "Town Bluff Dam & B.A. Steinhagen Lake", "source": "USGS PAD-US 4.1", "padusUnit": "B.A. Steinhagen"}, "geometry": {"type": "MultiPolygon", "coordinates": [[[[-94.19857, 30.81628], [-94.19412, 30.81356], [-94.18289, 30.8022], [-94.18274, 30.79785], [-94.18316, 30.80215], [-94.19857, 30.81628]]], [[[-94.20667, 30.82807], [-94.20559, 30.82559], [-94.20223, 30.8247], [-94.19819, 30.81652], [-94.20833, 30.82754], [-94.20667, 30.82807]]], [[[-94.21994, 30.83652], [-94.22376, 30.83893], [-94.22072, 30.84117], [-94.22407, 30.84445], [-94.22374, 30.8516], [-94.22628, 30.85094], [-94.22748, 30.85718], [-94.23394, 30.85933], [-94.23875, 30.85868], [-94.24137, 30.85552], [-94.24454, 30.85808], [-94.23897, 30.86031], [-94.23644, 30.86266], [-94.23629, 30.86457], [-94.23996, 30.865], [-94.24385, 30.86817], [-94.24397, 30.87126], [-94.24739, 30.87551], [-94.24764, 30.87983], [-94.24568, 30.8828], [-94.2473, 30.88516], [-94.24295, 30.88719], [-94.24339, 30.89098], [-94.23723, 30.89464], [-94.23784, 30.88498], [-94.23582, 30.88179], [-94.23139, 30.87952], [-94.23451, 30.87406], [-94.23282, 30.86825], [-94.22936, 30.86762], [-94.228, 30.86501], [-94.2191, 30.8601], [-94.23276, 30.86281], [-94.21883, 30.85999], [-94.22017, 30.85829], [-94.21689, 30.85333], [-94.2182, 30.85001], [-94.21353, 30.84577], [-94.20242, 30.85002], [-94.20719, 30.84172], [-94.20424, 30.84009], [-94.20252, 30.83671], [-94.20639, 30.84025], [-94.20531, 30.83683], [-94.20732, 30.83047], [-94.20667, 30.82807], [-94.20962, 30.82789], [-94.21336, 30.8321], [-94.21712, 30.83256], [-94.21644, 30.83646], [-94.21994, 30.83652]]], [[[-94.19086, 30.84369], [-94.19504, 30.84978], [-94.19049, 30.84567], [-94.19086, 30.84369]]], [[[-94.19597, 30.84787], [-94.19577, 30.84815], [-94.19547, 30.8476], [-94.19597, 30.84787]]], [[[-94.19504, 30.84978], [-94.19525, 30.84997], [-94.19536, 30.85024], [-94.19504, 30.84978]]], [[[-94.19627, 30.85256], [-94.19536, 30.85024], [-94.19692, 30.85252], [-94.19627, 30.85256]]], [[[-94.19627, 30.85256], [-94.19631, 30.85266], [-94.19511, 30.85264], [-94.19627, 30.85256]]], [[[-94.17569, 30.85287], [-94.18298, 30.85316], [-94.1755, 30.85314], [-94.17569, 30.85287]]], [[[-94.18369, 30.853], [-94.19589, 30.85326], [-94.19493, 30.85359], [-94.18369, 30.853]]], [[[-94.20303, 30.85316], [-94.203, 30.8535], [-94.20077, 30.85346], [-94.20303, 30.85316]]], [[[-94.17737, 30.79782], [-94.17713, 30.79794], [-94.17724, 30.79778], [-94.17737, 30.79782]]], [[[-94.16823, 30.79383], [-94.17792, 30.79474], [-94.17925, 30.79363], [-94.18113, 30.79506], [-94.16356, 30.80609], [-94.17449, 30.79866], [-94.16764, 30.79469], [-94.16823, 30.79383]]], [[[-94.16682, 30.8077], [-94.16668, 30.80675], [-94.16805, 30.80749], [-94.16682, 30.8077]]], [[[-94.16648, 30.80803], [-94.16367, 30.80937], [-94.16784, 30.80798], [-94.16937, 30.8122], [-94.17164, 30.81328], [-94.17038, 30.81512], [-94.17202, 30.8144], [-94.1723, 30.81787], [-94.1705, 30.81679], [-94.16816, 30.81907], [-94.17145, 30.81821], [-94.17288, 30.82433], [-94.16986, 30.8214], [-94.16541, 30.82104], [-94.16191, 30.82759], [-94.15766, 30.82807], [-94.15704, 30.82675], [-94.15095, 30.83212], [-94.15552, 30.83049], [-94.15709, 30.8327], [-94.16071, 30.83084], [-94.1617, 30.83309], [-94.15806, 30.83402], [-94.15443, 30.83214], [-94.15106, 30.8324], [-94.14283, 30.83607], [-94.14284, 30.83049], [-94.15028, 30.83041], [-94.15028, 30.82935], [-94.15518, 30.82618], [-94.15369, 30.82275], [-94.14035, 30.82132], [-94.14839, 30.81573], [-94.15365, 30.81702], [-94.1537, 30.81402], [-94.15731, 30.81397], [-94.158, 30.81106], [-94.16228, 30.80703], [-94.16587, 30.80586], [-94.16449, 30.80876], [-94.16634, 30.80682], [-94.16648, 30.80803]]], [[[-94.16847, 30.80877], [-94.1686, 30.80829], [-94.16908, 30.80929], [-94.16847, 30.80877]]], [[[-94.17287, 30.82516], [-94.1728, 30.82505], [-94.17287, 30.82493], [-94.17287, 30.82516]]], [[[-94.16156, 30.83127], [-94.1612, 30.83105], [-94.16133, 30.83077], [-94.16156, 30.83127]]], [[[-94.17718, 30.84863], [-94.17786, 30.84874], [-94.1771, 30.84911], [-94.17718, 30.84863]]]]}}]}