{"type":"FeatureCollection","features":[{"type":"Feature","id":"Panhandle","properties":{"name":"Panhandle","unitCount":43,"color":"#c4a35a","lon":-100.51101,"lat":34.62384},"geometry":{"type":"MultiPolygon","coordinates":[[[[-102.076,32.9642],[-102.0674,32.9786],[-102.0674,32.9642],[-102.076,32.9642]]],[[[-101.6315,33.0414],[-101.6141,33.0341],[-101.6315,33.0342],[-101.6315,33.0414]]],[[[-101.7868,33.1223],[-101.7717,33.1149],[-101.7858,33.1148],[-101.7868,33.1223]]],[[[-101.7717,33.1296],[-101.7544,33.1223],[-101.7717,33.1223],[-101.7717,33.1296]]],[[[-102.0669,33.1665],[-102.0585,33.1523],[-102.0669,33.1522],[-102.0669,33.1665]]],[[[-102.0498,33.1738],[-102.0669,33.1668],[-102.0669,33.1738],[-102.0498,33.1738]]],[[[-101.5963,33.7764],[-101.6136,33.7691],[-101.6136,33.7764],[-101.5963,33.7764]]],[[[-102.0181,33.7953],[-102.0095,33.7809],[-102.0183,33.7808],[-102.0181,33.7953]]],[[[-101.8444,33.8963],[-101.836,33.9052],[-101.8368,33.8963],[-101.8444,33.8963]]],[[[-101.4419,34.2179],[-101.4333,34.2218],[-101.4332,34.2181],[-101.4419,34.2179]]],[[[-101.5928,34.528],[-101.584,34.5399],[-101.5829,34.5278],[-101.5928,34.528]]],[[[-101.4529,35.3543],[-101.4528,35.3399],[-101.4881,35.3396],[-101.4882,35.354],[-101.4529,35.3543]]],[[[-102.124,35.8706],[-102.1594,35.8953],[-102.1239,35.8952],[-102.124,35.8706]]],[[[-101.963,35.9224],[-101.9455,35.9088],[-101.9631,35.9095],[-101.963,35.9224]]],[[[-101.5647,35.9442],[-101.543,35.9558],[-101.5431,35.9441],[-101.5647,35.9442]]],[[[-101.9723,36.169],[-101.9903,36.1833],[-101.9545,36.1978],[-101.9723,36.169]]],[[[-101.3832,33.9992],[-101.3946,34.0058],[-101.3833,34.0062],[-101.3832,33.9992]]],[[[-101.2901,33.9999],[-101.2728,34.0072],[-101.2728,34.0],[-101.2901,33.9999]]],[[[-101.2729,34.0073],[-101.2904,34.0216],[-101.273,34.0217],[-101.2729,34.0073]]],[[[-101.3141,34.067],[-101.3054,34.0742],[-101.3054,34.0671],[-101.3141,34.067]]],[[[-101.2133,34.1216],[-101.2047,34.1288],[-101.2046,34.1217],[-101.2133,34.1216]]],[[[-101.2921,34.1429],[-101.2834,34.1502],[-101.2833,34.143],[-101.2921,34.1429]]],[[[-101.416,34.2356],[-101.4335,34.2441],[-101.4161,34.2442],[-101.416,34.2356]]],[[[-101.1168,35.1652],[-101.0996,35.1799],[-101.0993,35.1652],[-101.1168,35.1652]]],[[[-101.2403,35.2081],[-101.2348,35.239],[-101.223,35.2228],[-101.188,35.2366],[-101.2052,35.208],[-101.2403,35.2081]]],[[[-101.1867,35.2547],[-101.2043,35.2466],[-101.2042,35.2546],[-101.1867,35.2547]]],[[[-101.3623,35.3543],[-101.3465,35.3689],[-101.3464,35.356],[-101.3623,35.3543]]],[[[-101.0743,36.1703],[-101.0741,36.1558],[-101.101,36.1556],[-101.1012,36.17],[-101.0743,36.1703]]],[[[-101.1106,36.1989],[-101.1283,36.1844],[-101.1285,36.1987],[-101.1106,36.1989]]],[[[-101.2451,36.2049],[-101.2359,36.1832],[-101.2448,36.1831],[-101.2451,36.2049]]],[[[-101.0755,36.2574],[-101.0663,36.243],[-101.0753,36.2429],[-101.0755,36.2574]]],[[[-101.1098,36.2934],[-101.0917,36.3009],[-101.0916,36.2937],[-101.1098,36.2934]]],[[[-98.6942,33.8246],[-98.681,33.8234],[-98.6941,33.8235],[-98.6942,33.8246]]],[[[-98.698,33.827],[-98.6873,33.8401],[-98.6837,33.8304],[-98.698,33.827]]],[[[-99.7755,34.0856],[-99.8019,34.0523],[-99.8127,34.07],[-99.8478,34.0559],[-99.8536,34.0952],[-99.9058,34.0866],[-99.9062,34.1013],[-99.8534,34.1153],[-99.8361,34.1006],[-99.836,34.115],[-99.801,34.1208],[-99.7755,34.0856]]],[[[-100.3338,34.1635],[-100.3348,34.1035],[-100.5138,34.103],[-100.5163,34.1764],[-100.3338,34.1635]]],[[[-100.7764,34.8943],[-100.7942,34.9053],[-100.7766,34.9034],[-100.7764,34.8943]]],[[[-100.123,35.0451],[-100.1141,35.0522],[-100.1142,35.0377],[-100.123,35.0451]]],[[[-100.3137,35.9217],[-100.2913,35.9363],[-100.2239,35.9364],[-100.273,35.9217],[-100.2549,35.891],[-100.3267,35.91],[-100.3444,35.9244],[-100.3177,35.9361],[-100.3137,35.9217]]],[[[-100.4154,35.9534],[-100.4452,35.9681],[-100.4154,35.9679],[-100.4154,35.9534]]],[[[-100.469,35.961],[-100.4616,35.9768],[-100.4508,35.9609],[-100.469,35.961]]],[[[-100.9105,36.1225],[-100.8927,36.1152],[-100.9105,36.1153],[-100.9105,36.1225]]],[[[-100.9868,36.1282],[-100.9867,36.1526],[-100.9464,36.1361],[-100.9464,36.1283],[-100.9868,36.1282]]],[[[-101.0022,36.142],[-100.9936,36.159],[-100.9932,36.142],[-101.0022,36.142]]],[[[-100.276,36.1728],[-100.2758,36.187],[-100.24,36.1868],[-100.24,36.1796],[-100.276,36.1728]]],[[[-100.9999,36.191],[-100.9909,36.2028],[-100.991,36.1882],[-100.9999,36.191]]]]}},{"type":"Feature","id":"Central Texas","properties":{"name":"Central Texas","unitCount":11,"color":"#8f6b4a","lon":-100.4855,"lat":31.51226},"geometry":{"type":"MultiPolygon","coordinates":[[[[-100.4747,31.3095],[-100.5051,31.2626],[-100.5227,31.3461],[-100.564,31.3239],[-100.6009,31.3313],[-100.5657,31.3486],[-100.6161,31.3716],[-100.6127,31.39],[-100.5739,31.3665],[-100.5796,31.3776],[-100.5556,31.3773],[-100.5614,31.4001],[-100.5402,31.3991],[-100.5338,31.3729],[-100.502,31.3676],[-100.5195,31.3568],[-100.4747,31.3095]]],[[[-100.5867,31.5656],[-100.5356,31.5342],[-100.55,31.5144],[-100.4822,31.4797],[-100.5029,31.4484],[-100.5287,31.4796],[-100.5338,31.4559],[-100.5562,31.4601],[-100.5405,31.4739],[-100.5624,31.4826],[-100.5451,31.4994],[-100.5867,31.5656]]],[[[-100.9308,32.3394],[-100.9257,32.3141],[-100.9415,32.3158],[-100.9442,32.3219],[-100.9308,32.3394]]],[[[-101.9182,32.4612],[-101.9055,32.449],[-101.9138,32.4472],[-101.9182,32.4612]]],[[[-100.991,32.6623],[-100.9993,32.6738],[-100.9908,32.6736],[-100.991,32.6623]]],[[[-101.9592,32.6707],[-101.9399,32.6674],[-101.9571,32.6638],[-101.9592,32.6707]]],[[[-101.9364,32.9493],[-101.8943,32.9475],[-101.9333,32.9389],[-101.9364,32.9493]]],[[[-99.1837,30.0469],[-99.1763,30.0413],[-99.1858,30.044],[-99.1837,30.0469]]],[[[-99.2192,30.8094],[-99.2311,30.8151],[-99.2192,30.8151],[-99.2192,30.8094]]],[[[-99.2047,30.8501],[-99.1893,30.8669],[-99.1892,30.8542],[-99.2047,30.8501]]],[[[-99.2397,30.8634],[-99.2335,30.8607],[-99.2402,30.8617],[-99.2397,30.8634]]],[[[-98.8313,31.8957],[-98.8759,31.8844],[-98.8725,31.9038],[-98.8313,31.8957]]],[[[-99.8757,32.2463],[-99.911,32.2272],[-99.9131,32.2481],[-99.8757,32.2463]]]]}},{"type":"Feature","id":"Pineywoods","properties":{"name":"Pineywoods","unitCount":17,"color":"#2f6b4f","lon":-94.53593,"lat":31.90531},"geometry":{"type":"MultiPolygon","coordinates":[[[[-94.1701,30.9358],[-94.1601,30.9038],[-94.1764,30.8949],[-94.1471,30.8935],[-94.1823,30.8717],[-94.1763,30.8534],[-94.2191,30.8596],[-94.2374,30.8945],[-94.2474,30.886],[-94.2371,30.9083],[-94.2163,30.902],[-94.2294,30.9262],[-94.2041,30.9337],[-94.2228,30.9372],[-94.1701,30.9358]]],[[[-94.9057,31.1312],[-94.9618,31.1635],[-94.9481,31.1731],[-94.9746,31.1899],[-94.9455,31.2023],[-94.9215,31.1855],[-94.859,31.2189],[-94.8502,31.1549],[-94.896,31.1537],[-94.9057,31.1312]]],[[[-94.1499,31.3232],[-94.227,31.3168],[-94.2289,31.3382],[-94.248,31.3402],[-94.2617,31.3167],[-94.2862,31.348],[-94.3157,31.3516],[-94.2682,31.3902],[-94.2082,31.3951],[-94.1526,31.363],[-94.1713,31.3456],[-94.1499,31.3232]]],[[[-95.3315,31.4411],[-95.3393,31.4462],[-95.3385,31.447],[-95.3315,31.4411]]],[[[-94.7558,31.4988],[-94.7348,31.4628],[-94.7721,31.4744],[-94.7558,31.4988]]],[[[-94.8036,31.4904],[-94.7894,31.4759],[-94.8189,31.4818],[-94.8036,31.4904]]],[[[-95.5982,31.6273],[-95.608,31.6385],[-95.5933,31.6345],[-95.5982,31.6273]]],[[[-95.6093,31.6451],[-95.6152,31.6403],[-95.6144,31.6506],[-95.6093,31.6451]]],[[[-95.7942,31.7044],[-95.8054,31.6714],[-95.8335,31.6955],[-95.8807,31.7004],[-95.8224,31.705],[-95.8215,31.7229],[-95.8218,31.7049],[-95.7942,31.7044]]],[[[-95.9184,31.9136],[-95.8922,31.8986],[-95.8929,31.8911],[-95.9174,31.8959],[-95.9184,31.9136]]],[[[-95.8676,31.9912],[-95.874,31.8951],[-95.9192,31.9179],[-95.9066,31.9349],[-95.9218,31.9351],[-95.9227,31.9748],[-95.8676,31.9912]]],[[[-94.9846,32.0025],[-94.967,31.924],[-94.9837,31.9223],[-94.996,31.9615],[-95.0141,31.9603],[-95.0012,31.9888],[-95.0146,31.9992],[-94.9846,32.0025]]],[[[-95.3389,32.603],[-95.2584,32.5759],[-95.2583,32.5607],[-95.3942,32.5893],[-95.3389,32.603]]],[[[-95.4131,32.6071],[-95.3947,32.5895],[-95.4156,32.6014],[-95.4131,32.6071]]],[[[-94.1119,32.6864],[-94.1028,32.6483],[-94.1213,32.641],[-94.152,32.641],[-94.1745,32.674],[-94.1667,32.6909],[-94.1696,32.6987],[-94.1119,32.6864]]],[[[-94.1714,32.6978],[-94.1703,32.6998],[-94.1692,32.6965],[-94.1714,32.6978]]],[[[-94.1673,32.7597],[-94.1652,32.7479],[-94.1359,32.7781],[-94.101,32.7528],[-94.121,32.7447],[-94.0941,32.747],[-94.0923,32.734],[-94.1019,32.7385],[-94.1449,32.7409],[-94.1701,32.7126],[-94.1673,32.7597]]],[[[-94.8306,33.3197],[-94.8012,33.2806],[-94.7057,33.2699],[-94.712,33.2956],[-94.6841,33.3157],[-94.6162,33.2598],[-94.5735,33.2829],[-94.5644,33.2253],[-94.5886,33.2389],[-94.6138,33.2148],[-94.6359,33.2281],[-94.6144,33.2441],[-94.6567,33.257],[-94.7232,33.2516],[-94.735,33.2356],[-94.7501,33.2618],[-94.8275,33.2706],[-94.825,33.2941],[-94.8791,33.303],[-94.8663,33.3213],[-94.8306,33.3197]]],[[[-93.9077,31.1813],[-93.9135,31.1855],[-93.902,31.1873],[-93.9077,31.1813]]],[[[-93.9672,31.2087],[-93.9635,31.1658],[-93.9712,31.161],[-93.9672,31.2087]]],[[[-93.8276,31.2532],[-93.8446,31.2269],[-93.866,31.2586],[-93.8911,31.2635],[-93.8712,31.2361],[-93.9243,31.2298],[-93.8819,31.2161],[-93.952,31.1813],[-93.8993,31.1695],[-93.9169,31.1518],[-93.9257,31.1682],[-93.9629,31.1656],[-93.9501,31.1886],[-93.9668,31.2084],[-93.9488,31.2458],[-93.9249,31.2493],[-93.9467,31.2653],[-93.9215,31.2951],[-93.884,31.2826],[-93.8606,31.3017],[-93.8276,31.2532]]],[[[-93.9789,31.9064],[-93.9622,31.9242],[-93.9218,31.9039],[-93.9367,31.8883],[-93.9789,31.9064]]],[[[-94.0947,32.0041],[-94.0452,32.0201],[-94.0425,31.9933],[-94.0169,31.9807],[-94.0665,31.9886],[-94.0628,32.007],[-94.0746,31.9968],[-94.1318,31.9985],[-94.1534,32.039],[-94.1231,32.0223],[-94.113,32.039],[-94.0947,32.0041]]],[[[-94.0945,32.7008],[-94.1157,32.7134],[-94.0951,32.7109],[-94.0945,32.7008]]],[[[-94.0925,32.7161],[-94.116,32.7139],[-94.12,32.7215],[-94.1021,32.7381],[-94.0925,32.7161]]],[[[-94.085,32.7157],[-94.0852,32.7358],[-94.0763,32.7408],[-94.085,32.7157]]],[[[-94.1309,32.736],[-94.1322,32.7254],[-94.1354,32.737],[-94.1309,32.736]]],[[[-94.1131,32.728],[-94.1137,32.7375],[-94.1107,32.7329],[-94.1131,32.728]]],[[[-94.1225,32.7314],[-94.1214,32.737],[-94.1167,32.7331],[-94.1225,32.7314]]]]}},{"type":"Feature","id":"San Antonio/Corpus Christi","properties":{"name":"San Antonio/Corpus Christi","unitCount":26,"color":"#b56b4a","lon":-97.65232,"lat":28.28389},"geometry":{"type":"MultiPolygon","coordinates":[[[[-97.8509,26.0524],[-97.8433,26.0587],[-97.8415,26.054],[-97.8509,26.0524]]],[[[-97.8434,26.0653],[-97.8477,26.0714],[-97.8435,26.0715],[-97.8434,26.0653]]],[[[-98.0274,26.1234],[-98.0166,26.1065],[-98.0442,26.1037],[-98.0274,26.1234]]],[[[-98.0442,26.1027],[-98.045,26.1222],[-98.0444,26.1221],[-98.0442,26.1027]]],[[[-98.7112,26.3206],[-98.7099,26.2894],[-98.7186,26.2896],[-98.7263,26.3176],[-98.7112,26.3206]]],[[[-97.8329,26.3177],[-97.8191,26.3249],[-97.817,26.3149],[-97.8329,26.3177]]],[[[-98.1764,27.2081],[-98.1844,27.1942],[-98.1844,27.2089],[-98.1764,27.2081]]],[[[-98.1473,27.281],[-98.1653,27.2745],[-98.1655,27.2812],[-98.1473,27.281]]],[[[-98.0779,27.6944],[-98.0684,27.688],[-98.0788,27.6879],[-98.0779,27.6944]]],[[[-99.3564,28.3383],[-99.3401,28.3059],[-99.3568,28.3059],[-99.3566,28.2869],[-99.4495,28.3081],[-99.4734,28.3608],[-99.3564,28.3383]]],[[[-98.3766,28.4527],[-98.4147,28.4711],[-98.4028,28.4857],[-98.4179,28.4953],[-98.3949,28.5213],[-98.432,28.4978],[-98.4619,28.5062],[-98.4585,28.4934],[-98.5055,28.4605],[-98.5061,28.4791],[-98.4822,28.4814],[-98.454,28.5331],[-98.423,28.5249],[-98.4197,28.5481],[-98.3759,28.5148],[-98.3608,28.5321],[-98.3753,28.5546],[-98.3494,28.5214],[-98.3292,28.5422],[-98.3282,28.5184],[-98.2955,28.5139],[-98.289,28.5268],[-98.2796,28.5227],[-98.2724,28.5287],[-98.262,28.5263],[-98.2375,28.4872],[-98.2426,28.4676],[-98.2962,28.4479],[-98.3677,28.4655],[-98.3766,28.4527]],[[-98.3075,28.5153],[-98.3075,28.5153],[-98.3075,28.5153],[-98.3075,28.5153]]],[[[-99.2787,28.6608],[-99.2793,28.6754],[-99.2761,28.6748],[-99.2787,28.6608]]],[[[-98.6383,29.2785],[-98.6273,29.2692],[-98.6384,29.2566],[-98.6383,29.2785]]],[[[-98.5501,29.2809],[-98.5545,29.2674],[-98.573,29.2731],[-98.5501,29.2809]]],[[[-97.5537,26.0002],[-97.5602,25.9755],[-97.557,25.9776],[-97.5578,25.9715],[-97.5753,25.9733],[-97.571,26.0023],[-97.5537,26.0002]]],[[[-97.7517,26.0801],[-97.7445,26.0784],[-97.746,26.0761],[-97.7517,26.0801]]],[[[-97.738,26.0774],[-97.744,26.0899],[-97.7369,26.0877],[-97.738,26.0774]]],[[[-97.6983,26.0926],[-97.7038,26.0959],[-97.6895,26.0908],[-97.6983,26.0926]]],[[[-97.5814,26.1733],[-97.5738,26.1735],[-97.5798,26.1705],[-97.5814,26.1733]]],[[[-97.5134,26.3171],[-97.5191,26.3101],[-97.5262,26.3138],[-97.5206,26.3258],[-97.5134,26.3171]],[[-97.5183,26.3129],[-97.5192,26.313],[-97.5192,26.3129],[-97.5183,26.3129]]],[[[-97.5143,26.3144],[-97.5068,26.329],[-97.504,26.3156],[-97.5143,26.3144]]],[[[-96.6215,28.2299],[-96.8515,28.0657],[-96.8035,28.1358],[-96.8201,28.1422],[-96.8163,28.1754],[-96.7608,28.1892],[-96.7486,28.172],[-96.7486,28.1897],[-96.6543,28.2282],[-96.6517,28.2516],[-96.5729,28.3016],[-96.5893,28.2936],[-96.6123,28.2922],[-96.5793,28.3021],[-96.5513,28.3024],[-96.5371,28.3095],[-96.5407,28.299],[-96.5628,28.2998],[-96.575,28.2929],[-96.5492,28.2926],[-96.4791,28.3269],[-96.5216,28.3231],[-96.5471,28.3062],[-96.5327,28.3215],[-96.4393,28.3437],[-96.4274,28.3709],[-96.4455,28.3724],[-96.4066,28.3993],[-96.4182,28.3697],[-96.4005,28.3558],[-96.4241,28.3325],[-96.6215,28.2299]]],[[[-96.8673,28.4316],[-96.8436,28.4704],[-96.8323,28.43],[-96.8673,28.4316]]],[[[-96.8348,28.464],[-96.8513,28.4876],[-96.8048,28.5189],[-96.7899,28.4846],[-96.8348,28.464]]],[[[-97.2399,29.14],[-97.2763,29.1402],[-97.241,29.1461],[-97.2399,29.14]]],[[[-97.2211,29.2263],[-97.2047,29.2442],[-97.1967,29.2437],[-97.1973,29.2366],[-97.2211,29.2263]]],[[[-97.2216,29.2481],[-97.2052,29.2443],[-97.2229,29.2265],[-97.2216,29.2481]]],[[[-97.2682,29.2579],[-97.2562,29.2488],[-97.2689,29.2495],[-97.2682,29.2579]]]]}},{"type":"Feature","id":"Dallas/Ft. Worth","properties":{"name":"Dallas/Ft. Worth","unitCount":19,"color":"#7aa2c4","lon":-96.47828,"lat":33.45276},"geometry":{"type":"MultiPolygon","coordinates":[[[[-98.2644,32.5614],[-98.268,32.5643],[-98.2642,32.565],[-98.2644,32.5614]]],[[[-98.2687,32.5643],[-98.2776,32.5678],[-98.2697,32.5694],[-98.2687,32.5643]]],[[[-96.3734,32.9819],[-96.3693,32.9745],[-96.3734,32.9744],[-96.3734,32.9819]]],[[[-96.3695,32.9818],[-96.3662,32.9791],[-96.369,32.9791],[-96.3695,32.9818]]],[[[-96.3719,32.9899],[-96.377,32.9948],[-96.3718,32.9947],[-96.3719,32.9899]]],[[[-96.3282,32.9967],[-96.3203,33.0068],[-96.3216,32.9966],[-96.3282,32.9967]]],[[[-96.3234,33.0356],[-96.323,33.0093],[-96.3403,33.0152],[-96.3234,33.0356]]],[[[-96.1556,33.0976],[-96.1589,33.0946],[-96.1593,33.0973],[-96.1556,33.0976]]],[[[-96.1716,33.126],[-96.1656,33.1148],[-96.1704,33.1133],[-96.1716,33.126]]],[[[-96.1656,33.126],[-96.162,33.1201],[-96.1657,33.1201],[-96.1656,33.126]]],[[[-97.0957,33.3432],[-97.1061,33.3867],[-97.141,33.3927],[-97.1261,33.3984],[-97.1424,33.4108],[-97.1206,33.4085],[-97.1591,33.4635],[-97.1236,33.4443],[-97.1294,33.4677],[-97.119,33.4569],[-97.1157,33.4912],[-97.1028,33.4897],[-97.106,33.5437],[-97.09,33.4822],[-97.1029,33.4253],[-97.0658,33.3946],[-97.0629,33.432],[-97.0323,33.4294],[-97.0484,33.4474],[-97.0254,33.4592],[-97.022,33.4384],[-97.0097,33.4441],[-97.0158,33.485],[-96.9987,33.4472],[-96.9839,33.4525],[-97.014,33.5189],[-96.9813,33.5042],[-96.9643,33.4515],[-96.9534,33.4963],[-96.9218,33.5131],[-96.9326,33.5466],[-96.9148,33.5115],[-96.8742,33.5208],[-96.8505,33.5063],[-96.9242,33.4985],[-96.9353,33.4618],[-96.8847,33.4658],[-96.8941,33.4507],[-96.8555,33.4459],[-96.9349,33.4471],[-96.9625,33.4095],[-96.9776,33.431],[-96.9993,33.4066],[-96.9833,33.3851],[-97.0059,33.3824],[-97.0308,33.3454],[-97.0957,33.3432]]],[[[-96.734,33.5157],[-96.7539,33.5077],[-96.7534,33.5192],[-96.734,33.5157]]],[[[-98.0412,33.5597],[-98.029,33.5761],[-98.0292,33.5575],[-98.0412,33.5597]]],[[[-98.0533,33.5713],[-98.0413,33.5661],[-98.0534,33.5661],[-98.0533,33.5713]]],[[[-98.0291,33.5762],[-98.0362,33.5816],[-98.0289,33.5816],[-98.0291,33.5762]]],[[[-98.0534,33.5867],[-98.0611,33.5797],[-98.061,33.5867],[-98.0534,33.5867]]],[[[-97.8718,33.7585],[-97.8515,33.7582],[-97.8519,33.7365],[-97.8648,33.7404],[-97.8718,33.7585]]],[[[-96.0743,32.8381],[-96.0617,32.8273],[-96.0743,32.8237],[-96.0743,32.8381]]],[[[-96.1279,32.933],[-96.1149,32.938],[-96.1187,32.933],[-96.1279,32.933]]],[[[-95.9761,33.0063],[-96.0107,32.9924],[-96.0034,33.0089],[-95.9839,33.0088],[-95.983,33.0065],[-95.9761,33.0063]]],[[[-95.9792,33.0138],[-95.9715,33.0063],[-95.9787,33.0065],[-95.9792,33.0138]]],[[[-96.1519,33.0894],[-96.1592,33.0932],[-96.1524,33.0928],[-96.1519,33.0894]]],[[[-96.1538,33.0977],[-96.1414,33.0941],[-96.1535,33.0943],[-96.1538,33.0977]]],[[[-95.6018,33.3119],[-95.6366,33.282],[-95.7041,33.2794],[-95.6018,33.3119]]],[[[-95.7197,33.3645],[-95.6925,33.3526],[-95.6862,33.3556],[-95.6872,33.3398],[-95.7039,33.3537],[-95.7139,33.3549],[-95.6795,33.3303],[-95.7366,33.2614],[-95.7479,33.2763],[-95.7752,33.2696],[-95.7946,33.2437],[-95.8011,33.2791],[-95.8321,33.2735],[-95.7818,33.3031],[-95.807,33.3255],[-95.7611,33.3109],[-95.7406,33.3186],[-95.755,33.3545],[-95.7201,33.3287],[-95.7015,33.3342],[-95.7197,33.3645]]],[[[-95.6619,33.3498],[-95.6143,33.3547],[-95.5954,33.3564],[-95.6147,33.3258],[-95.6619,33.3498]]],[[[-95.895,33.3705],[-95.9081,33.3809],[-95.8948,33.3775],[-95.895,33.3705]]],[[[-95.7184,33.3936],[-95.7298,33.3876],[-95.7296,33.3905],[-95.7184,33.3936]]],[[[-95.7449,33.4251],[-95.7514,33.4102],[-95.7534,33.4252],[-95.7449,33.4251]]],[[[-95.8155,33.4098],[-95.7939,33.4369],[-95.8051,33.4444],[-95.7848,33.4541],[-95.7823,33.4157],[-95.8155,33.4098]]],[[[-96.0177,33.5797],[-96.0244,33.5868],[-96.0173,33.5872],[-96.0177,33.5797]]],[[[-96.1096,33.6554],[-96.0564,33.6602],[-96.0592,33.6641],[-96.0675,33.6608],[-96.0706,33.6623],[-96.0558,33.6875],[-96.0479,33.6676],[-96.0682,33.6274],[-96.102,33.641],[-96.1055,33.621],[-96.1492,33.6009],[-96.1096,33.6554]]],[[[-95.6411,33.8451],[-95.6276,33.7929],[-95.6442,33.7908],[-95.6275,33.7855],[-95.6419,33.7845],[-95.6561,33.7956],[-95.6971,33.773],[-95.714,33.8129],[-95.6886,33.8375],[-95.6411,33.8451]]]]}},{"type":"Feature","id":"Trans-Pecos","properties":{"name":"Trans-Pecos","unitCount":3,"color":"#8a6f9b","lon":-103.03911,"lat":29.72083},"geometry":{"type":"MultiPolygon","coordinates":[[[[-102.8598,29.4435],[-102.825,29.4519],[-102.8238,29.4492],[-102.8598,29.4435]]],[[[-102.8249,29.452],[-102.8223,29.4521],[-102.8238,29.4492],[-102.8249,29.452]]],[[[-102.9672,29.46],[-102.963,29.4619],[-102.963,29.4601],[-102.9672,29.46]]],[[[-102.9653,29.4638],[-102.9653,29.4638],[-102.9652,29.4638],[-102.9653,29.4638]]],[[[-102.9833,29.4666],[-102.9706,29.538],[-102.9864,29.5227],[-103.0372,29.5355],[-103.0397,29.594],[-103.0883,29.6068],[-103.089,29.6379],[-103.0219,29.6541],[-103.0311,29.6333],[-102.938,29.6268],[-102.9399,29.6547],[-102.8899,29.6558],[-102.8898,29.6412],[-102.8569,29.6564],[-102.8394,29.6136],[-102.8058,29.6146],[-102.8064,29.6286],[-102.7608,29.6379],[-102.7737,29.6727],[-102.747,29.6587],[-102.7085,29.6958],[-102.723,29.7117],[-102.6907,29.7124],[-102.6965,29.6709],[-102.7419,29.6329],[-102.7408,29.5971],[-102.7683,29.5947],[-102.7717,29.5479],[-102.9197,29.5252],[-102.9154,29.4106],[-102.9488,29.4098],[-102.9671,29.4568],[-102.9551,29.4538],[-102.9507,29.4672],[-102.9833,29.4666]]],[[[-103.5509,29.9832],[-103.5762,30.0067],[-103.578,30.0507],[-103.464,30.0579],[-103.4496,30.0441],[-103.4354,29.9975],[-103.5509,29.9832]]],[[[-103.9712,31.9799],[-103.9563,31.992],[-103.944,31.9892],[-103.9393,31.9589],[-103.9044,31.9371],[-103.9139,31.8971],[-103.9314,31.9054],[-103.9193,31.9227],[-103.9435,31.9508],[-103.9489,31.985],[-103.9732,31.9792],[-103.9801,31.9847],[-103.984,31.9913],[-103.9797,32.0],[-103.9712,31.9799]]]]}},{"type":"Feature","id":"Austin/Waco","properties":{"name":"Austin/Waco","unitCount":21,"color":"#6b8f71","lon":-97.154,"lat":30.77859},"geometry":{"type":"MultiPolygon","coordinates":[[[[-96.7414,30.3229],[-96.7764,30.3214],[-96.7545,30.339],[-96.7657,30.3535],[-96.7414,30.3229]]],[[[-97.4141,30.6972],[-97.3794,30.7366],[-97.311,30.7031],[-97.3335,30.6782],[-97.4385,30.6436],[-97.4014,30.6712],[-97.3995,30.6957],[-97.4141,30.6972]]],[[[-97.4723,30.9116],[-97.4699,30.9021],[-97.4755,30.9036],[-97.4723,30.9116]]],[[[-96.9784,30.9059],[-96.9764,30.9173],[-96.9745,30.9168],[-96.9784,30.9059]]],[[[-97.0039,30.9206],[-97.0126,30.9199],[-97.0136,30.9215],[-97.0039,30.9206]]],[[[-96.8953,30.9637],[-96.9126,30.9643],[-96.9124,30.9769],[-96.9033,30.9816],[-96.8953,30.9637]]],[[[-96.9768,30.9807],[-96.9725,30.9728],[-96.9762,30.9632],[-96.9768,30.9807]]],[[[-96.9521,30.9884],[-96.9389,30.993],[-96.9344,30.9866],[-96.9521,30.9884]]],[[[-96.9809,31.0099],[-96.9718,31.0227],[-96.9577,30.9978],[-96.9631,30.9949],[-96.9809,31.0099]]],[[[-97.2181,31.2458],[-97.2315,31.2479],[-97.2222,31.2517],[-97.2181,31.2458]]],[[[-96.7606,31.2641],[-96.7742,31.2655],[-96.7623,31.2681],[-96.7606,31.2641]]],[[[-96.7438,31.2798],[-96.7544,31.2789],[-96.745,31.2837],[-96.7455,31.283],[-96.7454,31.2821],[-96.7438,31.2798]]],[[[-96.8528,31.3368],[-96.8717,31.3469],[-96.8632,31.3536],[-96.8528,31.3368]]],[[[-96.8632,31.3536],[-96.8811,31.3626],[-96.8788,31.3717],[-96.8632,31.3536]]],[[[-96.8489,32.0122],[-96.8454,32.0309],[-96.8368,32.0184],[-96.8489,32.0122]]],[[[-96.7197,30.1383],[-96.7214,30.1452],[-96.718,30.14],[-96.7197,30.1383]]],[[[-96.655,30.1428],[-96.6736,30.1445],[-96.6688,30.149],[-96.655,30.1428]]],[[[-96.6823,30.1518],[-96.6787,30.1572],[-96.6724,30.1517],[-96.6823,30.1518]]],[[[-96.7197,30.1616],[-96.7061,30.155],[-96.7081,30.1531],[-96.7197,30.1616]]],[[[-96.6908,30.2838],[-96.7419,30.2579],[-96.7047,30.2921],[-96.6908,30.2838]]],[[[-96.6815,30.2954],[-96.7021,30.3111],[-96.6711,30.2969],[-96.6815,30.2954]]],[[[-96.7472,31.2549],[-96.7455,31.2381],[-96.754,31.2516],[-96.7472,31.2549]]],[[[-96.7442,31.2746],[-96.7505,31.26],[-96.7557,31.2673],[-96.7442,31.2746]]],[[[-96.3607,31.2862],[-96.3957,31.2662],[-96.4092,31.2771],[-96.3607,31.2862]]],[[[-96.7389,31.2869],[-96.7428,31.2787],[-96.7451,31.2833],[-96.7389,31.2869]]],[[[-96.5772,31.4638],[-96.59,31.469],[-96.5729,31.4738],[-96.5772,31.4638]]],[[[-96.6755,31.5371],[-96.6713,31.5451],[-96.671,31.5448],[-96.6755,31.5371]]],[[[-96.5926,32.0884],[-96.6094,32.0847],[-96.6057,32.099],[-96.5926,32.0884]]]]}},{"type":"Feature","id":"Houston/Beaumont","properties":{"name":"Houston/Beaumont","unitCount":14,"color":"#3d7a8c","lon":-95.3493,"lat":30.29597},"geometry":{"type":"MultiPolygon","coordinates":[[[[-96.012,28.6658],[-96.076,28.6374],[-96.0762,28.6963],[-96.015,28.6996],[-96.012,28.6658]]],[[[-95.4406,28.8744],[-95.4633,28.8848],[-95.4576,28.9295],[-95.5096,28.9499],[-95.5051,28.985],[-95.4998,28.9627],[-95.4311,28.942],[-95.4135,28.9559],[-95.4377,28.9533],[-95.4443,28.9693],[-95.3921,28.9519],[-95.4018,28.8983],[-95.4406,28.8744]]],[[[-95.6241,28.9514],[-95.6514,28.9262],[-95.653,28.9556],[-95.6241,28.9514]]],[[[-95.6142,28.9476],[-95.6245,28.965],[-95.6096,28.9859],[-95.5848,28.9664],[-95.6142,28.9476]]],[[[-95.5801,30.5833],[-95.5236,30.5508],[-95.5472,30.4958],[-95.6201,30.449],[-95.6656,30.4674],[-95.6833,30.4423],[-95.6832,30.4553],[-95.7642,30.4701],[-95.7679,30.5014],[-95.7733,30.4866],[-95.8023,30.4913],[-95.789,30.5455],[-95.8114,30.5547],[-95.7598,30.5566],[-95.7834,30.5702],[-95.7834,30.5929],[-95.7587,30.6037],[-95.7517,30.5849],[-95.6517,30.5841],[-95.644,30.598],[-95.6249,30.5697],[-95.5945,30.6182],[-95.5801,30.5833]]],[[[-95.4657,30.5789],[-95.4811,30.6032],[-95.4462,30.5959],[-95.4657,30.5789]]],[[[-95.405,30.6089],[-95.3859,30.5968],[-95.4209,30.6059],[-95.405,30.6089]]],[[[-95.531,30.6029],[-95.5462,30.6279],[-95.5324,30.6395],[-95.5296,30.6262],[-95.5153,30.639],[-95.5415,30.6472],[-95.5222,30.6652],[-95.509,30.6336],[-95.531,30.6029]]],[[[-95.4529,30.6282],[-95.4327,30.6299],[-95.4468,30.6223],[-95.4529,30.6282]]],[[[-95.4863,30.6403],[-95.4853,30.6372],[-95.4877,30.6392],[-95.4863,30.6403]]],[[[-95.5828,30.6352],[-95.5597,30.6511],[-95.5368,30.6675],[-95.5433,30.6474],[-95.5828,30.6352]]],[[[-95.4719,30.6426],[-95.4651,30.6617],[-95.4589,30.656],[-95.4719,30.6426]]],[[[-95.4752,30.6584],[-95.4971,30.6528],[-95.5041,30.6632],[-95.4878,30.6667],[-95.4752,30.6584]]],[[[-95.4611,30.6835],[-95.4478,30.6808],[-95.4708,30.6677],[-95.4611,30.6835]]],[[[-95.4124,30.7357],[-95.4991,30.6873],[-95.5105,30.7056],[-95.4876,30.7109],[-95.521,30.7388],[-95.4521,30.7504],[-95.4471,30.722],[-95.4124,30.7357]]],[[[-95.5043,30.7505],[-95.5156,30.7473],[-95.5157,30.7504],[-95.5043,30.7505]]],[[[-94.7847,30.0366],[-94.8007,30.0294],[-94.8006,30.0346],[-94.7847,30.0366]]],[[[-95.1844,30.3278],[-95.2124,30.3363],[-95.1844,30.3367],[-95.1844,30.3278]]],[[[-95.0622,30.4138],[-95.0857,30.4241],[-95.0627,30.4242],[-95.0622,30.4138]]],[[[-95.2784,30.4567],[-95.2779,30.4362],[-95.29,30.4463],[-95.2784,30.4567]]],[[[-95.1389,30.5716],[-95.0799,30.5519],[-95.0891,30.5254],[-95.0699,30.5254],[-95.0696,30.5083],[-95.1046,30.4847],[-95.0406,30.4903],[-95.0531,30.4853],[-95.0378,30.4502],[-95.1074,30.4507],[-95.0955,30.3957],[-95.1274,30.3991],[-95.1326,30.4279],[-95.1258,30.389],[-95.1601,30.3645],[-95.1907,30.4008],[-95.2246,30.4022],[-95.2002,30.4242],[-95.1834,30.4002],[-95.1524,30.4016],[-95.1771,30.4087],[-95.1801,30.4459],[-95.2038,30.4663],[-95.1293,30.4629],[-95.1285,30.4864],[-95.1374,30.4746],[-95.1646,30.4871],[-95.1283,30.5062],[-95.1813,30.5028],[-95.2227,30.5228],[-95.1658,30.5371],[-95.1593,30.5545],[-95.1763,30.5609],[-95.1389,30.5716]]],[[[-94.4328,30.4839],[-94.4272,30.4731],[-94.4325,30.4709],[-94.4328,30.4839]]],[[[-95.2634,30.5008],[-95.2283,30.4887],[-95.2568,30.4562],[-95.2856,30.4754],[-95.2634,30.5008]]],[[[-95.3617,30.5177],[-95.3658,30.5169],[-95.3643,30.518],[-95.3617,30.5177]]],[[[-95.3604,30.5255],[-95.3583,30.5281],[-95.3551,30.5271],[-95.3604,30.5255]]],[[[-95.1023,30.5764],[-95.1045,30.582],[-95.0999,30.5789],[-95.1023,30.5764]]],[[[-95.2384,30.5973],[-95.2276,30.5916],[-95.2384,30.5916],[-95.2384,30.5973]]],[[[-95.1529,30.594],[-95.1546,30.6014],[-95.1444,30.5938],[-95.1529,30.594]]],[[[-95.2506,30.5776],[-95.293,30.5602],[-95.318,30.5622],[-95.2988,30.5709],[-95.3132,30.589],[-95.2883,30.591],[-95.3062,30.6115],[-95.3291,30.6117],[-95.3446,30.5863],[-95.3413,30.6242],[-95.3106,30.649],[-95.2799,30.6095],[-95.2305,30.6261],[-95.2506,30.5776]]],[[[-95.3833,30.6041],[-95.3762,30.6109],[-95.3735,30.6079],[-95.3833,30.6041]]],[[[-95.3347,30.6618],[-95.3349,30.669],[-95.3309,30.6651],[-95.3347,30.6618]]],[[[-95.3389,30.6659],[-95.3489,30.6662],[-95.3435,30.6704],[-95.3389,30.6659]]],[[[-95.3184,30.7144],[-95.3715,30.6408],[-95.3651,30.6193],[-95.4123,30.6188],[-95.4357,30.6892],[-95.3952,30.6939],[-95.4166,30.6994],[-95.4164,30.7168],[-95.3776,30.7001],[-95.3843,30.6861],[-95.3645,30.6917],[-95.343,30.7075],[-95.3524,30.7149],[-95.3435,30.7385],[-95.3432,30.7216],[-95.3184,30.7144]]],[[[-94.0394,29.7292],[-94.0205,29.6828],[-93.981,29.6821],[-94.0698,29.6681],[-94.0394,29.7292]]],[[[-94.0708,29.9472],[-94.0639,29.9327],[-94.07,29.9327],[-94.0708,29.9472]]],[[[-94.0884,29.9491],[-94.0725,29.9346],[-94.0881,29.9345],[-94.0884,29.9491]]],[[[-94.0703,29.9548],[-94.0545,29.9477],[-94.0703,29.9477],[-94.0703,29.9548]]],[[[-94.1087,29.9463],[-94.1295,29.9537],[-94.109,29.981],[-94.1087,29.9463]]],[[[-94.3457,29.9584],[-94.3642,29.9727],[-94.3375,29.9724],[-94.3457,29.9584]]],[[[-94.109,29.981],[-94.109,29.981],[-94.109,29.981],[-94.109,29.981]]],[[[-93.8661,29.9982],[-93.8574,29.9905],[-93.868,29.9906],[-93.8661,29.9982]]],[[[-93.9,30.005],[-93.8762,30.016],[-93.8693,29.995],[-93.8982,29.9864],[-93.9,30.005]]],[[[-93.8392,30.006],[-93.8265,30.0242],[-93.8048,30.0212],[-93.8362,29.9828],[-93.8553,29.9901],[-93.8723,30.0059],[-93.8392,30.006]],[[-93.8487,29.9893],[-93.8494,29.9896],[-93.8399,29.985],[-93.8487,29.9893]]],[[[-93.8664,30.0287],[-93.8571,30.0064],[-93.8662,30.0063],[-93.8664,30.0287]]],[[[-93.8989,30.0318],[-93.9258,30.0132],[-93.9574,30.0253],[-93.9579,30.0464],[-93.8989,30.0318]]],[[[-93.7049,30.1114],[-93.7292,30.118],[-93.7175,30.1205],[-93.702,30.127],[-93.7049,30.1114]]],[[[-93.7394,30.1293],[-93.7251,30.1442],[-93.7423,30.1486],[-93.6895,30.1408],[-93.7183,30.1206],[-93.7394,30.1293]]],[[[-93.7065,30.1513],[-93.71,30.1478],[-93.7125,30.1514],[-93.7065,30.1513]]],[[[-93.723,30.1593],[-93.707,30.1593],[-93.7072,30.1529],[-93.7291,30.1572],[-93.723,30.1593]]],[[[-93.7294,30.157],[-93.7314,30.1661],[-93.7026,30.1658],[-93.7064,30.1592],[-93.722,30.1615],[-93.7231,30.1594],[-93.7287,30.1584],[-93.7294,30.157]]]]}}]}